[{"code":"101050104","name":"阿城","pinyin":"acheng","province":"黑龙江"},{"code":"101050503","name":"安达","pinyin":"anda","province":"黑龙江"},{"code":"101060303","name":"安图","pinyin":"antu","province":"吉林"},{"code":"101070301","name":"鞍山","pinyin":"anshan","province":"辽宁"},{"code":"101080603","name":"阿鲁旗","pinyin":"aluqi","province":"内蒙古"},{"code":"101080614","name":"敖汉","pinyin":"aohan","province":"内蒙古"},{"code":"101080904","name":"阿巴嘎","pinyin":"abaga","province":"内蒙古"},{"code":"101081003","name":"阿荣旗","pinyin":"arongqi","province":"内蒙古"},{"code":"101081102","name":"阿尔山","pinyin":"aershan","province":"内蒙古"},{"code":"101081201","name":"阿左旗","pinyin":"azuoqi","province":"内蒙古"},{"code":"101081202","name":"阿右旗","pinyin":"ayouqi","province":"内蒙古"},{"code":"101090211","name":"安新","pinyin":"anxin","province":"河北"},{"code":"101090220","name":"安国","pinyin":"anguo","province":"河北"},{"code":"101090806","name":"安平","pinyin":"anping","province":"河北"},{"code":"101100716","name":"安泽","pinyin":"anze","province":"山西"},{"code":"101110307","name":"安塞","pinyin":"ansai","province":"陕西"},{"code":"101110701","name":"安康","pinyin":"ankang","province":"陕西"},{"code":"101120607","name":"安丘","pinyin":"anqiu","province":"山东"},{"code":"101130701","name":"阿拉尔","pinyin":"alaer","province":"新疆"},{"code":"101130801","name":"阿克苏","pinyin":"akesu","province":"新疆"},{"code":"101130809","name":"阿瓦提","pinyin":"awati","province":"新疆"},{"code":"101131401","name":"阿勒泰","pinyin":"aletai","province":"新疆"},{"code":"101131501","name":"阿图什","pinyin":"atushi","province":"新疆"},{"code":"101131503","name":"阿克陶","pinyin":"aketao","province":"新疆"},{"code":"101131504","name":"阿合奇","pinyin":"aheqi","province":"新疆"},{"code":"101131606","name":"阿拉山口","pinyin":"alashankou","province":"新疆"},{"code":"101140205","name":"定日","pinyin":"anri","province":"西藏"},{"code":"101140211","name":"昂仁","pinyin":"angren","province":"西藏"},{"code":"101140605","name":"安多","pinyin":"anduo","province":"西藏"},{"code":"101140701","name":"阿里","pinyin":"ali","province":"西藏"},{"code":"101160208","name":"安定","pinyin":"anding","province":"甘肃"},{"code":"101160804","name":"阿克塞","pinyin":"akesai","province":"甘肃"},{"code":"101180201","name":"安阳","pinyin":"anyang","province":"河南"},{"code":"101200402","name":"安陆","pinyin":"anlu","province":"湖北"},{"code":"101210203","name":"安吉","pinyin":"anji","province":"浙江"},{"code":"101220601","name":"安庆","pinyin":"anqing","province":"安徽"},{"code":"101230502","name":"安溪","pinyin":"anxi","province":"福建"},{"code":"101240104","name":"安义","pinyin":"anyi","province":"江西"},{"code":"101240403","name":"乐安","pinyin":"anle","province":"江西"},{"code":"101240612","name":"安福","pinyin":"anfu","province":"江西"},{"code":"101240712","name":"安远","pinyin":"anyuan","province":"江西"},{"code":"101240904","name":"安源","pinyin":"anyuan","province":"江西"},{"code":"101250509","name":"安仁","pinyin":"anren","province":"湖南"},{"code":"101250602","name":"安乡","pinyin":"anxiang","province":"湖南"},{"code":"101250704","name":"安化","pinyin":"anhua","province":"湖南"},{"code":"101260301","name":"安顺","pinyin":"anshun","province":"贵州"},{"code":"101260907","name":"安龙","pinyin":"anlong","province":"贵州"},{"code":"101270404","name":"安县","pinyin":"anxian","province":"四川"},{"code":"101271302","name":"安岳","pinyin":"anyue","province":"四川"},{"code":"101271901","name":"阿坝","pinyin":"aba","province":"四川"},{"code":"101290112","name":"安宁","pinyin":"anning","province":"云南"},{"code":"101301210","name":"都安","pinyin":"andu","province":"广西"},{"code":"101010100","name":"北京","pinyin":"beijing","province":"北京"},{"code":"101020300","name":"宝山","pinyin":"baoshan","province":"上海"},{"code":"101030300","name":"宝坻","pinyin":"baodi","province":"天津"},{"code":"101030600","name":"北辰","pinyin":"beichen","province":"天津"},{"code":"101040800","name":"北碚","pinyin":"beibei","province":"重庆"},{"code":"101040900","name":"巴南","pinyin":"banan","province":"重庆"},{"code":"101042900","name":"璧山","pinyin":"bishan","province":"重庆"},{"code":"101050105","name":"宾县","pinyin":"binxian","province":"黑龙江"},{"code":"101050107","name":"巴彦","pinyin":"bayan","province":"黑龙江"},{"code":"101050207","name":"拜泉","pinyin":"baiquan","province":"黑龙江"},{"code":"101050606","name":"北安","pinyin":"beian","province":"黑龙江"},{"code":"101051003","name":"勃利","pinyin":"boli","province":"黑龙江"},{"code":"101051303","name":"宝清","pinyin":"baoqing","province":"黑龙江"},{"code":"101060601","name":"白城","pinyin":"baicheng","province":"吉林"},{"code":"101060901","name":"白山","pinyin":"baishan","province":"吉林"},{"code":"101070501","name":"本溪","pinyin":"benxi","province":"辽宁"},{"code":"101070502","name":"本溪县","pinyin":"benxixian","province":"辽宁"},{"code":"101070706","name":"北镇","pinyin":"beizhen","province":"辽宁"},{"code":"101071205","name":"北票","pinyin":"beipiao","province":"辽宁"},{"code":"101080201","name":"包头","pinyin":"baotou","province":"内蒙古"},{"code":"101080202","name":"白云鄂博","pinyin":"baiyunebo","province":"内蒙古"},{"code":"101080511","name":"巴雅尔吐胡硕","pinyin":"bayaertuhushuo","province":"内蒙古"},{"code":"101080605","name":"巴林左旗","pinyin":"balinzuoqi","province":"内蒙古"},{"code":"101080606","name":"巴林右旗","pinyin":"balinyouqi","province":"内蒙古"},{"code":"101080612","name":"八里罕","pinyin":"balihan","province":"内蒙古"},{"code":"101080615","name":"宝国吐","pinyin":"baoguotu","province":"内蒙古"},{"code":"101080916","name":"博克图","pinyin":"boketu","province":"内蒙古"},{"code":"101090201","name":"保定","pinyin":"baoding","province":"河北"},{"code":"101090225","name":"博野","pinyin":"boye","province":"河北"},{"code":"101090608","name":"霸州","pinyin":"bazhou","province":"河北"},{"code":"101090711","name":"泊头","pinyin":"botou","province":"河北"},{"code":"101090905","name":"柏乡","pinyin":"baixiang","province":"河北"},{"code":"101091106","name":"北戴河","pinyin":"beidaihe","province":"河北"},{"code":"101101011","name":"保德","pinyin":"bode","province":"山西"},{"code":"101110208","name":"彬县","pinyin":"binxian","province":"陕西"},{"code":"101110505","name":"白水","pinyin":"baishui","province":"陕西"},{"code":"101110708","name":"白河","pinyin":"baihe","province":"陕西"},{"code":"101110901","name":"宝鸡","pinyin":"baoji","province":"陕西"},{"code":"101120303","name":"博山","pinyin":"boshan","province":"山东"},{"code":"101121101","name":"滨州","pinyin":"binzhou","province":"山东"},{"code":"101121102","name":"博兴","pinyin":"boxing","province":"山东"},{"code":"101130104","name":"巴仑台","pinyin":"baluntai","province":"新疆"},{"code":"101130110","name":"白杨沟","pinyin":"baiyanggou","province":"新疆"},{"code":"101130203","name":"白碱滩","pinyin":"baijiantan","province":"新疆"},{"code":"101130610","name":"巴音布鲁克","pinyin":"bayinbuluke","province":"新疆"},{"code":"101130612","name":"博湖","pinyin":"bohu","province":"新疆"},{"code":"101130804","name":"拜城","pinyin":"baicheng","province":"新疆"},{"code":"101130908","name":"巴楚","pinyin":"bachu","province":"新疆"},{"code":"101131203","name":"巴里坤","pinyin":"balikun","province":"新疆"},{"code":"101131406","name":"布尔津","pinyin":"buerjin","province":"新疆"},{"code":"101131601","name":"博乐","pinyin":"bole","province":"新疆"},{"code":"101140217","name":"白朗","pinyin":"bailang","province":"西藏"},{"code":"101140402","name":"波密","pinyin":"bomi","province":"西藏"},{"code":"101140503","name":"边坝","pinyin":"bianba","province":"西藏"},{"code":"101140508","name":"八宿","pinyin":"basu","province":"西藏"},{"code":"101140604","name":"班戈","pinyin":"bange","province":"西藏"},{"code":"101140608","name":"巴青","pinyin":"baqing","province":"西藏"},{"code":"101140609","name":"比如","pinyin":"biru","province":"西藏"},{"code":"101150502","name":"班玛","pinyin":"banma","province":"青海"},{"code":"101161301","name":"白银","pinyin":"baiyin","province":"甘肃"},{"code":"101180503","name":"宝丰","pinyin":"baofeng","province":"河南"},{"code":"101181106","name":"博爱","pinyin":"boai","province":"河南"},{"code":"101181606","name":"泌阳","pinyin":"biyang","province":"河南"},{"code":"101190602","name":"宝应","pinyin":"baoying","province":"江苏"},{"code":"101190703","name":"滨海","pinyin":"binhai","province":"江苏"},{"code":"101200203","name":"保康","pinyin":"baokang","province":"湖北"},{"code":"101201008","name":"巴东","pinyin":"badong","province":"湖北"},{"code":"101210410","name":"北仑","pinyin":"beilun","province":"浙江"},{"code":"101220201","name":"蚌埠","pinyin":"bengbu","province":"安徽"},{"code":"101220901","name":"亳州","pinyin":"bozhou","province":"安徽"},{"code":"101251502","name":"保靖","pinyin":"baojing","province":"湖南"},{"code":"101260102","name":"白云","pinyin":"baiyun","province":"贵州"},{"code":"101260701","name":"毕节","pinyin":"bijie","province":"贵州"},{"code":"101270406","name":"北川","pinyin":"beichuan","province":"四川"},{"code":"101270901","name":"巴中","pinyin":"bazhong","province":"四川"},{"code":"101271619","name":"布拖","pinyin":"butuo","province":"四川"},{"code":"101271708","name":"宝兴","pinyin":"baoxing","province":"四川"},{"code":"101271811","name":"白玉","pinyin":"baiyu","province":"四川"},{"code":"101271815","name":"巴塘","pinyin":"batang","province":"四川"},{"code":"101280302","name":"博罗","pinyin":"boluo","province":"广东"},{"code":"101290205","name":"宾川","pinyin":"binchuan","province":"云南"},{"code":"101290501","name":"保山","pinyin":"baoshan","province":"云南"},{"code":"101300109","name":"宾阳","pinyin":"binyang","province":"广西"},{"code":"101300902","name":"博白","pinyin":"bobai","province":"广西"},{"code":"101300903","name":"北流","pinyin":"beiliu","province":"广西"},{"code":"101301001","name":"百色","pinyin":"baise","province":"广西"},{"code":"101301204","name":"巴马","pinyin":"bama","province":"广西"},{"code":"101301301","name":"北海","pinyin":"beihai","province":"广西"},{"code":"101310207","name":"白沙","pinyin":"baisha","province":"海南"},{"code":"101310214","name":"保亭","pinyin":"baoting","province":"海南"},{"code":"101010300","name":"朝阳","pinyin":"chaoyang","province":"北京"},{"code":"101010700","name":"昌平","pinyin":"changping","province":"北京"},{"code":"101021100","name":"崇明","pinyin":"chongming","province":"上海"},{"code":"101040100","name":"重庆","pinyin":"chongqing","province":"重庆"},{"code":"101041000","name":"长寿","pinyin":"changshou","province":"重庆"},{"code":"101041600","name":"城口","pinyin":"chengkou","province":"重庆"},{"code":"101060101","name":"长春","pinyin":"changchun","province":"吉林"},{"code":"101060804","name":"长岭","pinyin":"changling","province":"吉林"},{"code":"101060905","name":"长白","pinyin":"changbai","province":"吉林"},{"code":"101070206","name":"长海","pinyin":"changhai","province":"辽宁"},{"code":"101071103","name":"昌图","pinyin":"changtu","province":"辽宁"},{"code":"101071201","name":"朝阳","pinyin":"chaoyang","province":"辽宁"},{"code":"101080408","name":"察右前旗","pinyin":"chayouqianqi","province":"内蒙古"},{"code":"101080409","name":"察右中旗","pinyin":"chayouzhongqi","province":"内蒙古"},{"code":"101080410","name":"察右后旗","pinyin":"chayouhouqi","province":"内蒙古"},{"code":"101080601","name":"赤峰","pinyin":"chifeng","province":"内蒙古"},{"code":"101081007","name":"陈旗","pinyin":"chenqi","province":"内蒙古"},{"code":"101090313","name":"赤城","pinyin":"chicheng","province":"河北"},{"code":"101090314","name":"崇礼","pinyin":"chongli","province":"河北"},{"code":"101090402","name":"承德","pinyin":"chengde","province":"河北"},{"code":"101090403","name":"承德县","pinyin":"chengdexian","province":"河北"},{"code":"101090512","name":"曹妃甸","pinyin":"caofeidian","province":"河北"},{"code":"101090701","name":"沧州","pinyin":"cangzhou","province":"河北"},{"code":"101090716","name":"沧县","pinyin":"cangxian","province":"河北"},{"code":"101091004","name":"成安","pinyin":"chengan","province":"河北"},{"code":"101091007","name":"磁县","pinyin":"cixian","province":"河北"},{"code":"101091103","name":"昌黎","pinyin":"changli","province":"河北"},{"code":"101100501","name":"长治","pinyin":"changzhi","province":"山西"},{"code":"101110102","name":"长安","pinyin":"changan","province":"陕西"},{"code":"101110204","name":"淳化","pinyin":"chunhua","province":"陕西"},{"code":"101110209","name":"长武","pinyin":"changwu","province":"陕西"},{"code":"101110508","name":"澄城","pinyin":"chengcheng","province":"陕西"},{"code":"101110806","name":"城固","pinyin":"chenggu","province":"陕西"},{"code":"101110912","name":"陈仓","pinyin":"chencang","province":"陕西"},{"code":"101120102","name":"长清","pinyin":"changqing","province":"山东"},{"code":"101120503","name":"长岛","pinyin":"changdao","province":"山东"},{"code":"101120605","name":"昌乐","pinyin":"changle","province":"山东"},{"code":"101120606","name":"昌邑","pinyin":"changyi","province":"山东"},{"code":"101120904","name":"苍山","pinyin":"cangshan","province":"山东"},{"code":"101121007","name":"曹县","pinyin":"caoxian","province":"山东"},{"code":"101121008","name":"成武","pinyin":"chengwu","province":"山东"},{"code":"101121305","name":"成山头","pinyin":"chengshantou","province":"山东"},{"code":"101121705","name":"茌平","pinyin":"chiping","province":"山东"},{"code":"101130401","name":"昌吉","pinyin":"changji","province":"新疆"},{"code":"101130409","name":"蔡家湖","pinyin":"caijiahu","province":"新疆"},{"code":"101131002","name":"察布查尔","pinyin":"chabuchaer","province":"新疆"},{"code":"101131303","name":"策勒","pinyin":"cele","province":"新疆"},{"code":"101140306","name":"错那","pinyin":"cuona","province":"西藏"},{"code":"101140312","name":"措美","pinyin":"cuomei","province":"西藏"},{"code":"101140404","name":"察隅","pinyin":"chayu","province":"西藏"},{"code":"101140501","name":"昌都","pinyin":"changdu","province":"西藏"},{"code":"101140510","name":"察雅","pinyin":"chaya","province":"西藏"},{"code":"101140710","name":"措勤","pinyin":"cuoqin","province":"西藏"},{"code":"101150602","name":"称多","pinyin":"chenduo","province":"青海"},{"code":"101160304","name":"崇信","pinyin":"chongxin","province":"甘肃"},{"code":"101161002","name":"成县","pinyin":"chengxian","province":"甘肃"},{"code":"101180308","name":"长垣","pinyin":"changyuan","province":"河南"},{"code":"101180404","name":"长葛","pinyin":"changge","province":"河南"},{"code":"101190402","name":"常熟","pinyin":"changshu","province":"江苏"},{"code":"101191101","name":"常州","pinyin":"changzhou","province":"江苏"},{"code":"101200102","name":"蔡甸","pinyin":"caidian","province":"湖北"},{"code":"101200702","name":"赤壁","pinyin":"chibi","province":"湖北"},{"code":"101200704","name":"崇阳","pinyin":"chongyang","province":"湖北"},{"code":"101200908","name":"长阳","pinyin":"changyang","province":"湖北"},{"code":"101210104","name":"淳安","pinyin":"chunan","province":"浙江"},{"code":"101210202","name":"长兴","pinyin":"changxing","province":"浙江"},{"code":"101210403","name":"慈溪","pinyin":"cixi","province":"浙江"},{"code":"101210709","name":"苍南","pinyin":"cangnan","province":"浙江"},{"code":"101211002","name":"常山","pinyin":"changshan","province":"浙江"},{"code":"101220102","name":"长丰","pinyin":"changfeng","province":"安徽"},{"code":"101221101","name":"滁州","pinyin":"chuzhou","province":"安徽"},{"code":"101221601","name":"巢湖","pinyin":"chaohu","province":"安徽"},{"code":"101221701","name":"池州","pinyin":"chizhou","province":"安徽"},{"code":"101230110","name":"长乐","pinyin":"changle","province":"福建"},{"code":"101230407","name":"城厢","pinyin":"chengxiang","province":"福建"},{"code":"101230507","name":"崇武","pinyin":"chongwu","province":"福建"},{"code":"101230602","name":"长泰","pinyin":"changtai","province":"福建"},{"code":"101230702","name":"长汀","pinyin":"changting","province":"福建"},{"code":"101240404","name":"崇仁","pinyin":"chongren","province":"江西"},{"code":"101240702","name":"崇义","pinyin":"chongyi","province":"江西"},{"code":"101250101","name":"长沙","pinyin":"changsha","province":"湖南"},{"code":"101250305","name":"茶陵","pinyin":"chaling","province":"湖南"},{"code":"101250406","name":"常宁","pinyin":"changning","province":"湖南"},{"code":"101250501","name":"郴州","pinyin":"chenzhou","province":"湖南"},{"code":"101250601","name":"常德","pinyin":"changde","province":"湖南"},{"code":"101250909","name":"城步","pinyin":"chengbu","province":"湖南"},{"code":"101251103","name":"慈利","pinyin":"cili","province":"湖南"},{"code":"101251204","name":"辰溪","pinyin":"chenxi","province":"湖南"},{"code":"101260208","name":"赤水","pinyin":"chishui","province":"贵州"},{"code":"101260404","name":"长顺","pinyin":"changshun","province":"贵州"},{"code":"101260502","name":"岑巩","pinyin":"cengong","province":"贵州"},{"code":"101260517","name":"从江","pinyin":"congjiang","province":"贵州"},{"code":"101260908","name":"册亨","pinyin":"ceheng","province":"贵州"},{"code":"101270101","name":"成都","pinyin":"chengdu","province":"四川"},{"code":"101270114","name":"崇州","pinyin":"chongzhou","province":"四川"},{"code":"101271106","name":"长宁","pinyin":"changning","province":"四川"},{"code":"101272105","name":"苍溪","pinyin":"cangxi","province":"四川"},{"code":"101280103","name":"从化","pinyin":"conghua","province":"广东"},{"code":"101280210","name":"浈江","pinyin":"chengjiang","province":"广东"},{"code":"101280502","name":"潮阳","pinyin":"chaoyang","province":"广东"},{"code":"101280503","name":"澄海","pinyin":"chenghai","province":"广东"},{"code":"101281006","name":"赤坎","pinyin":"chikan","province":"广东"},{"code":"101281501","name":"潮州","pinyin":"chaozhou","province":"广东"},{"code":"101281503","name":"潮安","pinyin":"chaoan","province":"广东"},{"code":"101290108","name":"呈贡","pinyin":"chenggong","province":"云南"},{"code":"101290505","name":"昌宁","pinyin":"changning","province":"云南"},{"code":"101290702","name":"澄江","pinyin":"chengjiang","province":"云南"},{"code":"101290801","name":"楚雄","pinyin":"chuxiong","province":"云南"},{"code":"101291102","name":"沧源","pinyin":"cangyuan","province":"云南"},{"code":"101300201","name":"崇左","pinyin":"chongzuo","province":"广西"},{"code":"101300604","name":"苍梧","pinyin":"cangwu","province":"广西"},{"code":"101300606","name":"岑溪","pinyin":"cenxi","province":"广西"},{"code":"101300607","name":"长洲","pinyin":"changzhou","province":"广西"},{"code":"101310204","name":"澄迈","pinyin":"chengmai","province":"海南"},{"code":"101310206","name":"昌江","pinyin":"changjiang","province":"海南"},{"code":"101011100","name":"大兴","pinyin":"daxing","province":"北京"},{"code":"101030400","name":"东丽","pinyin":"dongli","province":"天津"},{"code":"101031200","name":"大港","pinyin":"dagang","province":"天津"},{"code":"101042200","name":"垫江","pinyin":"dianjiang","province":"重庆"},{"code":"101042600","name":"大足","pinyin":"dazu","province":"重庆"},{"code":"101050307","name":"东宁","pinyin":"dongning","province":"黑龙江"},{"code":"101050701","name":"大兴安岭","pinyin":"daxinganling","province":"黑龙江"},{"code":"101050901","name":"大庆","pinyin":"daqing","province":"黑龙江"},{"code":"101050905","name":"杜尔伯特","pinyin":"duerbote","province":"黑龙江"},{"code":"101060103","name":"德惠","pinyin":"dehui","province":"吉林"},{"code":"101060302","name":"敦化","pinyin":"dunhua","province":"吉林"},{"code":"101060603","name":"大安","pinyin":"daan","province":"吉林"},{"code":"101060702","name":"东丰","pinyin":"dongfeng","province":"吉林"},{"code":"101060703","name":"东辽","pinyin":"dongliao","province":"吉林"},{"code":"101060904","name":"东岗","pinyin":"donggang","province":"吉林"},{"code":"101070201","name":"大连","pinyin":"dalian","province":"辽宁"},{"code":"101070601","name":"丹东","pinyin":"dandong","province":"辽宁"},{"code":"101070604","name":"东港","pinyin":"donggang","province":"辽宁"},{"code":"101070802","name":"大石桥","pinyin":"dashiqiao","province":"辽宁"},{"code":"101071003","name":"灯塔","pinyin":"dengta","province":"辽宁"},{"code":"101071302","name":"大洼","pinyin":"dawa","province":"辽宁"},{"code":"101080206","name":"达茂旗","pinyin":"damaoqi","province":"内蒙古"},{"code":"101080703","name":"达拉特","pinyin":"dalate","province":"内蒙古"},{"code":"101080713","name":"东胜","pinyin":"dongsheng","province":"内蒙古"},{"code":"101080803","name":"磴口","pinyin":"dengkou","province":"内蒙古"},{"code":"101080805","name":"大佘太","pinyin":"dashetai","province":"内蒙古"},{"code":"101080909","name":"东乌旗","pinyin":"dongwuqi","province":"内蒙古"},{"code":"101080915","name":"多伦","pinyin":"duolun","province":"内蒙古"},{"code":"101090219","name":"定州","pinyin":"dingzhou","province":"河北"},{"code":"101090223","name":"定兴","pinyin":"dingxing","province":"河北"},{"code":"101090605","name":"大城","pinyin":"dacheng","province":"河北"},{"code":"101090607","name":"大厂","pinyin":"dachang","province":"河北"},{"code":"101090703","name":"东光","pinyin":"dongguang","province":"河北"},{"code":"101091005","name":"大名","pinyin":"daming","province":"河北"},{"code":"101100201","name":"大同","pinyin":"datong","province":"山西"},{"code":"101100203","name":"大同县","pinyin":"datongxian","province":"山西"},{"code":"101100705","name":"大宁","pinyin":"daning","province":"山西"},{"code":"101101002","name":"定襄","pinyin":"dingxiang","province":"山西"},{"code":"101101008","name":"代县","pinyin":"daixian","province":"山西"},{"code":"101110405","name":"定边","pinyin":"dingbian","province":"陕西"},{"code":"101110504","name":"大荔","pinyin":"dali","province":"陕西"},{"code":"101110606","name":"丹凤","pinyin":"danfeng","province":"陕西"},{"code":"101120401","name":"德州","pinyin":"dezhou","province":"山东"},{"code":"101120805","name":"东平","pinyin":"dongping","province":"山东"},{"code":"101121004","name":"东明","pinyin":"dongming","province":"山东"},{"code":"101121005","name":"定陶","pinyin":"dingtao","province":"山东"},{"code":"101121201","name":"东营","pinyin":"dongying","province":"山东"},{"code":"101121706","name":"东阿","pinyin":"donge","province":"山东"},{"code":"101130105","name":"达坂城","pinyin":"dabancheng","province":"新疆"},{"code":"101140102","name":"当雄","pinyin":"dangxiong","province":"西藏"},{"code":"101140105","name":"堆龙德庆","pinyin":"duilongdeqing","province":"西藏"},{"code":"101140107","name":"达孜","pinyin":"dazi","province":"西藏"},{"code":"101140212","name":"定结","pinyin":"dingjie","province":"西藏"},{"code":"101140502","name":"丁青","pinyin":"dingqing","province":"西藏"},{"code":"101150102","name":"大通","pinyin":"datong","province":"青海"},{"code":"101150504","name":"达日","pinyin":"dari","province":"青海"},{"code":"101150507","name":"多县","pinyin":"duoxian","province":"青海"},{"code":"101150713","name":"大柴旦","pinyin":"dachaidan","province":"青海"},{"code":"101150716","name":"德令哈","pinyin":"delingha","province":"青海"},{"code":"101150902","name":"都兰","pinyin":"dulan","province":"青海"},{"code":"101160201","name":"定西","pinyin":"dingxi","province":"甘肃"},{"code":"101160808","name":"敦煌","pinyin":"dunhuang","province":"甘肃"},{"code":"101161004","name":"宕昌","pinyin":"dangchang","province":"甘肃"},{"code":"101161106","name":"东乡","pinyin":"dongxiang","province":"甘肃"},{"code":"101161205","name":"迭部","pinyin":"diebu","province":"甘肃"},{"code":"101170206","name":"大武口","pinyin":"dawukou","province":"宁夏"},{"code":"101180104","name":"登封","pinyin":"dengfeng","province":"河南"},{"code":"101180711","name":"邓州","pinyin":"dengzhou","province":"河南"},{"code":"101181408","name":"郸城","pinyin":"dancheng","province":"河南"},{"code":"101190302","name":"丹阳","pinyin":"danyang","province":"江苏"},{"code":"101190305","name":"丹徒","pinyin":"dantu","province":"江苏"},{"code":"101190707","name":"东台","pinyin":"dongtai","province":"江苏"},{"code":"101190708","name":"大丰","pinyin":"dafeng","province":"江苏"},{"code":"101191002","name":"东海","pinyin":"donghai","province":"江苏"},{"code":"101200106","name":"东西湖","pinyin":"dongxihu","province":"湖北"},{"code":"101200404","name":"大悟","pinyin":"dawu","province":"湖北"},{"code":"101200602","name":"大冶","pinyin":"daye","province":"湖北"},{"code":"101200907","name":"当阳","pinyin":"dangyang","province":"湖北"},{"code":"101201107","name":"丹江口","pinyin":"danjiangkou","province":"湖北"},{"code":"101201404","name":"掇刀","pinyin":"duodao","province":"湖北"},{"code":"101210204","name":"德清","pinyin":"deqing","province":"浙江"},{"code":"101210706","name":"洞头","pinyin":"dongtou","province":"浙江"},{"code":"101210905","name":"东阳","pinyin":"dongyang","province":"浙江"},{"code":"101211104","name":"岱山","pinyin":"daishan","province":"浙江"},{"code":"101211106","name":"定海","pinyin":"dinghai","province":"浙江"},{"code":"101220502","name":"当涂","pinyin":"dangtu","province":"安徽"},{"code":"101220702","name":"砀山","pinyin":"dangshan","province":"安徽"},{"code":"101221104","name":"定远","pinyin":"dingyuan","province":"安徽"},{"code":"101221702","name":"东至","pinyin":"dongzhi","province":"安徽"},{"code":"101230505","name":"德化","pinyin":"dehua","province":"福建"},{"code":"101230608","name":"东山","pinyin":"dongshan","province":"福建"},{"code":"101230811","name":"大田","pinyin":"datian","province":"福建"},{"code":"101231001","name":"钓鱼岛","pinyin":"diaoyudao","province":"福建"},{"code":"101240205","name":"德安","pinyin":"dean","province":"江西"},{"code":"101240210","name":"都昌","pinyin":"duchang","province":"江西"},{"code":"101240307","name":"德兴","pinyin":"dexing","province":"江西"},{"code":"101240411","name":"东乡","pinyin":"dongxiang","province":"江西"},{"code":"101240705","name":"大余","pinyin":"dayu","province":"江西"},{"code":"101240715","name":"定南","pinyin":"dingnan","province":"江西"},{"code":"101250903","name":"洞口","pinyin":"dongkou","province":"湖南"},{"code":"101251403","name":"东安","pinyin":"dongan","province":"湖南"},{"code":"101251405","name":"道县","pinyin":"daoxian","province":"湖南"},{"code":"101260210","name":"道真","pinyin":"daozhen","province":"贵州"},{"code":"101260401","name":"都匀","pinyin":"duyun","province":"贵州"},{"code":"101260410","name":"独山","pinyin":"dushan","province":"贵州"},{"code":"101260508","name":"丹寨","pinyin":"danzhai","province":"贵州"},{"code":"101260610","name":"德江","pinyin":"dejiang","province":"贵州"},{"code":"101260705","name":"大方","pinyin":"dafang","province":"贵州"},{"code":"101270108","name":"大邑","pinyin":"dayi","province":"四川"},{"code":"101270111","name":"都江堰","pinyin":"dujiangyan","province":"四川"},{"code":"101270601","name":"达州","pinyin":"dazhou","province":"四川"},{"code":"101270604","name":"大竹","pinyin":"dazhu","province":"四川"},{"code":"101270608","name":"达县","pinyin":"daxian","province":"四川"},{"code":"101271202","name":"东兴","pinyin":"dongxing","province":"四川"},{"code":"101271505","name":"丹棱","pinyin":"danleng","province":"四川"},{"code":"101271605","name":"德昌","pinyin":"dechang","province":"四川"},{"code":"101271804","name":"丹巴","pinyin":"danba","province":"四川"},{"code":"101271807","name":"道孚","pinyin":"daofu","province":"四川"},{"code":"101271810","name":"德格","pinyin":"dege","province":"四川"},{"code":"101271817","name":"稻城","pinyin":"daocheng","province":"四川"},{"code":"101271818","name":"得荣","pinyin":"derong","province":"四川"},{"code":"101272001","name":"德阳","pinyin":"deyang","province":"四川"},{"code":"101280404","name":"大埔","pinyin":"dabu","province":"广东"},{"code":"101280702","name":"斗门","pinyin":"doumen","province":"广东"},{"code":"101280905","name":"德庆","pinyin":"deqing","province":"广东"},{"code":"101281206","name":"东源","pinyin":"dongyuan","province":"广东"},{"code":"101281601","name":"东莞","pinyin":"dongguan","province":"广东"},{"code":"101282004","name":"电白","pinyin":"dianbai","province":"广东"},{"code":"101290103","name":"东川","pinyin":"dongchuan","province":"云南"},{"code":"101290201","name":"大理","pinyin":"dali","province":"云南"},{"code":"101290802","name":"大姚","pinyin":"dayao","province":"云南"},{"code":"101291010","name":"大关","pinyin":"daguan","province":"云南"},{"code":"101291302","name":"德钦","pinyin":"deqin","province":"云南"},{"code":"101291501","name":"德宏","pinyin":"dehong","province":"云南"},{"code":"101300205","name":"大新","pinyin":"daxin","province":"广西"},{"code":"101301004","name":"德保","pinyin":"debao","province":"广西"},{"code":"101301203","name":"东兰","pinyin":"donglan","province":"广西"},{"code":"101301211","name":"大化","pinyin":"dahua","province":"广西"},{"code":"101301403","name":"东兴","pinyin":"dongxing","province":"广西"},{"code":"101310202","name":"东方","pinyin":"dongfang","province":"海南"},{"code":"101310205","name":"儋州","pinyin":"danzhou","province":"海南"},{"code":"101310209","name":"定安","pinyin":"dingan","province":"海南"},{"code":"101330102","name":"氹仔岛","pinyin":"dangzidao","province":"澳门"},{"code":"101080701","name":"鄂尔多斯","pinyin":"eerduosi","province":"内蒙古"},{"code":"101080705","name":"鄂前旗","pinyin":"eqianqi","province":"内蒙古"},{"code":"101080708","name":"鄂托克","pinyin":"etuoke","province":"内蒙古"},{"code":"101080903","name":"二连浩特","pinyin":"erlianhaote","province":"内蒙古"},{"code":"101081005","name":"鄂伦春旗","pinyin":"elunchunqi","province":"内蒙古"},{"code":"101081006","name":"鄂温克旗","pinyin":"ewenkeqi","province":"内蒙古"},{"code":"101081014","name":"额尔古纳","pinyin":"eerguna","province":"内蒙古"},{"code":"101081203","name":"额济纳","pinyin":"ejina","province":"内蒙古"},{"code":"101131103","name":"额敏","pinyin":"emin","province":"新疆"},{"code":"101200301","name":"鄂州","pinyin":"ezhou","province":"湖北"},{"code":"101201001","name":"恩施","pinyin":"enshi","province":"湖北"},{"code":"101271406","name":"峨边","pinyin":"ebian","province":"四川"},{"code":"101271408","name":"峨眉","pinyin":"emei","province":"四川"},{"code":"101271409","name":"峨眉山","pinyin":"emeishan","province":"四川"},{"code":"101281105","name":"恩平","pinyin":"enping","province":"广东"},{"code":"101290210","name":"洱源","pinyin":"eryuan","province":"云南"},{"code":"101290708","name":"峨山","pinyin":"eshan","province":"云南"},{"code":"101010900","name":"丰台","pinyin":"fengtai","province":"北京"},{"code":"101011200","name":"房山","pinyin":"fangshan","province":"北京"},{"code":"101021000","name":"奉贤","pinyin":"fengxian","province":"上海"},{"code":"101041400","name":"涪陵","pinyin":"fuling","province":"重庆"},{"code":"101041900","name":"奉节","pinyin":"fengjie","province":"重庆"},{"code":"101043000","name":"丰都","pinyin":"fengdu","province":"重庆"},{"code":"101050109","name":"方正","pinyin":"fangzheng","province":"黑龙江"},{"code":"101050205","name":"富裕","pinyin":"fuyu","province":"黑龙江"},{"code":"101050403","name":"抚远","pinyin":"fuyuan","province":"黑龙江"},{"code":"101050407","name":"富锦","pinyin":"fujin","province":"黑龙江"},{"code":"101060805","name":"扶余","pinyin":"fuyu","province":"吉林"},{"code":"101060906","name":"抚松","pinyin":"fusong","province":"吉林"},{"code":"101070105","name":"法库","pinyin":"faku","province":"辽宁"},{"code":"101070401","name":"抚顺","pinyin":"fushun","province":"辽宁"},{"code":"101070602","name":"凤城","pinyin":"fengcheng","province":"辽宁"},{"code":"101070901","name":"阜新","pinyin":"fuxin","province":"辽宁"},{"code":"101080412","name":"丰镇","pinyin":"fengzhen","province":"内蒙古"},{"code":"101090203","name":"阜平","pinyin":"fuping","province":"河北"},{"code":"101090408","name":"丰宁","pinyin":"fengning","province":"河北"},{"code":"101090502","name":"丰南","pinyin":"fengnan","province":"河北"},{"code":"101090503","name":"丰润","pinyin":"fengrun","province":"河北"},{"code":"101090809","name":"阜城","pinyin":"fucheng","province":"河北"},{"code":"101091002","name":"峰峰","pinyin":"fengfeng","province":"河北"},{"code":"101091008","name":"肥乡","pinyin":"feixiang","province":"河北"},{"code":"101091104","name":"抚宁","pinyin":"funing","province":"河北"},{"code":"101100709","name":"汾西","pinyin":"fenxi","province":"山西"},{"code":"101100715","name":"浮山","pinyin":"fushan","province":"山西"},{"code":"101101009","name":"繁峙","pinyin":"fanshi","province":"山西"},{"code":"101101107","name":"方山","pinyin":"fangshan","province":"山西"},{"code":"101101111","name":"汾阳","pinyin":"fenyang","province":"山西"},{"code":"101110305","name":"富县","pinyin":"fuxian","province":"陕西"},{"code":"101110402","name":"府谷","pinyin":"fugu","province":"陕西"},{"code":"101110506","name":"富平","pinyin":"fuping","province":"陕西"},{"code":"101110808","name":"佛坪","pinyin":"fuoping","province":"陕西"},{"code":"101110906","name":"凤翔","pinyin":"fengxiang","province":"陕西"},{"code":"101110907","name":"扶风","pinyin":"fufeng","province":"陕西"},{"code":"101110910","name":"凤县","pinyin":"fengxian","province":"陕西"},{"code":"101120508","name":"福山","pinyin":"fushan","province":"山东"},{"code":"101120804","name":"肥城","pinyin":"feicheng","province":"山东"},{"code":"101120909","name":"费县","pinyin":"feixian","province":"山东"},{"code":"101130404","name":"阜康","pinyin":"fukang","province":"新疆"},{"code":"101131407","name":"福海","pinyin":"fuhai","province":"新疆"},{"code":"101131408","name":"富蕴","pinyin":"fuyun","province":"新疆"},{"code":"101180307","name":"封丘","pinyin":"fengqiu","province":"河南"},{"code":"101180703","name":"方城","pinyin":"fangcheng","province":"河南"},{"code":"101181305","name":"范县","pinyin":"fanxian","province":"河南"},{"code":"101181402","name":"扶沟","pinyin":"fugou","province":"河南"},{"code":"101190704","name":"阜宁","pinyin":"funing","province":"江苏"},{"code":"101190803","name":"丰县","pinyin":"fengxian","province":"江苏"},{"code":"101201106","name":"房县","pinyin":"fangxian","province":"湖北"},{"code":"101210108","name":"富阳","pinyin":"fuyang","province":"浙江"},{"code":"101210405","name":"奉化","pinyin":"fenghua","province":"浙江"},{"code":"101220103","name":"肥东","pinyin":"feidong","province":"安徽"},{"code":"101220104","name":"肥西","pinyin":"feixi","province":"安徽"},{"code":"101220302","name":"繁昌","pinyin":"fanyang","province":"安徽"},{"code":"101220402","name":"凤台","pinyin":"fengtai","province":"安徽"},{"code":"101220801","name":"阜阳","pinyin":"fuyang","province":"安徽"},{"code":"101220802","name":"阜南","pinyin":"funan","province":"安徽"},{"code":"101221102","name":"凤阳","pinyin":"fengyang","province":"安徽"},{"code":"101230101","name":"福州","pinyin":"fuzhou","province":"福建"},{"code":"101230111","name":"福清","pinyin":"fuqing","province":"福建"},{"code":"101230306","name":"福安","pinyin":"fuan","province":"福建"},{"code":"101230308","name":"福鼎","pinyin":"fuding","province":"福建"},{"code":"101240401","name":"抚州","pinyin":"fuzhou","province":"江西"},{"code":"101240507","name":"奉新","pinyin":"fengxin","province":"江西"},{"code":"101240510","name":"丰城","pinyin":"fengcheng","province":"江西"},{"code":"101240803","name":"浮梁","pinyin":"fuliang","province":"江西"},{"code":"101241002","name":"分宜","pinyin":"fenyi","province":"江西"},{"code":"101251505","name":"凤凰","pinyin":"fenghuang","province":"湖南"},{"code":"101260206","name":"凤冈","pinyin":"fenggang","province":"贵州"},{"code":"101260405","name":"福泉","pinyin":"fuquan","province":"贵州"},{"code":"101270302","name":"富顺","pinyin":"fushun","province":"四川"},{"code":"101280406","name":"丰顺","pinyin":"fengshun","province":"广东"},{"code":"101280800","name":"佛山","pinyin":"foshan","province":"广东"},{"code":"101280907","name":"封开","pinyin":"fengkai","province":"广东"},{"code":"101281306","name":"佛冈","pinyin":"fogang","province":"广东"},{"code":"101290109","name":"富民","pinyin":"fumin","province":"云南"},{"code":"101290404","name":"富源","pinyin":"fuyuan","province":"云南"},{"code":"101290608","name":"富宁","pinyin":"funing","province":"云南"},{"code":"101291105","name":"凤庆","pinyin":"fengqing","province":"云南"},{"code":"101291203","name":"福贡","pinyin":"fugong","province":"云南"},{"code":"101300206","name":"扶绥","pinyin":"fusui","province":"广西"},{"code":"101300703","name":"富川","pinyin":"fuchuan","province":"广西"},{"code":"101301208","name":"凤山","pinyin":"fengshan","province":"广西"},{"code":"101301401","name":"防城港","pinyin":"fangchenggang","province":"广西"},{"code":"101301405","name":"防城","pinyin":"fangcheng","province":"广西"},{"code":"101050204","name":"甘南","pinyin":"gannan","province":"黑龙江"},{"code":"101060404","name":"公主岭","pinyin":"gongzhuling","province":"吉林"},{"code":"101070803","name":"盖州","pinyin":"gaizhou","province":"辽宁"},{"code":"101071004","name":"弓长岭","pinyin":"gongchangling","province":"辽宁"},{"code":"101080205","name":"固阳","pinyin":"guyang","province":"内蒙古"},{"code":"101080510","name":"高力板","pinyin":"gaoliban","province":"内蒙古"},{"code":"101080610","name":"岗子","pinyin":"gangzi","province":"内蒙古"},{"code":"101081015","name":"根河","pinyin":"genhe","province":"内蒙古"},{"code":"101081204","name":"拐子湖","pinyin":"guanzihu","province":"内蒙古"},{"code":"101090107","name":"高邑","pinyin":"gaoyi","province":"河北"},{"code":"101090115","name":"藁城","pinyin":"gaocheng","province":"河北"},{"code":"101090206","name":"高阳","pinyin":"gaoyang","province":"河北"},{"code":"101090221","name":"高碑店","pinyin":"gaobeidian","province":"河北"},{"code":"101090305","name":"沽源","pinyin":"guyuan","province":"河北"},{"code":"101090602","name":"固安","pinyin":"guan","province":"河北"},{"code":"101090807","name":"故城","pinyin":"gucheng","province":"河北"},{"code":"101090911","name":"广宗","pinyin":"guangzong","province":"河北"},{"code":"101091012","name":"广平","pinyin":"guangping","province":"河北"},{"code":"101091013","name":"馆陶","pinyin":"guantao","province":"河北"},{"code":"101100105","name":"古交","pinyin":"gujiao","province":"山西"},{"code":"101100205","name":"广灵","pinyin":"guangling","province":"山西"},{"code":"101100605","name":"高平","pinyin":"gaoping","province":"山西"},{"code":"101100717","name":"古县","pinyin":"guxian","province":"山西"},{"code":"101110107","name":"高陵","pinyin":"gaoling","province":"陕西"},{"code":"101110308","name":"甘泉","pinyin":"ganquan","province":"陕西"},{"code":"101120304","name":"高青","pinyin":"gaoqing","province":"山东"},{"code":"101120608","name":"高密","pinyin":"gaomi","province":"山东"},{"code":"101121205","name":"广饶","pinyin":"guangrao","province":"山东"},{"code":"101121702","name":"冠县","pinyin":"guanxian","province":"山东"},{"code":"101121704","name":"高唐","pinyin":"gaotang","province":"山东"},{"code":"101131005","name":"巩留","pinyin":"gongliu","province":"新疆"},{"code":"101140216","name":"岗巴","pinyin":"gangba","province":"西藏"},{"code":"101140302","name":"贡嘎","pinyin":"gongga","province":"西藏"},{"code":"101140405","name":"工布江达","pinyin":"gongbujiangda","province":"西藏"},{"code":"101140511","name":"贡觉","pinyin":"gongjue","province":"西藏"},{"code":"101140702","name":"改则","pinyin":"gaize","province":"西藏"},{"code":"101140707","name":"噶尔","pinyin":"gaer","province":"西藏"},{"code":"101140709","name":"革吉","pinyin":"geji","province":"西藏"},{"code":"101150404","name":"贵德","pinyin":"guide","province":"青海"},{"code":"101150407","name":"贵南","pinyin":"guinan","province":"青海"},{"code":"101150409","name":"共和","pinyin":"gonghe","province":"青海"},{"code":"101150501","name":"果洛","pinyin":"guoluo","province":"青海"},{"code":"101150503","name":"甘德","pinyin":"gande","province":"青海"},{"code":"101150806","name":"刚察","pinyin":"gangcha","province":"青海"},{"code":"101150901","name":"格尔木","pinyin":"geermu","province":"青海"},{"code":"101160102","name":"皋兰","pinyin":"gaolan","province":"甘肃"},{"code":"101160503","name":"古浪","pinyin":"gulang","province":"甘肃"},{"code":"101160705","name":"高台","pinyin":"gaotai","province":"甘肃"},{"code":"101160805","name":"瓜州","pinyin":"guazhou","province":"甘肃"},{"code":"101160905","name":"甘谷","pinyin":"gangu","province":"甘肃"},{"code":"101161104","name":"广河","pinyin":"guanghe","province":"甘肃"},{"code":"101170401","name":"固原","pinyin":"guyuan","province":"宁夏"},{"code":"101180102","name":"巩义","pinyin":"gongyi","province":"河南"},{"code":"101180604","name":"光山","pinyin":"guangshan","province":"河南"},{"code":"101180608","name":"固始","pinyin":"gushi","province":"河南"},{"code":"101190103","name":"高淳","pinyin":"gaochun","province":"江苏"},{"code":"101190604","name":"高邮","pinyin":"gaoyou","province":"江苏"},{"code":"101191003","name":"赣榆","pinyin":"ganyu","province":"江苏"},{"code":"101191004","name":"灌云","pinyin":"guanyun","province":"江苏"},{"code":"101191005","name":"灌南","pinyin":"guannan","province":"江苏"},{"code":"101200207","name":"谷城","pinyin":"gucheng","province":"湖北"},{"code":"101200803","name":"公安","pinyin":"gongan","province":"湖北"},{"code":"101201302","name":"广水","pinyin":"guangshui","province":"湖北"},{"code":"101220203","name":"固镇","pinyin":"guzhen","province":"安徽"},{"code":"101220902","name":"涡阳","pinyin":"guoyang","province":"安徽"},{"code":"101221406","name":"广德","pinyin":"guangde","province":"安徽"},{"code":"101230302","name":"古田","pinyin":"gutian","province":"福建"},{"code":"101230903","name":"光泽","pinyin":"guangze","province":"福建"},{"code":"101240313","name":"广丰","pinyin":"guangfeng","province":"江西"},{"code":"101240402","name":"广昌","pinyin":"guangchang","province":"江西"},{"code":"101240508","name":"高安","pinyin":"gaoan","province":"江西"},{"code":"101240701","name":"赣州","pinyin":"ganzhou","province":"江西"},{"code":"101240718","name":"赣县","pinyin":"ganxian","province":"江西"},{"code":"101241103","name":"贵溪","pinyin":"guixi","province":"江西"},{"code":"101250502","name":"桂阳","pinyin":"guiyang","province":"湖南"},{"code":"101250511","name":"桂东","pinyin":"guidong","province":"湖南"},{"code":"101251504","name":"古丈","pinyin":"guzhang","province":"湖南"},{"code":"101260101","name":"贵阳","pinyin":"guiyang","province":"贵州"},{"code":"101260306","name":"关岭","pinyin":"guanling","province":"贵州"},{"code":"101260402","name":"贵定","pinyin":"guiding","province":"贵州"},{"code":"101270801","name":"广安","pinyin":"guangan","province":"四川"},{"code":"101271006","name":"古蔺","pinyin":"gulin","province":"四川"},{"code":"101271107","name":"高县","pinyin":"gaoxian","province":"四川"},{"code":"101271108","name":"珙县","pinyin":"gongxian","province":"四川"},{"code":"101271616","name":"甘洛","pinyin":"ganluo","province":"四川"},{"code":"101271801","name":"甘孜","pinyin":"ganzi","province":"四川"},{"code":"101272003","name":"广汉","pinyin":"guanghan","province":"四川"},{"code":"101272101","name":"广元","pinyin":"guangyuan","province":"四川"},{"code":"101280101","name":"广州","pinyin":"guangzhou","province":"广东"},{"code":"101280804","name":"高明","pinyin":"gaoming","province":"广东"},{"code":"101280902","name":"广宁","pinyin":"guangning","province":"广东"},{"code":"101280908","name":"高要","pinyin":"gaoyao","province":"广东"},{"code":"101282002","name":"高州","pinyin":"gaozhou","province":"广东"},{"code":"101290308","name":"个旧","pinyin":"gejiu","province":"云南"},{"code":"101290607","name":"广南","pinyin":"guangnan","province":"云南"},{"code":"101291103","name":"耿马","pinyin":"gengma","province":"云南"},{"code":"101291207","name":"贡山","pinyin":"gongshan","province":"云南"},{"code":"101300501","name":"桂林","pinyin":"guilin","province":"广西"},{"code":"101300509","name":"灌阳","pinyin":"guanyang","province":"广西"},{"code":"101300511","name":"恭城","pinyin":"gongcheng","province":"广西"},{"code":"101300801","name":"贵港","pinyin":"guigang","province":"广西"},{"code":"101300802","name":"桂平","pinyin":"guiping","province":"广西"},{"code":"101340201","name":"高雄","pinyin":"gaoxiong","province":"台湾"},{"code":"101010200","name":"海淀","pinyin":"haidian","province":"北京"},{"code":"101010500","name":"怀柔","pinyin":"huairou","province":"北京"},{"code":"101030800","name":"汉沽","pinyin":"hangu","province":"天津"},{"code":"101040300","name":"合川","pinyin":"hechuan","province":"重庆"},{"code":"101050101","name":"哈尔滨","pinyin":"haerbin","province":"黑龙江"},{"code":"101050103","name":"呼兰","pinyin":"hulan","province":"黑龙江"},{"code":"101050302","name":"海林","pinyin":"hailin","province":"黑龙江"},{"code":"101050404","name":"桦川","pinyin":"huachuan","province":"黑龙江"},{"code":"101050405","name":"桦南","pinyin":"huanan","province":"黑龙江"},{"code":"101050504","name":"海伦","pinyin":"hailun","province":"黑龙江"},{"code":"101050601","name":"黑河","pinyin":"heihe","province":"黑龙江"},{"code":"101050704","name":"呼玛","pinyin":"huma","province":"黑龙江"},{"code":"101050705","name":"呼中","pinyin":"huzhong","province":"黑龙江"},{"code":"101051102","name":"虎林","pinyin":"hulin","province":"黑龙江"},{"code":"101051201","name":"鹤岗","pinyin":"hegang","province":"黑龙江"},{"code":"101060206","name":"桦甸","pinyin":"huadian","province":"吉林"},{"code":"101060305","name":"和龙","pinyin":"helong","province":"吉林"},{"code":"101060308","name":"珲春","pinyin":"hunchun","province":"吉林"},{"code":"101060504","name":"辉南","pinyin":"huinan","province":"吉林"},{"code":"101070304","name":"海城","pinyin":"haicheng","province":"辽宁"},{"code":"101070504","name":"桓仁","pinyin":"huanren","province":"辽宁"},{"code":"101070705","name":"黑山","pinyin":"heishan","province":"辽宁"},{"code":"101071401","name":"葫芦岛","pinyin":"huludao","province":"辽宁"},{"code":"101080101","name":"呼和浩特","pinyin":"huhehaote","province":"内蒙古"},{"code":"101080104","name":"和林","pinyin":"helin","province":"内蒙古"},{"code":"101080106","name":"呼市郊区","pinyin":"hushijiaoqu","province":"内蒙古"},{"code":"101080403","name":"化德","pinyin":"huade","province":"内蒙古"},{"code":"101080604","name":"浩尔吐","pinyin":"haoertu","province":"内蒙古"},{"code":"101080706","name":"河南","pinyin":"henan","province":"内蒙古"},{"code":"101080709","name":"杭锦旗","pinyin":"hangjinqi","province":"内蒙古"},{"code":"101080808","name":"海力素","pinyin":"hailisu","province":"内蒙古"},{"code":"101080810","name":"杭锦后旗","pinyin":"hangjinhouqi","province":"内蒙古"},{"code":"101081000","name":"呼伦贝尔","pinyin":"hulunbeier","province":"内蒙古"},{"code":"101081001","name":"海拉尔","pinyin":"hailaer","province":"内蒙古"},{"code":"101081104","name":"胡尔勒","pinyin":"huerle","province":"内蒙古"},{"code":"101081108","name":"霍林郭勒","pinyin":"huolinguole","province":"内蒙古"},{"code":"101090309","name":"怀安","pinyin":"huaian","province":"河北"},{"code":"101090311","name":"怀来","pinyin":"huailai","province":"河北"},{"code":"101090704","name":"海兴","pinyin":"haixing","province":"河北"},{"code":"101090713","name":"黄骅","pinyin":"huanghua","province":"河北"},{"code":"101090714","name":"河间","pinyin":"hejian","province":"河北"},{"code":"101090801","name":"衡水","pinyin":"hengshui","province":"河北"},{"code":"101091001","name":"邯郸","pinyin":"handan","province":"河北"},{"code":"101100207","name":"浑源","pinyin":"hunyuan","province":"山西"},{"code":"101100405","name":"和顺","pinyin":"heshun","province":"山西"},{"code":"101100511","name":"壶关","pinyin":"huguan","province":"山西"},{"code":"101100710","name":"洪洞","pinyin":"hongtong","province":"山西"},{"code":"101100711","name":"霍州","pinyin":"huozhou","province":"山西"},{"code":"101100714","name":"侯马","pinyin":"houma","province":"山西"},{"code":"101100805","name":"河津","pinyin":"hejin","province":"山西"},{"code":"101100906","name":"怀仁","pinyin":"huairen","province":"山西"},{"code":"101101004","name":"河曲","pinyin":"hequ","province":"山西"},{"code":"101110106","name":"户县","pinyin":"huxian","province":"陕西"},{"code":"101110310","name":"黄陵","pinyin":"huangling","province":"陕西"},{"code":"101110311","name":"黄龙","pinyin":"huanglong","province":"陕西"},{"code":"101110407","name":"横山","pinyin":"hengshan","province":"陕西"},{"code":"101110502","name":"华县","pinyin":"huaxian","province":"陕西"},{"code":"101110509","name":"合阳","pinyin":"heyang","province":"陕西"},{"code":"101110510","name":"韩城","pinyin":"hancheng","province":"陕西"},{"code":"101110511","name":"华阴","pinyin":"huayin","province":"陕西"},{"code":"101110704","name":"汉阴","pinyin":"hanyin","province":"陕西"},{"code":"101110801","name":"汉中","pinyin":"hanzhong","province":"陕西"},{"code":"101120307","name":"桓台","pinyin":"huantai","province":"山东"},{"code":"101120511","name":"海阳","pinyin":"haiyang","province":"山东"},{"code":"101121001","name":"菏泽","pinyin":"heze","province":"山东"},{"code":"101121105","name":"惠民","pinyin":"huimin","province":"山东"},{"code":"101121202","name":"河口","pinyin":"hekou","province":"山东"},{"code":"101130402","name":"呼图壁","pinyin":"hutubi","province":"新疆"},{"code":"101130606","name":"和静","pinyin":"hejing","province":"新疆"},{"code":"101131009","name":"霍城","pinyin":"huocheng","province":"新疆"},{"code":"101131010","name":"霍尔果斯","pinyin":"huoerguosi","province":"新疆"},{"code":"101131104","name":"和布克赛尔","pinyin":"hebukesaier","province":"新疆"},{"code":"101131108","name":"和丰","pinyin":"hefeng","province":"新疆"},{"code":"101131201","name":"哈密","pinyin":"hami","province":"新疆"},{"code":"101131301","name":"和田","pinyin":"hetian","province":"新疆"},{"code":"101131402","name":"哈巴河","pinyin":"habahe","province":"新疆"},{"code":"101150103","name":"湟源","pinyin":"huangyuan","province":"青海"},{"code":"101150104","name":"湟中","pinyin":"huangzhong","province":"青海"},{"code":"101150201","name":"海东","pinyin":"haidong","province":"青海"},{"code":"101150204","name":"互助","pinyin":"huzhu","province":"青海"},{"code":"101150205","name":"化隆","pinyin":"hualong","province":"青海"},{"code":"101150301","name":"黄南","pinyin":"huangnan","province":"青海"},{"code":"101150304","name":"河南","pinyin":"henan","province":"青海"},{"code":"101150401","name":"海南","pinyin":"hainan","province":"青海"},{"code":"101150701","name":"海西","pinyin":"haixi","province":"青海"},{"code":"101150801","name":"海北","pinyin":"haibei","province":"青海"},{"code":"101150804","name":"海晏","pinyin":"haiman","province":"青海"},{"code":"101160305","name":"华亭","pinyin":"huating","province":"甘肃"},{"code":"101160403","name":"环县","pinyin":"huanxian","province":"甘肃"},{"code":"101160404","name":"华池","pinyin":"huachi","province":"甘肃"},{"code":"101160405","name":"合水","pinyin":"heshui","province":"甘肃"},{"code":"101161008","name":"徽县","pinyin":"huixian","province":"甘肃"},{"code":"101161105","name":"和政","pinyin":"hezheng","province":"甘肃"},{"code":"101161201","name":"合作","pinyin":"hezuo","province":"甘肃"},{"code":"101161303","name":"会宁","pinyin":"huining","province":"甘肃"},{"code":"101170104","name":"贺兰","pinyin":"helan","province":"宁夏"},{"code":"101170202","name":"惠农","pinyin":"huinong","province":"宁夏"},{"code":"101170504","name":"海原","pinyin":"haiyuan","province":"宁夏"},{"code":"101180203","name":"滑县","pinyin":"huaxian","province":"河南"},{"code":"101180302","name":"获嘉","pinyin":"huojia","province":"河南"},{"code":"101180304","name":"辉县","pinyin":"huixian","province":"河南"},{"code":"101180606","name":"淮滨","pinyin":"huaibin","province":"河南"},{"code":"101180607","name":"潢川","pinyin":"huangchuan","province":"河南"},{"code":"101181201","name":"鹤壁","pinyin":"hebi","province":"河南"},{"code":"101181404","name":"淮阳","pinyin":"huaiyang","province":"河南"},{"code":"101190502","name":"海安","pinyin":"haian","province":"江苏"},{"code":"101190508","name":"海门","pinyin":"haimen","province":"江苏"},{"code":"101190606","name":"邗江","pinyin":"hanjiang","province":"江苏"},{"code":"101190901","name":"淮安","pinyin":"huaian","province":"江苏"},{"code":"101190904","name":"洪泽","pinyin":"hongze","province":"江苏"},{"code":"101190906","name":"淮阴区","pinyin":"huaiyinqu","province":"江苏"},{"code":"101190908","name":"淮安区","pinyin":"huaianqu","province":"江苏"},{"code":"101200103","name":"黄陂","pinyin":"huangpi","province":"湖北"},{"code":"101200406","name":"汉川","pinyin":"hanchuan","province":"湖北"},{"code":"101200501","name":"黄冈","pinyin":"huanggang","province":"湖北"},{"code":"101200502","name":"红安","pinyin":"hongan","province":"湖北"},{"code":"101200508","name":"黄梅","pinyin":"huangmei","province":"湖北"},{"code":"101200601","name":"黄石","pinyin":"huangshi","province":"湖北"},{"code":"101200806","name":"洪湖","pinyin":"honghu","province":"湖北"},{"code":"101201006","name":"鹤峰","pinyin":"hefeng","province":"湖北"},{"code":"101210101","name":"杭州","pinyin":"hangzhou","province":"浙江"},{"code":"101210201","name":"湖州","pinyin":"huzhou","province":"浙江"},{"code":"101210303","name":"海宁","pinyin":"haining","province":"浙江"},{"code":"101210306","name":"海盐","pinyin":"haiyan","province":"浙江"},{"code":"101210609","name":"洪家","pinyin":"hongjia","province":"浙江"},{"code":"101210612","name":"黄岩","pinyin":"huangyan","province":"浙江"},{"code":"101220101","name":"合肥","pinyin":"hefei","province":"安徽"},{"code":"101220202","name":"怀远","pinyin":"huaiyuan","province":"安徽"},{"code":"101220401","name":"淮南","pinyin":"huainan","province":"安徽"},{"code":"101220605","name":"怀宁","pinyin":"huaining","province":"安徽"},{"code":"101221001","name":"黄山","pinyin":"huangshan","province":"安徽"},{"code":"101221002","name":"黄山区","pinyin":"huangshanqu","province":"安徽"},{"code":"101221008","name":"黄山风景区","pinyin":"huangshanfengjingqu","province":"安徽"},{"code":"101221201","name":"淮北","pinyin":"huaibei","province":"安徽"},{"code":"101221502","name":"霍邱","pinyin":"huoqiu","province":"安徽"},{"code":"101221506","name":"霍山","pinyin":"huoshan","province":"安徽"},{"code":"101221604","name":"含山","pinyin":"hanshan","province":"安徽"},{"code":"101221605","name":"和县","pinyin":"hexian","province":"安徽"},{"code":"101230404","name":"涵江","pinyin":"hanjiang","province":"福建"},{"code":"101230508","name":"惠安","pinyin":"huian","province":"福建"},{"code":"101230610","name":"华安","pinyin":"huaan","province":"福建"},{"code":"101240207","name":"湖口","pinyin":"hukou","province":"江西"},{"code":"101240310","name":"横峰","pinyin":"hengfeng","province":"江西"},{"code":"101240711","name":"会昌","pinyin":"huichang","province":"江西"},{"code":"101250401","name":"衡阳","pinyin":"hengyang","province":"湖南"},{"code":"101250402","name":"衡山","pinyin":"hengshan","province":"湖南"},{"code":"101250403","name":"衡东","pinyin":"hengdong","province":"湖南"},{"code":"101250405","name":"衡阳县","pinyin":"hengyangxian","province":"湖南"},{"code":"101250407","name":"衡南","pinyin":"hengnan","province":"湖南"},{"code":"101250604","name":"汉寿","pinyin":"hanshou","province":"湖南"},{"code":"101250701","name":"赫山区","pinyin":"heshanqu","province":"湖南"},{"code":"101251002","name":"华容","pinyin":"huarong","province":"湖南"},{"code":"101251201","name":"怀化","pinyin":"huaihua","province":"湖南"},{"code":"101251206","name":"会同","pinyin":"huitong","province":"湖南"},{"code":"101251213","name":"洪江","pinyin":"hongjiang","province":"湖南"},{"code":"101251508","name":"花垣","pinyin":"huayuan","province":"湖南"},{"code":"101260103","name":"花溪","pinyin":"huaxi","province":"贵州"},{"code":"101260214","name":"汇川","pinyin":"huichuan","province":"贵州"},{"code":"101260215","name":"红花岗","pinyin":"honghuagang","province":"贵州"},{"code":"101260406","name":"惠水","pinyin":"huishui","province":"贵州"},{"code":"101260505","name":"黄平","pinyin":"huangping","province":"贵州"},{"code":"101260702","name":"赫章","pinyin":"hezhang","province":"贵州"},{"code":"101270805","name":"华蓥","pinyin":"huaying","province":"四川"},{"code":"101271004","name":"合江","pinyin":"hejiang","province":"四川"},{"code":"101271504","name":"洪雅","pinyin":"hongya","province":"四川"},{"code":"101271606","name":"会理","pinyin":"huili","province":"四川"},{"code":"101271607","name":"会东","pinyin":"huidong","province":"四川"},{"code":"101271704","name":"汉源","pinyin":"hanyuan","province":"四川"},{"code":"101271909","name":"黑水","pinyin":"heishui","province":"四川"},{"code":"101271913","name":"红原","pinyin":"hongyuan","province":"四川"},{"code":"101280105","name":"花都","pinyin":"huadu","province":"广东"},{"code":"101280301","name":"惠州","pinyin":"huizhou","province":"广东"},{"code":"101280303","name":"惠阳","pinyin":"huiyang","province":"广东"},{"code":"101280304","name":"惠东","pinyin":"huidong","province":"广东"},{"code":"101280906","name":"怀集","pinyin":"huaiji","province":"广东"},{"code":"101281108","name":"鹤山","pinyin":"heshan","province":"广东"},{"code":"101281201","name":"河源","pinyin":"heyuan","province":"广东"},{"code":"101281204","name":"和平","pinyin":"heping","province":"广东"},{"code":"101281904","name":"惠来","pinyin":"huilai","province":"广东"},{"code":"101282003","name":"化州","pinyin":"huazhou","province":"广东"},{"code":"101282102","name":"海丰","pinyin":"haifeng","province":"广东"},{"code":"101290211","name":"鹤庆","pinyin":"heqing","province":"云南"},{"code":"101290301","name":"红河","pinyin":"honghe","province":"云南"},{"code":"101290313","name":"河口","pinyin":"hekou","province":"云南"},{"code":"101290408","name":"会泽","pinyin":"huize","province":"云南"},{"code":"101290705","name":"华宁","pinyin":"huaning","province":"云南"},{"code":"101291403","name":"华坪","pinyin":"huaping","province":"云南"},{"code":"101300104","name":"横县","pinyin":"hengxian","province":"广西"},{"code":"101300406","name":"合山","pinyin":"heshan","province":"广西"},{"code":"101300701","name":"贺州","pinyin":"hezhou","province":"广西"},{"code":"101301201","name":"河池","pinyin":"hechi","province":"广西"},{"code":"101301205","name":"环江","pinyin":"huanjiang","province":"广西"},{"code":"101301302","name":"合浦","pinyin":"hepu","province":"广西"},{"code":"101310101","name":"海口","pinyin":"haikou","province":"海南"},{"code":"101320101","name":"香港","pinyin":"hongkong","province":"香港"},{"code":"101340405","name":"花莲","pinyin":"hualian","province":"台湾"},{"code":"101020500","name":"嘉定","pinyin":"jiading","province":"上海"},{"code":"101020700","name":"金山","pinyin":"jinshan","province":"上海"},{"code":"101030900","name":"静海","pinyin":"jinghai","province":"天津"},{"code":"101031000","name":"津南","pinyin":"jinnan","province":"天津"},{"code":"101031400","name":"蓟县","pinyin":"jixian","province":"天津"},{"code":"101040500","name":"江津","pinyin":"jiangjin","province":"重庆"},{"code":"101050401","name":"佳木斯","pinyin":"jiamusi","province":"黑龙江"},{"code":"101050708","name":"加格达奇","pinyin":"jiagedaqi","province":"黑龙江"},{"code":"101050805","name":"嘉荫","pinyin":"jiayin","province":"黑龙江"},{"code":"101051101","name":"鸡西","pinyin":"jixi","province":"黑龙江"},{"code":"101051104","name":"鸡东","pinyin":"jidong","province":"黑龙江"},{"code":"101051302","name":"集贤","pinyin":"jixian","province":"黑龙江"},{"code":"101060104","name":"九台","pinyin":"jiutai","province":"吉林"},{"code":"101060201","name":"吉林","pinyin":"jilin","province":"吉林"},{"code":"101060204","name":"蛟河","pinyin":"jiaohe","province":"吉林"},{"code":"101060505","name":"集安","pinyin":"jian","province":"吉林"},{"code":"101060902","name":"靖宇","pinyin":"jingyu","province":"吉林"},{"code":"101060907","name":"江源","pinyin":"jiangyuan","province":"吉林"},{"code":"101070203","name":"金州","pinyin":"jinzhou","province":"辽宁"},{"code":"101070701","name":"锦州","pinyin":"jinzhou","province":"辽宁"},{"code":"101071207","name":"建平县","pinyin":"jianpingxian","province":"辽宁"},{"code":"101071402","name":"建昌","pinyin":"jianchang","province":"辽宁"},{"code":"101080401","name":"集宁","pinyin":"jining","province":"内蒙古"},{"code":"101081205","name":"吉兰太","pinyin":"jilantai","province":"内蒙古"},{"code":"101090102","name":"井陉","pinyin":"jingxing","province":"河北"},{"code":"101090116","name":"晋州","pinyin":"jinzhou","province":"河北"},{"code":"101090808","name":"景县","pinyin":"jingxian","province":"河北"},{"code":"101090810","name":"冀州","pinyin":"jizhou","province":"河北"},{"code":"101090909","name":"巨鹿","pinyin":"julu","province":"河北"},{"code":"101091011","name":"鸡泽","pinyin":"jize","province":"河北"},{"code":"101100106","name":"尖草坪区","pinyin":"jiancaopingqu","province":"山西"},{"code":"101100401","name":"晋中","pinyin":"jinzhong","province":"山西"},{"code":"101100412","name":"介休","pinyin":"jiexiu","province":"山西"},{"code":"101100601","name":"晋城","pinyin":"jincheng","province":"山西"},{"code":"101100706","name":"吉县","pinyin":"jixian","province":"山西"},{"code":"101100803","name":"稷山","pinyin":"jishan","province":"山西"},{"code":"101100807","name":"绛县","pinyin":"jiangxian","province":"山西"},{"code":"101101012","name":"静乐","pinyin":"jingle","province":"山西"},{"code":"101101108","name":"交口","pinyin":"jiaokou","province":"山西"},{"code":"101101113","name":"交城","pinyin":"jiaocheng","province":"山西"},{"code":"101110205","name":"泾阳","pinyin":"jingyang","province":"陕西"},{"code":"101110404","name":"佳县","pinyin":"jiaxian","province":"陕西"},{"code":"101110406","name":"靖边","pinyin":"jingbian","province":"陕西"},{"code":"101110412","name":"清涧","pinyin":"jingjian","province":"陕西"},{"code":"101120101","name":"济南","pinyin":"jinan","province":"山东"},{"code":"101120106","name":"济阳","pinyin":"jiyang","province":"山东"},{"code":"101120204","name":"即墨","pinyin":"jimo","province":"山东"},{"code":"101120205","name":"胶州","pinyin":"jiaozhou","province":"山东"},{"code":"101120206","name":"胶南","pinyin":"jiaonan","province":"山东"},{"code":"101120701","name":"济宁","pinyin":"jining","province":"山东"},{"code":"101120702","name":"嘉祥","pinyin":"jiaxiang","province":"山东"},{"code":"101120706","name":"金乡","pinyin":"jinxiang","province":"山东"},{"code":"101120902","name":"莒南","pinyin":"junan","province":"山东"},{"code":"101121002","name":"鄄城","pinyin":"juancheng","province":"山东"},{"code":"101121006","name":"巨野","pinyin":"juye","province":"山东"},{"code":"101121503","name":"莒县","pinyin":"juxian","province":"山东"},{"code":"101130405","name":"吉木萨尔","pinyin":"jimusaer","province":"新疆"},{"code":"101130910","name":"伽师","pinyin":"jiashi","province":"新疆"},{"code":"101131405","name":"吉木乃","pinyin":"jimunai","province":"新疆"},{"code":"101131603","name":"精河","pinyin":"jinghe","province":"新疆"},{"code":"101140206","name":"江孜","pinyin":"jiangzi","province":"西藏"},{"code":"101140210","name":"吉隆","pinyin":"jilong","province":"西藏"},{"code":"101140304","name":"加查","pinyin":"jiacha","province":"西藏"},{"code":"101140509","name":"江达","pinyin":"jiangda","province":"西藏"},{"code":"101140603","name":"嘉黎","pinyin":"jiali","province":"西藏"},{"code":"101150302","name":"尖扎","pinyin":"jianzha","province":"青海"},{"code":"101150505","name":"久治","pinyin":"jiuzhi","province":"青海"},{"code":"101160302","name":"泾川","pinyin":"jingchuan","province":"甘肃"},{"code":"101160307","name":"静宁","pinyin":"jingning","province":"甘肃"},{"code":"101160601","name":"金昌","pinyin":"jinchang","province":"甘肃"},{"code":"101160801","name":"酒泉","pinyin":"jiuquan","province":"甘肃"},{"code":"101160803","name":"金塔","pinyin":"jinta","province":"甘肃"},{"code":"101161107","name":"积石山","pinyin":"jishishan","province":"甘肃"},{"code":"101161302","name":"靖远","pinyin":"jingyuan","province":"甘肃"},{"code":"101161305","name":"景泰","pinyin":"jingtai","province":"甘肃"},{"code":"101161401","name":"嘉峪关","pinyin":"jiayuguan","province":"甘肃"},{"code":"101170404","name":"泾源","pinyin":"jinyuan","province":"宁夏"},{"code":"101180502","name":"郏县","pinyin":"jiaxian","province":"河南"},{"code":"101180911","name":"吉利","pinyin":"jili","province":"河南"},{"code":"101181101","name":"焦作","pinyin":"jiaozuo","province":"河南"},{"code":"101181801","name":"济源","pinyin":"jiyuan","province":"河南"},{"code":"101190104","name":"江宁","pinyin":"jiangning","province":"江苏"},{"code":"101190106","name":"江浦","pinyin":"jiangpu","province":"江苏"},{"code":"101190202","name":"江阴","pinyin":"jiangyin","province":"江苏"},{"code":"101190304","name":"句容","pinyin":"jurong","province":"江苏"},{"code":"101190605","name":"江都","pinyin":"jiangdu","province":"江苏"},{"code":"101190706","name":"建湖","pinyin":"jianhu","province":"江苏"},{"code":"101190902","name":"金湖","pinyin":"jinhu","province":"江苏"},{"code":"101191103","name":"金坛","pinyin":"jintan","province":"江苏"},{"code":"101191204","name":"姜堰","pinyin":"jiangyan","province":"江苏"},{"code":"101191205","name":"靖江","pinyin":"jingjiang","province":"江苏"},{"code":"101200105","name":"江夏","pinyin":"jiangxia","province":"湖北"},{"code":"101200703","name":"嘉鱼","pinyin":"jiayu","province":"湖北"},{"code":"101200801","name":"荆州","pinyin":"jingzhou","province":"湖北"},{"code":"101200802","name":"江陵","pinyin":"jiangling","province":"湖北"},{"code":"101200805","name":"监利","pinyin":"jianli","province":"湖北"},{"code":"101201003","name":"建始","pinyin":"jianshi","province":"湖北"},{"code":"101201401","name":"荆门","pinyin":"jingmen","province":"湖北"},{"code":"101201403","name":"京山","pinyin":"jingshan","province":"湖北"},{"code":"101210105","name":"建德","pinyin":"jiande","province":"浙江"},{"code":"101210301","name":"嘉兴","pinyin":"jiaxing","province":"浙江"},{"code":"101210302","name":"嘉善","pinyin":"jiashan","province":"浙江"},{"code":"101210611","name":"椒江","pinyin":"jiaojiang","province":"浙江"},{"code":"101210804","name":"缙云","pinyin":"jinyun","province":"浙江"},{"code":"101210809","name":"景宁","pinyin":"jingning","province":"浙江"},{"code":"101210901","name":"金华","pinyin":"jinhua","province":"浙江"},{"code":"101211005","name":"江山","pinyin":"jiangshan","province":"浙江"},{"code":"101220805","name":"界首","pinyin":"jieshou","province":"安徽"},{"code":"101221402","name":"泾县","pinyin":"jingxian","province":"安徽"},{"code":"101221403","name":"旌德","pinyin":"jingde","province":"安徽"},{"code":"101221405","name":"绩溪","pinyin":"jixi","province":"安徽"},{"code":"101221505","name":"金寨","pinyin":"jinzhai","province":"安徽"},{"code":"101221704","name":"九华山","pinyin":"jiuhuashan","province":"安徽"},{"code":"101230509","name":"晋江","pinyin":"jinjiang","province":"福建"},{"code":"101230805","name":"将乐","pinyin":"jiangle","province":"福建"},{"code":"101230806","name":"建宁","pinyin":"jianning","province":"福建"},{"code":"101230907","name":"建阳","pinyin":"jianyang","province":"福建"},{"code":"101230910","name":"建瓯","pinyin":"jianou","province":"福建"},{"code":"101240105","name":"进贤","pinyin":"jinxian","province":"江西"},{"code":"101240201","name":"九江","pinyin":"jiujiang","province":"江西"},{"code":"101240405","name":"金溪","pinyin":"jinxi","province":"江西"},{"code":"101240506","name":"靖安","pinyin":"jingan","province":"江西"},{"code":"101240601","name":"吉安","pinyin":"jian","province":"江西"},{"code":"101240602","name":"吉安县","pinyin":"jianxian","province":"江西"},{"code":"101240603","name":"吉水","pinyin":"jishui","province":"江西"},{"code":"101240608","name":"井冈山","pinyin":"jinggangshan","province":"江西"},{"code":"101240801","name":"景德镇","pinyin":"jingdezhen","province":"江西"},{"code":"101250503","name":"嘉禾","pinyin":"jiahe","province":"湖南"},{"code":"101250608","name":"津市","pinyin":"jinshi","province":"湖南"},{"code":"101251205","name":"靖州","pinyin":"jingzhou","province":"湖南"},{"code":"101251407","name":"江永","pinyin":"jiangyong","province":"湖南"},{"code":"101251410","name":"江华","pinyin":"jianghua","province":"湖南"},{"code":"101251501","name":"吉首","pinyin":"jishou","province":"湖南"},{"code":"101260511","name":"剑河","pinyin":"jianhe","province":"贵州"},{"code":"101260515","name":"锦屏","pinyin":"jinping","province":"贵州"},{"code":"101260602","name":"江口","pinyin":"jiangkou","province":"贵州"},{"code":"101260703","name":"金沙","pinyin":"jinsha","province":"贵州"},{"code":"101270105","name":"金堂","pinyin":"jintang","province":"四川"},{"code":"101270408","name":"江油","pinyin":"jiangyou","province":"四川"},{"code":"101271105","name":"江安","pinyin":"jiangan","province":"四川"},{"code":"101271109","name":"筠连","pinyin":"junlian","province":"四川"},{"code":"101271304","name":"简阳","pinyin":"jianyang","province":"四川"},{"code":"101271403","name":"井研","pinyin":"jingyan","province":"四川"},{"code":"101271404","name":"夹江","pinyin":"jiajiang","province":"四川"},{"code":"101271611","name":"金阳","pinyin":"jinyang","province":"四川"},{"code":"101271805","name":"九龙","pinyin":"jiulong","province":"四川"},{"code":"101271906","name":"九寨沟","pinyin":"jiuzhaigou","province":"四川"},{"code":"101271907","name":"金川","pinyin":"jinchuan","province":"四川"},{"code":"101272104","name":"剑阁","pinyin":"jiange","province":"四川"},{"code":"101280403","name":"蕉岭","pinyin":"jiaoling","province":"广东"},{"code":"101280703","name":"金湾","pinyin":"jinwan","province":"广东"},{"code":"101281101","name":"江门","pinyin":"jiangmen","province":"广东"},{"code":"101281109","name":"江海","pinyin":"jianghai","province":"广东"},{"code":"101281901","name":"揭阳","pinyin":"jieyang","province":"广东"},{"code":"101281902","name":"揭西","pinyin":"jiexi","province":"广东"},{"code":"101281905","name":"揭东","pinyin":"jiedong","province":"广东"},{"code":"101290105","name":"晋宁","pinyin":"jinning","province":"云南"},{"code":"101290209","name":"剑川","pinyin":"jianchuan","province":"云南"},{"code":"101290303","name":"建水","pinyin":"jianshui","province":"云南"},{"code":"101290312","name":"金平","pinyin":"jinping","province":"云南"},{"code":"101290703","name":"江川","pinyin":"jiangchuan","province":"云南"},{"code":"101290902","name":"景谷","pinyin":"jinggu","province":"云南"},{"code":"101290903","name":"景东","pinyin":"jingdong","province":"云南"},{"code":"101290907","name":"江城","pinyin":"jiangcheng","province":"云南"},{"code":"101291601","name":"景洪","pinyin":"jinghong","province":"云南"},{"code":"101300403","name":"金秀","pinyin":"jinxiu","province":"广西"},{"code":"101301005","name":"靖西","pinyin":"jingxi","province":"广西"},{"code":"101340202","name":"嘉义","pinyin":"jiayi","province":"台湾"},{"code":"101041500","name":"开县","pinyin":"kaixian","province":"重庆"},{"code":"101050208","name":"克山","pinyin":"keshan","province":"黑龙江"},{"code":"101050209","name":"克东","pinyin":"kedong","province":"黑龙江"},{"code":"101070104","name":"康平","pinyin":"kangping","province":"辽宁"},{"code":"101070603","name":"宽甸","pinyin":"kuandian","province":"辽宁"},{"code":"101071102","name":"开原","pinyin":"kaiyuan","province":"辽宁"},{"code":"101071204","name":"喀左","pinyin":"kazuo","province":"辽宁"},{"code":"101080503","name":"科左中旗","pinyin":"kezuozhongqi","province":"内蒙古"},{"code":"101080504","name":"科左后旗","pinyin":"kezuohouqi","province":"内蒙古"},{"code":"101080506","name":"开鲁","pinyin":"kailu","province":"内蒙古"},{"code":"101080507","name":"库伦","pinyin":"kulun","province":"内蒙古"},{"code":"101080608","name":"克什克腾","pinyin":"keshiketeng","province":"内蒙古"},{"code":"101080611","name":"喀喇沁","pinyin":"kalaqin","province":"内蒙古"},{"code":"101081103","name":"科右中旗","pinyin":"keyouzhongqi","province":"内蒙古"},{"code":"101081109","name":"科右前旗","pinyin":"keyouqianqi","province":"内蒙古"},{"code":"101090304","name":"康保","pinyin":"kangbao","province":"河北"},{"code":"101090409","name":"宽城","pinyin":"kuancheng","province":"河北"},{"code":"101101013","name":"岢岚","pinyin":"kelan","province":"山西"},{"code":"101121203","name":"垦利","pinyin":"kenli","province":"山东"},{"code":"101130201","name":"克拉玛依","pinyin":"kelamayi","province":"新疆"},{"code":"101130503","name":"克孜勒","pinyin":"kezile","province":"新疆"},{"code":"101130601","name":"库尔勒","pinyin":"kuerle","province":"新疆"},{"code":"101130807","name":"库车","pinyin":"kuche","province":"新疆"},{"code":"101130808","name":"柯坪","pinyin":"keping","province":"新疆"},{"code":"101130901","name":"喀什","pinyin":"kashi","province":"新疆"},{"code":"101131011","name":"奎屯","pinyin":"kuitunshi","province":"新疆"},{"code":"101140219","name":"康马","pinyin":"kangma","province":"西藏"},{"code":"101160308","name":"崆峒","pinyin":"kongtong","province":"甘肃"},{"code":"101161005","name":"康县","pinyin":"kangxian","province":"甘肃"},{"code":"101161102","name":"康乐","pinyin":"kangle","province":"甘肃"},{"code":"101180801","name":"开封","pinyin":"kaifeng","province":"河南"},{"code":"101190404","name":"昆山","pinyin":"kunshan","province":"江苏"},{"code":"101211003","name":"开化","pinyin":"kaihua","province":"浙江"},{"code":"101260106","name":"开阳","pinyin":"kaiyang","province":"贵州"},{"code":"101260501","name":"凯里","pinyin":"kaili","province":"贵州"},{"code":"101270603","name":"开江","pinyin":"kaijiang","province":"四川"},{"code":"101271802","name":"康定","pinyin":"kangding","province":"四川"},{"code":"101281103","name":"开平","pinyin":"kaiping","province":"广东"},{"code":"101290101","name":"昆明","pinyin":"kunming","province":"云南"},{"code":"101290307","name":"开远","pinyin":"kaiyuan","province":"云南"},{"code":"101042300","name":"梁平","pinyin":"liangping","province":"重庆"},{"code":"101050203","name":"龙江","pinyin":"longjiang","province":"黑龙江"},{"code":"101050304","name":"林口","pinyin":"linkou","province":"黑龙江"},{"code":"101050507","name":"兰西","pinyin":"lanxi","province":"黑龙江"},{"code":"101050902","name":"林甸","pinyin":"lindian","province":"黑龙江"},{"code":"101051203","name":"萝北","pinyin":"luobei","province":"黑龙江"},{"code":"101060307","name":"龙井","pinyin":"longjing","province":"吉林"},{"code":"101060403","name":"梨树","pinyin":"lishu","province":"吉林"},{"code":"101060503","name":"柳河","pinyin":"liuhe","province":"吉林"},{"code":"101060701","name":"辽源","pinyin":"liaoyuan","province":"吉林"},{"code":"101060903","name":"临江","pinyin":"linjiang","province":"吉林"},{"code":"101070103","name":"辽中","pinyin":"liaozhong","province":"辽宁"},{"code":"101070205","name":"旅顺","pinyin":"lvshun","province":"辽宁"},{"code":"101070702","name":"凌海","pinyin":"linghai","province":"辽宁"},{"code":"101071001","name":"辽阳","pinyin":"liaoyang","province":"辽宁"},{"code":"101071002","name":"辽阳县","pinyin":"liaoyangxian","province":"辽宁"},{"code":"101071203","name":"凌源","pinyin":"lingyuan","province":"辽宁"},{"code":"101080407","name":"凉城","pinyin":"liangcheng","province":"内蒙古"},{"code":"101080607","name":"林西","pinyin":"linxi","province":"内蒙古"},{"code":"101080801","name":"临河","pinyin":"linhe","province":"内蒙古"},{"code":"101081212","name":"孪井滩","pinyin":"luanjingtan","province":"内蒙古"},{"code":"101090104","name":"栾城","pinyin":"luancheng","province":"河北"},{"code":"101090106","name":"灵寿","pinyin":"lingshou","province":"河北"},{"code":"101090118","name":"鹿泉","pinyin":"luquan","province":"河北"},{"code":"101090209","name":"涞源","pinyin":"laiyuan","province":"河北"},{"code":"101090215","name":"蠡县","pinyin":"lixian","province":"河北"},{"code":"101090222","name":"涞水","pinyin":"laishui","province":"河北"},{"code":"101090406","name":"滦平","pinyin":"luanping","province":"河北"},{"code":"101090407","name":"隆化","pinyin":"longhua","province":"河北"},{"code":"101090504","name":"滦县","pinyin":"luanxian","province":"河北"},{"code":"101090505","name":"滦南","pinyin":"luannan","province":"河北"},{"code":"101090506","name":"乐亭","pinyin":"leting","province":"河北"},{"code":"101090601","name":"廊坊","pinyin":"langfang","province":"河北"},{"code":"101090902","name":"临城","pinyin":"lincheng","province":"河北"},{"code":"101090906","name":"隆尧","pinyin":"longyao","province":"河北"},{"code":"101090915","name":"临西","pinyin":"linxi","province":"河北"},{"code":"101091003","name":"临漳","pinyin":"linzhang","province":"河北"},{"code":"101091105","name":"卢龙","pinyin":"lulong","province":"河北"},{"code":"101100104","name":"娄烦","pinyin":"loufan","province":"山西"},{"code":"101100206","name":"灵丘","pinyin":"lingqiu","province":"山西"},{"code":"101100411","name":"灵石","pinyin":"lingshi","province":"山西"},{"code":"101100502","name":"黎城","pinyin":"licheng","province":"山西"},{"code":"101100504","name":"潞城","pinyin":"lucheng","province":"山西"},{"code":"101100604","name":"陵川","pinyin":"lingchuan","province":"山西"},{"code":"101100701","name":"临汾","pinyin":"linfen","province":"山西"},{"code":"101100802","name":"临猗","pinyin":"linyi","province":"山西"},{"code":"101101100","name":"吕梁","pinyin":"lvliang","province":"山西"},{"code":"101101101","name":"离石","pinyin":"lishi","province":"山西"},{"code":"101101102","name":"临县","pinyin":"linxian","province":"山西"},{"code":"101101104","name":"岚县","pinyin":"lanxian","province":"山西"},{"code":"101101105","name":"柳林","pinyin":"liulin","province":"山西"},{"code":"101110103","name":"临潼","pinyin":"lintong","province":"陕西"},{"code":"101110104","name":"蓝田","pinyin":"lantian","province":"陕西"},{"code":"101110202","name":"礼泉","pinyin":"liquan","province":"陕西"},{"code":"101110309","name":"洛川","pinyin":"luochuan","province":"陕西"},{"code":"101110602","name":"洛南","pinyin":"luonan","province":"陕西"},{"code":"101110706","name":"岚皋","pinyin":"langao","province":"陕西"},{"code":"101110802","name":"略阳","pinyin":"lueyang","province":"陕西"},{"code":"101110804","name":"留坝","pinyin":"liuba","province":"陕西"},{"code":"101110904","name":"麟游","pinyin":"linyou","province":"陕西"},{"code":"101110911","name":"陇县","pinyin":"longxian","province":"陕西"},{"code":"101120202","name":"崂山","pinyin":"laoshan","province":"山东"},{"code":"101120207","name":"莱西","pinyin":"laixi","province":"山东"},{"code":"101120308","name":"临淄","pinyin":"linzi","province":"山东"},{"code":"101120403","name":"临邑","pinyin":"linyi","province":"山东"},{"code":"101120404","name":"陵县","pinyin":"lingxian","province":"山东"},{"code":"101120406","name":"乐陵","pinyin":"leling","province":"山东"},{"code":"101120502","name":"莱州","pinyin":"laizhou","province":"山东"},{"code":"101120505","name":"龙口","pinyin":"longkou","province":"山东"},{"code":"101120510","name":"莱阳","pinyin":"laiyang","province":"山东"},{"code":"101120604","name":"临朐","pinyin":"linqu","province":"山东"},{"code":"101120709","name":"梁山","pinyin":"liangshan","province":"山东"},{"code":"101120901","name":"临沂","pinyin":"linyi","province":"山东"},{"code":"101120905","name":"临沭","pinyin":"linshu","province":"山东"},{"code":"101121204","name":"利津","pinyin":"lijin","province":"山东"},{"code":"101121601","name":"莱芜","pinyin":"laiwu","province":"山东"},{"code":"101121701","name":"聊城","pinyin":"liaocheng","province":"山东"},{"code":"101121707","name":"临清","pinyin":"linqing","province":"山东"},{"code":"101130602","name":"轮台","pinyin":"luntai","province":"新疆"},{"code":"101131305","name":"洛浦","pinyin":"luopu","province":"新疆"},{"code":"101140101","name":"拉萨","pinyin":"lasa","province":"西藏"},{"code":"101140104","name":"林周","pinyin":"linzhou","province":"西藏"},{"code":"101140202","name":"拉孜","pinyin":"lazi","province":"西藏"},{"code":"101140305","name":"浪卡子","pinyin":"langkazi","province":"西藏"},{"code":"101140307","name":"隆子","pinyin":"longzi","province":"西藏"},{"code":"101140311","name":"洛扎","pinyin":"luozha","province":"西藏"},{"code":"101140401","name":"林芝","pinyin":"linzhi","province":"西藏"},{"code":"101140406","name":"朗县","pinyin":"langxian","province":"西藏"},{"code":"101140504","name":"洛隆","pinyin":"luolong","province":"西藏"},{"code":"101140507","name":"类乌齐","pinyin":"leiwuqi","province":"西藏"},{"code":"101150202","name":"乐都","pinyin":"ledu","province":"青海"},{"code":"101150207","name":"冷湖","pinyin":"lenghu","province":"青海"},{"code":"101160101","name":"兰州","pinyin":"lanzhou","province":"甘肃"},{"code":"101160203","name":"陇西","pinyin":"longxi","province":"甘肃"},{"code":"101160205","name":"临洮","pinyin":"lintao","province":"甘肃"},{"code":"101160303","name":"灵台","pinyin":"lingtai","province":"甘肃"},{"code":"101160704","name":"临泽","pinyin":"linze","province":"甘肃"},{"code":"101161007","name":"礼县","pinyin":"lixian","province":"甘肃"},{"code":"101161009","name":"两当","pinyin":"liangdang","province":"甘肃"},{"code":"101161101","name":"临夏","pinyin":"linxia","province":"甘肃"},{"code":"101161202","name":"临潭","pinyin":"lintan","province":"甘肃"},{"code":"101161207","name":"碌曲","pinyin":"luqu","province":"甘肃"},{"code":"101170103","name":"灵武","pinyin":"lingwu","province":"宁夏"},{"code":"101170403","name":"隆德","pinyin":"longde","province":"宁夏"},{"code":"101180205","name":"林州","pinyin":"linzhou","province":"河南"},{"code":"101180507","name":"鲁山","pinyin":"lushan","province":"河南"},{"code":"101180603","name":"罗山","pinyin":"luoshan","province":"河南"},{"code":"101180805","name":"兰考","pinyin":"lankao","province":"河南"},{"code":"101180901","name":"洛阳","pinyin":"luoyang","province":"河南"},{"code":"101180905","name":"洛宁","pinyin":"luoning","province":"河南"},{"code":"101180909","name":"栾川","pinyin":"luanchuan","province":"河南"},{"code":"101181409","name":"鹿邑","pinyin":"luyi","province":"河南"},{"code":"101181501","name":"漯河","pinyin":"luohe","province":"河南"},{"code":"101181502","name":"临颍","pinyin":"linying","province":"河南"},{"code":"101181702","name":"灵宝","pinyin":"lingbao","province":"河南"},{"code":"101181704","name":"卢氏","pinyin":"lushi","province":"河南"},{"code":"101190102","name":"溧水","pinyin":"lishui","province":"江苏"},{"code":"101190105","name":"六合","pinyin":"luhe","province":"江苏"},{"code":"101190905","name":"涟水","pinyin":"lianshui","province":"江苏"},{"code":"101191001","name":"连云港","pinyin":"lianyungang","province":"江苏"},{"code":"101191102","name":"溧阳","pinyin":"liyang","province":"江苏"},{"code":"101200206","name":"老河口","pinyin":"laohekou","province":"湖北"},{"code":"101200302","name":"梁子湖","pinyin":"liangzihu","province":"湖北"},{"code":"101200504","name":"罗田","pinyin":"luotian","province":"湖北"},{"code":"101201002","name":"利川","pinyin":"lichuan","province":"湖北"},{"code":"101201007","name":"来凤","pinyin":"laifeng","province":"湖北"},{"code":"101210107","name":"临安","pinyin":"linan","province":"浙江"},{"code":"101210610","name":"临海","pinyin":"linhai","province":"浙江"},{"code":"101210613","name":"路桥","pinyin":"luqiao","province":"浙江"},{"code":"101210801","name":"丽水","pinyin":"lishui","province":"浙江"},{"code":"101210803","name":"龙泉","pinyin":"longquan","province":"浙江"},{"code":"101210903","name":"兰溪","pinyin":"lanxi","province":"浙江"},{"code":"101211004","name":"龙游","pinyin":"longyou","province":"浙江"},{"code":"101220703","name":"灵璧","pinyin":"lingbi","province":"安徽"},{"code":"101220804","name":"临泉","pinyin":"linquan","province":"安徽"},{"code":"101220903","name":"利辛","pinyin":"lixin","province":"安徽"},{"code":"101221106","name":"来安","pinyin":"laian","province":"安徽"},{"code":"101221407","name":"郎溪","pinyin":"langxi","province":"安徽"},{"code":"101221501","name":"六安","pinyin":"luan","province":"安徽"},{"code":"101221602","name":"庐江","pinyin":"lujiang","province":"安徽"},{"code":"101230104","name":"罗源","pinyin":"luoyuan","province":"福建"},{"code":"101230105","name":"连江","pinyin":"lianjiang","province":"福建"},{"code":"101230406","name":"荔城","pinyin":"licheng","province":"福建"},{"code":"101230605","name":"龙海","pinyin":"longhai","province":"福建"},{"code":"101230701","name":"龙岩","pinyin":"longyan","province":"福建"},{"code":"101230703","name":"连城","pinyin":"liancheng","province":"福建"},{"code":"101240106","name":"莲塘","pinyin":"liantang","province":"江西"},{"code":"101240203","name":"庐山","pinyin":"lushan","province":"江西"},{"code":"101240410","name":"黎川","pinyin":"lichuan","province":"江西"},{"code":"101240714","name":"龙南","pinyin":"longnan","province":"江西"},{"code":"101240802","name":"乐平","pinyin":"leping","province":"江西"},{"code":"101240902","name":"莲花","pinyin":"lianhua","province":"江西"},{"code":"101240905","name":"芦溪","pinyin":"luxi","province":"江西"},{"code":"101250103","name":"浏阳","pinyin":"liuyang","province":"湖南"},{"code":"101250303","name":"醴陵","pinyin":"liling","province":"湖南"},{"code":"101250408","name":"耒阳","pinyin":"leiyang","province":"湖南"},{"code":"101250505","name":"临武","pinyin":"linwu","province":"湖南"},{"code":"101250605","name":"澧县","pinyin":"lixian","province":"湖南"},{"code":"101250606","name":"临澧","pinyin":"linli","province":"湖南"},{"code":"101250801","name":"娄底","pinyin":"loudi","province":"湖南"},{"code":"101250803","name":"冷水江","pinyin":"lengshuijiang","province":"湖南"},{"code":"101250806","name":"涟源","pinyin":"lianyuan","province":"湖南"},{"code":"101250902","name":"隆回","pinyin":"longhui","province":"湖南"},{"code":"101251006","name":"临湘","pinyin":"linxiang","province":"湖南"},{"code":"101251408","name":"蓝山","pinyin":"lanshan","province":"湖南"},{"code":"101251411","name":"冷水滩","pinyin":"lengshuitan","province":"湖南"},{"code":"101251506","name":"泸溪","pinyin":"luxi","province":"湖南"},{"code":"101251507","name":"龙山","pinyin":"longshan","province":"湖南"},{"code":"101260407","name":"龙里","pinyin":"longli","province":"贵州"},{"code":"101260408","name":"罗甸","pinyin":"luodian","province":"贵州"},{"code":"101260412","name":"荔波","pinyin":"libo","province":"贵州"},{"code":"101260512","name":"雷山","pinyin":"leishan","province":"贵州"},{"code":"101260513","name":"黎平","pinyin":"liping","province":"贵州"},{"code":"101260802","name":"六枝","pinyin":"liuzhi","province":"贵州"},{"code":"101270102","name":"龙泉驿","pinyin":"longquanyi","province":"四川"},{"code":"101270507","name":"阆中","pinyin":"langzhong","province":"四川"},{"code":"101270804","name":"邻水","pinyin":"linshui","province":"四川"},{"code":"101271001","name":"泸州","pinyin":"luzhou","province":"四川"},{"code":"101271003","name":"泸县","pinyin":"luxian","province":"四川"},{"code":"101271205","name":"隆昌","pinyin":"longchang","province":"四川"},{"code":"101271303","name":"乐至","pinyin":"lezhi","province":"四川"},{"code":"101271401","name":"乐山","pinyin":"leshan","province":"四川"},{"code":"101271601","name":"凉山","pinyin":"liangshan","province":"四川"},{"code":"101271617","name":"雷波","pinyin":"leibo","province":"四川"},{"code":"101271707","name":"芦山","pinyin":"lushan","province":"四川"},{"code":"101271803","name":"泸定","pinyin":"luding","province":"四川"},{"code":"101271808","name":"炉霍","pinyin":"luhuo","province":"四川"},{"code":"101271814","name":"理塘","pinyin":"litang","province":"四川"},{"code":"101271903","name":"理县","pinyin":"lixian","province":"四川"},{"code":"101272006","name":"罗江","pinyin":"luojiang","province":"四川"},{"code":"101280205","name":"乐昌","pinyin":"lechang","province":"广东"},{"code":"101280305","name":"龙门","pinyin":"longmen","province":"广东"},{"code":"101281003","name":"雷州","pinyin":"leizhou","province":"广东"},{"code":"101281005","name":"廉江","pinyin":"lianjiang","province":"广东"},{"code":"101281203","name":"连平","pinyin":"lianping","province":"广东"},{"code":"101281205","name":"龙川","pinyin":"longchuan","province":"广东"},{"code":"101281302","name":"连南","pinyin":"liannan","province":"广东"},{"code":"101281303","name":"连州","pinyin":"lianzhou","province":"广东"},{"code":"101281304","name":"连山","pinyin":"lianshan","province":"广东"},{"code":"101281402","name":"罗定","pinyin":"luoding","province":"广东"},{"code":"101282103","name":"陆丰","pinyin":"lufeng","province":"广东"},{"code":"101282104","name":"陆河","pinyin":"luhe","province":"广东"},{"code":"101290111","name":"禄劝","pinyin":"luquan","province":"云南"},{"code":"101290306","name":"绿春","pinyin":"lvchun","province":"云南"},{"code":"101290311","name":"泸西","pinyin":"luxi","province":"云南"},{"code":"101290403","name":"陆良","pinyin":"luliang","province":"云南"},{"code":"101290407","name":"罗平","pinyin":"luoping","province":"云南"},{"code":"101290503","name":"龙陵","pinyin":"longling","province":"云南"},{"code":"101290808","name":"禄丰","pinyin":"lufeng","province":"云南"},{"code":"101290904","name":"澜沧","pinyin":"lancang","province":"云南"},{"code":"101291002","name":"鲁甸","pinyin":"ludian","province":"云南"},{"code":"101291101","name":"临沧","pinyin":"lincang","province":"云南"},{"code":"101291204","name":"兰坪","pinyin":"lanping","province":"云南"},{"code":"101291205","name":"泸水","pinyin":"lushui","province":"云南"},{"code":"101291206","name":"六库","pinyin":"liuku","province":"云南"},{"code":"101291401","name":"丽江","pinyin":"lijiang","province":"云南"},{"code":"101291503","name":"陇川","pinyin":"longchuan","province":"云南"},{"code":"101291507","name":"梁河","pinyin":"lianghe","province":"云南"},{"code":"101291508","name":"潞西","pinyin":"luxi","province":"云南"},{"code":"101300105","name":"隆安","pinyin":"longan","province":"广西"},{"code":"101300203","name":"龙州","pinyin":"longzhou","province":"广西"},{"code":"101300301","name":"柳州","pinyin":"liuzhou","province":"广西"},{"code":"101300302","name":"柳城","pinyin":"liucheng","province":"广西"},{"code":"101300304","name":"鹿寨","pinyin":"luzhai","province":"广西"},{"code":"101300305","name":"柳江","pinyin":"liujiang","province":"广西"},{"code":"101300401","name":"来宾","pinyin":"laibin","province":"广西"},{"code":"101300503","name":"龙胜","pinyin":"longsheng","province":"广西"},{"code":"101300505","name":"临桂","pinyin":"lingui","province":"广西"},{"code":"101300507","name":"灵川","pinyin":"lingchuan","province":"广西"},{"code":"101300513","name":"荔浦","pinyin":"lipu","province":"广西"},{"code":"101300905","name":"陆川","pinyin":"luchuan","province":"广西"},{"code":"101301008","name":"隆林","pinyin":"longlin","province":"广西"},{"code":"101301010","name":"乐业","pinyin":"leye","province":"广西"},{"code":"101301011","name":"凌云","pinyin":"lingyun","province":"广西"},{"code":"101301103","name":"灵山","pinyin":"lingshan","province":"广西"},{"code":"101301206","name":"罗城","pinyin":"luocheng","province":"广西"},{"code":"101310203","name":"临高","pinyin":"lingao","province":"海南"},{"code":"101310216","name":"陵水","pinyin":"lingshui","province":"海南"},{"code":"101310221","name":"乐东","pinyin":"ledong","province":"海南"},{"code":"101330103","name":"路环岛","pinyin":"luhuandao","province":"澳门"},{"code":"101011300","name":"密云","pinyin":"miyun","province":"北京"},{"code":"101011400","name":"门头沟","pinyin":"mentougou","province":"北京"},{"code":"101020200","name":"闵行","pinyin":"minhang","province":"上海"},{"code":"101050113","name":"木兰","pinyin":"mulan","province":"黑龙江"},{"code":"101050301","name":"牡丹江","pinyin":"mudanjiang","province":"黑龙江"},{"code":"101050303","name":"穆棱","pinyin":"muling","province":"黑龙江"},{"code":"101050505","name":"明水","pinyin":"mingshui","province":"黑龙江"},{"code":"101050703","name":"漠河","pinyin":"mohe","province":"黑龙江"},{"code":"101051103","name":"密山","pinyin":"mishan","province":"黑龙江"},{"code":"101060502","name":"梅河口","pinyin":"meihekou","province":"吉林"},{"code":"101080203","name":"满都拉","pinyin":"mandula","province":"内蒙古"},{"code":"101081004","name":"莫力达瓦","pinyin":"molidawa","province":"内蒙古"},{"code":"101081010","name":"满洲里","pinyin":"manzhouli","province":"内蒙古"},{"code":"101090202","name":"满城","pinyin":"mancheng","province":"河北"},{"code":"101090710","name":"孟村","pinyin":"mengcun","province":"河北"},{"code":"101110408","name":"米脂","pinyin":"mizhi","province":"陕西"},{"code":"101110803","name":"勉县","pinyin":"mianxian","province":"陕西"},{"code":"101110908","name":"眉县","pinyin":"meixian","province":"陕西"},{"code":"101120509","name":"牟平","pinyin":"moup","province":"山东"},{"code":"101120907","name":"蒙阴","pinyin":"mengyin","province":"山东"},{"code":"101130303","name":"莫索湾","pinyin":"mosuowan","province":"新疆"},{"code":"101130403","name":"米泉","pinyin":"miquan","province":"新疆"},{"code":"101130407","name":"玛纳斯","pinyin":"manasi","province":"新疆"},{"code":"101130408","name":"木垒","pinyin":"mulei","province":"新疆"},{"code":"101130904","name":"麦盖提","pinyin":"maigaiti","province":"新疆"},{"code":"101131304","name":"墨玉","pinyin":"moyu","province":"新疆"},{"code":"101131306","name":"民丰","pinyin":"minfeng","province":"新疆"},{"code":"101140108","name":"墨竹工卡","pinyin":"mozhugongka","province":"西藏"},{"code":"101140403","name":"米林","pinyin":"milin","province":"西藏"},{"code":"101140407","name":"墨脱","pinyin":"motuo","province":"西藏"},{"code":"101140506","name":"芒康","pinyin":"mangkang","province":"西藏"},{"code":"101150203","name":"民和","pinyin":"minhe","province":"青海"},{"code":"101150506","name":"玛多","pinyin":"madu","province":"青海"},{"code":"101150508","name":"玛沁","pinyin":"maqin","province":"青海"},{"code":"101150712","name":"茫崖","pinyin":"mangai","province":"青海"},{"code":"101150802","name":"门源","pinyin":"menyuan","province":"青海"},{"code":"101160207","name":"岷县","pinyin":"minxian","province":"甘肃"},{"code":"101160502","name":"民勤","pinyin":"minqin","province":"甘肃"},{"code":"101160703","name":"民乐","pinyin":"minle","province":"甘肃"},{"code":"101160908","name":"麦积","pinyin":"maiji","province":"甘肃"},{"code":"101161206","name":"玛曲","pinyin":"maqu","province":"甘肃"},{"code":"101180903","name":"孟津","pinyin":"mengjin","province":"河南"},{"code":"101181004","name":"民权","pinyin":"minquan","province":"河南"},{"code":"101181108","name":"孟州","pinyin":"mengzhou","province":"河南"},{"code":"101181703","name":"渑池","pinyin":"mianchi","province":"河南"},{"code":"101200503","name":"麻城","pinyin":"macheng","province":"湖北"},{"code":"101201108","name":"茅箭","pinyin":"maojian","province":"湖北"},{"code":"101220501","name":"马鞍山","pinyin":"maanshan","province":"安徽"},{"code":"101220904","name":"蒙城","pinyin":"mengcheng","province":"安徽"},{"code":"101221103","name":"明光","pinyin":"mingguang","province":"安徽"},{"code":"101230102","name":"闽清","pinyin":"minqing","province":"福建"},{"code":"101230103","name":"闽侯","pinyin":"minhou","province":"福建"},{"code":"101230807","name":"明溪","pinyin":"mingxi","province":"福建"},{"code":"101250104","name":"马坡岭","pinyin":"mapoling","province":"湖南"},{"code":"101251004","name":"汨罗","pinyin":"miluo","province":"湖南"},{"code":"101251208","name":"麻阳","pinyin":"mayang","province":"湖南"},{"code":"101260205","name":"湄潭","pinyin":"meitan","province":"贵州"},{"code":"101260507","name":"麻江","pinyin":"majiang","province":"贵州"},{"code":"101270203","name":"米易","pinyin":"miyi","province":"四川"},{"code":"101270401","name":"绵阳","pinyin":"mianyang","province":"四川"},{"code":"101271405","name":"沐川","pinyin":"muchuan","province":"四川"},{"code":"101271407","name":"马边","pinyin":"mabian","province":"四川"},{"code":"101271501","name":"眉山","pinyin":"meishan","province":"四川"},{"code":"101271603","name":"木里","pinyin":"muli","province":"四川"},{"code":"101271614","name":"冕宁","pinyin":"mianning","province":"四川"},{"code":"101271618","name":"美姑","pinyin":"meigu","province":"四川"},{"code":"101271702","name":"名山","pinyin":"mingshan","province":"四川"},{"code":"101271904","name":"茂县","pinyin":"maoxian","province":"四川"},{"code":"101271910","name":"马尔康","pinyin":"maerkang","province":"四川"},{"code":"101272005","name":"绵竹","pinyin":"mianzhu","province":"四川"},{"code":"101280401","name":"梅州","pinyin":"meizhou","province":"广东"},{"code":"101280409","name":"梅县","pinyin":"meixian","province":"广东"},{"code":"101281010","name":"麻章","pinyin":"mazhang","province":"广东"},{"code":"101282001","name":"茂名","pinyin":"maoming","province":"广东"},{"code":"101282006","name":"茂港","pinyin":"maogang","province":"广东"},{"code":"101290206","name":"弥渡","pinyin":"midu","province":"云南"},{"code":"101290304","name":"弥勒","pinyin":"mile","province":"云南"},{"code":"101290309","name":"蒙自","pinyin":"mengzi","province":"云南"},{"code":"101290405","name":"马龙","pinyin":"malong","province":"云南"},{"code":"101290603","name":"马关","pinyin":"maguan","province":"云南"},{"code":"101290604","name":"麻栗坡","pinyin":"malipo","province":"云南"},{"code":"101290805","name":"牟定","pinyin":"mouding","province":"云南"},{"code":"101290906","name":"墨江","pinyin":"mojiang","province":"云南"},{"code":"101290908","name":"孟连","pinyin":"menglian","province":"云南"},{"code":"101291603","name":"勐海","pinyin":"menghai","province":"云南"},{"code":"101291605","name":"勐腊","pinyin":"mengla","province":"云南"},{"code":"101300106","name":"马山","pinyin":"mashan","province":"广西"},{"code":"101300605","name":"蒙山","pinyin":"mengshan","province":"广西"},{"code":"101330101","name":"澳门","pinyin":"macao","province":"澳门"},{"code":"101340402","name":"苗栗","pinyin":"miaoli","province":"台湾"},{"code":"101020600","name":"南汇","pinyin":"nanhui","province":"上海"},{"code":"101030700","name":"宁河","pinyin":"ninghe","province":"天津"},{"code":"101040400","name":"南川","pinyin":"nanchuan","province":"重庆"},{"code":"101050202","name":"讷河","pinyin":"nehe","province":"黑龙江"},{"code":"101050306","name":"宁安","pinyin":"ningan","province":"黑龙江"},{"code":"101050602","name":"嫩江","pinyin":"nenjiang","province":"黑龙江"},{"code":"101060102","name":"农安","pinyin":"nongan","province":"吉林"},{"code":"101080508","name":"奈曼","pinyin":"naiman","province":"内蒙古"},{"code":"101080613","name":"宁城","pinyin":"ningcheng","province":"内蒙古"},{"code":"101080809","name":"那仁宝力格","pinyin":"narenbaolige","province":"内蒙古"},{"code":"101081209","name":"诺尔公","pinyin":"nuoergong","province":"内蒙古"},{"code":"101090707","name":"南皮","pinyin":"nanpi","province":"河北"},{"code":"101090904","name":"内丘","pinyin":"neiqiu","province":"河北"},{"code":"101090907","name":"南和","pinyin":"nanhe","province":"河北"},{"code":"101090908","name":"宁晋","pinyin":"ningjin","province":"河北"},{"code":"101090916","name":"南宫","pinyin":"nangong","province":"河北"},{"code":"101101007","name":"宁武","pinyin":"ningwu","province":"山西"},{"code":"101110710","name":"宁陕","pinyin":"ningshan","province":"陕西"},{"code":"101110809","name":"宁强","pinyin":"ningqiang","province":"陕西"},{"code":"101110810","name":"南郑","pinyin":"nanzheng","province":"陕西"},{"code":"101120409","name":"宁津","pinyin":"ningjin","province":"山东"},{"code":"101120806","name":"宁阳","pinyin":"ningyang","province":"山东"},{"code":"101131003","name":"尼勒克","pinyin":"nileke","province":"新疆"},{"code":"101140103","name":"尼木","pinyin":"nimu","province":"西藏"},{"code":"101140203","name":"南木林","pinyin":"nanmulin","province":"西藏"},{"code":"101140204","name":"聂拉木","pinyin":"nielamu","province":"西藏"},{"code":"101140309","name":"乃东","pinyin":"naidong","province":"西藏"},{"code":"101140601","name":"那曲","pinyin":"naqu","province":"西藏"},{"code":"101140602","name":"尼玛","pinyin":"nima","province":"西藏"},{"code":"101140607","name":"聂荣","pinyin":"nierong","province":"西藏"},{"code":"101150605","name":"囊谦","pinyin":"nangqian","province":"青海"},{"code":"101160407","name":"宁县","pinyin":"ningxian","province":"甘肃"},{"code":"101180204","name":"内黄","pinyin":"neihuang","province":"河南"},{"code":"101180701","name":"南阳","pinyin":"nanyang","province":"河南"},{"code":"101180702","name":"南召","pinyin":"nanzhao","province":"河南"},{"code":"101180706","name":"内乡","pinyin":"neixiang","province":"河南"},{"code":"101181007","name":"宁陵","pinyin":"ningling","province":"河南"},{"code":"101181303","name":"南乐","pinyin":"nanle","province":"河南"},{"code":"101190101","name":"南京","pinyin":"nanjing","province":"江苏"},{"code":"101190501","name":"南通","pinyin":"nantong","province":"江苏"},{"code":"101200204","name":"南漳","pinyin":"nanzhang","province":"湖北"},{"code":"101210401","name":"宁波","pinyin":"ningbo","province":"浙江"},{"code":"101210408","name":"宁海","pinyin":"ninghai","province":"浙江"},{"code":"101220304","name":"南陵","pinyin":"nanling","province":"安徽"},{"code":"101221404","name":"宁国","pinyin":"ningguo","province":"安徽"},{"code":"101230301","name":"宁德","pinyin":"ningde","province":"福建"},{"code":"101230506","name":"南安","pinyin":"nanan","province":"福建"},{"code":"101230603","name":"南靖","pinyin":"nanjing","province":"福建"},{"code":"101230802","name":"宁化","pinyin":"ninghua","province":"福建"},{"code":"101230901","name":"南平","pinyin":"nanping","province":"福建"},{"code":"101240101","name":"南昌","pinyin":"nanchang","province":"江西"},{"code":"101240103","name":"南昌县","pinyin":"nanchangxian","province":"江西"},{"code":"101240408","name":"南城","pinyin":"nancheng","province":"江西"},{"code":"101240409","name":"南丰","pinyin":"nanfeng","province":"江西"},{"code":"101240613","name":"宁冈","pinyin":"ninggang","province":"江西"},{"code":"101240704","name":"南康","pinyin":"nankang","province":"江西"},{"code":"101240707","name":"宁都","pinyin":"ningdu","province":"江西"},{"code":"101250102","name":"宁乡","pinyin":"ningxiang","province":"湖南"},{"code":"101250409","name":"南岳","pinyin":"nanyue","province":"湖南"},{"code":"101250702","name":"南县","pinyin":"nanxian","province":"湖南"},{"code":"101251406","name":"宁远","pinyin":"ningyuan","province":"湖南"},{"code":"101260111","name":"南明","pinyin":"nanming","province":"贵州"},{"code":"101260706","name":"纳雍","pinyin":"nayong","province":"贵州"},{"code":"101270501","name":"南充","pinyin":"nanchong","province":"四川"},{"code":"101270502","name":"南部","pinyin":"nanbu","province":"四川"},{"code":"101270903","name":"南江","pinyin":"nanjiang","province":"四川"},{"code":"101271007","name":"纳溪","pinyin":"naxi","province":"四川"},{"code":"101271104","name":"南溪","pinyin":"nanxi","province":"四川"},{"code":"101271201","name":"内江","pinyin":"neijiang","province":"四川"},{"code":"101271608","name":"宁南","pinyin":"ningnan","province":"四川"},{"code":"101271912","name":"若尔盖","pinyin":"nuoergai","province":"四川"},{"code":"101271914","name":"南坪","pinyin":"nanping","province":"四川"},{"code":"101280207","name":"南雄","pinyin":"nanxiong","province":"广东"},{"code":"101280504","name":"南澳","pinyin":"nanao","province":"广东"},{"code":"101280803","name":"南海","pinyin":"nanhai","province":"广东"},{"code":"101290212","name":"南涧","pinyin":"nanjian","province":"云南"},{"code":"101290806","name":"南华","pinyin":"nanhua","province":"云南"},{"code":"101290912","name":"宁洱","pinyin":"ninger","province":"云南"},{"code":"101291201","name":"怒江","pinyin":"nujiang","province":"云南"},{"code":"101291404","name":"宁蒗","pinyin":"ninglang","province":"云南"},{"code":"101300101","name":"南宁","pinyin":"nanning","province":"广西"},{"code":"101300207","name":"宁明","pinyin":"ningming","province":"广西"},{"code":"101301002","name":"那坡","pinyin":"napo","province":"广西"},{"code":"101301209","name":"南丹","pinyin":"nandan","province":"广西"},{"code":"101310220","name":"南沙","pinyin":"nansha","province":"海南"},{"code":"101340404","name":"南投","pinyin":"nantou","province":"台湾"},{"code":"101011500","name":"平谷","pinyin":"pinggu","province":"北京"},{"code":"101021300","name":"浦东","pinyin":"pudong","province":"上海"},{"code":"101043200","name":"彭水","pinyin":"pengshui","province":"重庆"},{"code":"101060205","name":"磐石","pinyin":"panshi","province":"吉林"},{"code":"101070204","name":"普兰店","pinyin":"pulandian","province":"辽宁"},{"code":"101071301","name":"盘锦","pinyin":"panjin","province":"辽宁"},{"code":"101071303","name":"盘山","pinyin":"panshan","province":"辽宁"},{"code":"101090111","name":"平山","pinyin":"pingshan","province":"河北"},{"code":"101090405","name":"平泉","pinyin":"pingquan","province":"河北"},{"code":"101090912","name":"平乡","pinyin":"pingxiang","province":"河北"},{"code":"101100303","name":"平定","pinyin":"pingding","province":"山西"},{"code":"101100410","name":"平遥","pinyin":"pingyao","province":"山西"},{"code":"101100506","name":"平顺","pinyin":"pingshun","province":"山西"},{"code":"101100708","name":"蒲县","pinyin":"puxian","province":"山西"},{"code":"101100813","name":"平陆","pinyin":"pinglu","province":"山西"},{"code":"101100902","name":"平鲁","pinyin":"pinglu","province":"山西"},{"code":"101101005","name":"偏关","pinyin":"pianguan","province":"山西"},{"code":"101110507","name":"蒲城","pinyin":"pucheng","province":"陕西"},{"code":"101110707","name":"平利","pinyin":"pingli","province":"陕西"},{"code":"101120105","name":"平阴","pinyin":"pingyin","province":"山东"},{"code":"101120208","name":"平度","pinyin":"pingdu","province":"山东"},{"code":"101120408","name":"平原","pinyin":"pingyuan","province":"山东"},{"code":"101120504","name":"蓬莱","pinyin":"penglai","province":"山东"},{"code":"101120908","name":"平邑","pinyin":"pingyi","province":"山东"},{"code":"101130302","name":"炮台","pinyin":"paotai","province":"新疆"},{"code":"101131302","name":"皮山","pinyin":"pishan","province":"新疆"},{"code":"101140207","name":"帕里","pinyin":"pali","province":"西藏"},{"code":"101140705","name":"普兰","pinyin":"pulan","province":"西藏"},{"code":"101150208","name":"平安","pinyin":"pingan","province":"青海"},{"code":"101160301","name":"平凉","pinyin":"pingliang","province":"甘肃"},{"code":"101161304","name":"平川","pinyin":"pingchuan","province":"甘肃"},{"code":"101170203","name":"平罗","pinyin":"pingluo","province":"宁夏"},{"code":"101170406","name":"彭阳","pinyin":"pengyang","province":"宁夏"},{"code":"101180501","name":"平顶山","pinyin":"pingdingshan","province":"河南"},{"code":"101181301","name":"濮阳","pinyin":"puyang","province":"河南"},{"code":"101181607","name":"平舆","pinyin":"pingyu","province":"河南"},{"code":"101190107","name":"浦口","pinyin":"pukou","province":"江苏"},{"code":"101190804","name":"沛县","pinyin":"peixian","province":"江苏"},{"code":"101190805","name":"邳州","pinyin":"pizhou","province":"江苏"},{"code":"101210305","name":"平湖","pinyin":"pinghu","province":"浙江"},{"code":"101210704","name":"平阳","pinyin":"pingyang","province":"浙江"},{"code":"101210902","name":"浦江","pinyin":"pujiang","province":"浙江"},{"code":"101210908","name":"磐安","pinyin":"panan","province":"浙江"},{"code":"101211105","name":"普陀","pinyin":"putuo","province":"浙江"},{"code":"101220403","name":"潘集","pinyin":"panji","province":"安徽"},{"code":"101230108","name":"平潭","pinyin":"pingtan","province":"福建"},{"code":"101230309","name":"屏南","pinyin":"pingnan","province":"福建"},{"code":"101230401","name":"莆田","pinyin":"putian","province":"福建"},{"code":"101230604","name":"平和","pinyin":"pinghe","province":"福建"},{"code":"101230906","name":"浦城","pinyin":"pucheng","province":"福建"},{"code":"101240208","name":"彭泽","pinyin":"pengze","province":"江西"},{"code":"101240213","name":"澎泽","pinyin":"pengze","province":"江西"},{"code":"101240302","name":"鄱阳","pinyin":"poyang","province":"江西"},{"code":"101240901","name":"萍乡","pinyin":"pingxiang","province":"江西"},{"code":"101251005","name":"平江","pinyin":"pingjiang","province":"湖南"},{"code":"101260302","name":"普定","pinyin":"puding","province":"贵州"},{"code":"101260304","name":"平坝","pinyin":"pingba","province":"贵州"},{"code":"101260409","name":"平塘","pinyin":"pingtang","province":"贵州"},{"code":"101260804","name":"盘县","pinyin":"panxian","province":"贵州"},{"code":"101260909","name":"普安","pinyin":"puan","province":"贵州"},{"code":"101270107","name":"郫县","pinyin":"pixian","province":"四川"},{"code":"101270109","name":"蒲江","pinyin":"pujiang","province":"四川"},{"code":"101270112","name":"彭州","pinyin":"pengzhou","province":"四川"},{"code":"101270201","name":"攀枝花","pinyin":"panzhihua","province":"四川"},{"code":"101270407","name":"平武","pinyin":"pingwu","province":"四川"},{"code":"101270504","name":"蓬安","pinyin":"pengan","province":"四川"},{"code":"101270702","name":"蓬溪","pinyin":"pengxi","province":"四川"},{"code":"101270904","name":"平昌","pinyin":"pingchang","province":"四川"},{"code":"101271111","name":"屏山","pinyin":"pingshan","province":"四川"},{"code":"101271503","name":"彭山","pinyin":"pengshan","province":"四川"},{"code":"101271609","name":"普格","pinyin":"puge","province":"四川"},{"code":"101280102","name":"番禺","pinyin":"panyu","province":"广东"},{"code":"101280407","name":"平远","pinyin":"pingyuan","province":"广东"},{"code":"101281008","name":"坡头","pinyin":"potou","province":"广东"},{"code":"101281107","name":"蓬江","pinyin":"pengjiang","province":"广东"},{"code":"101281903","name":"普宁","pinyin":"puning","province":"广东"},{"code":"101290310","name":"屏边","pinyin":"pingbian","province":"云南"},{"code":"101290901","name":"普洱","pinyin":"puer","province":"云南"},{"code":"101300204","name":"凭祥","pinyin":"pingxiang","province":"广西"},{"code":"101300512","name":"平乐","pinyin":"pingle","province":"广西"},{"code":"101300803","name":"平南","pinyin":"pingnan","province":"广西"},{"code":"101301007","name":"平果","pinyin":"pingguo","province":"广西"},{"code":"101301102","name":"浦北","pinyin":"pubei","province":"广西"},{"code":"101340205","name":"屏东","pinyin":"pingdong","province":"台湾"},{"code":"101020800","name":"青浦","pinyin":"qingpu","province":"上海"},{"code":"101041100","name":"黔江","pinyin":"qianjiang","province":"重庆"},{"code":"101043300","name":"綦江","pinyin":"qijiang","province":"重庆"},{"code":"101050201","name":"齐齐哈尔","pinyin":"qiqihaer","province":"黑龙江"},{"code":"101050508","name":"青冈","pinyin":"qinggang","province":"黑龙江"},{"code":"101050509","name":"庆安","pinyin":"qingan","province":"黑龙江"},{"code":"101051002","name":"七台河","pinyin":"qitaihe","province":"黑龙江"},{"code":"101060802","name":"乾安","pinyin":"qianan","province":"吉林"},{"code":"101060803","name":"前郭","pinyin":"qianguo","province":"吉林"},{"code":"101070403","name":"清原","pinyin":"qingyuan","province":"辽宁"},{"code":"101080105","name":"清水河","pinyin":"qingshuihe","province":"内蒙古"},{"code":"101080505","name":"青龙山","pinyin":"qinglongshan","province":"内蒙古"},{"code":"101090214","name":"曲阳","pinyin":"quyang","province":"河北"},{"code":"101090224","name":"清苑","pinyin":"qingyuan","province":"河北"},{"code":"101090507","name":"迁西","pinyin":"qianxi","province":"河北"},{"code":"101090511","name":"迁安","pinyin":"qianan","province":"河北"},{"code":"101090702","name":"青县","pinyin":"qingxian","province":"河北"},{"code":"101090914","name":"清河","pinyin":"qinghe","province":"河北"},{"code":"101091010","name":"邱县","pinyin":"qiuxian","province":"河北"},{"code":"101091015","name":"曲周","pinyin":"quzhou","province":"河北"},{"code":"101091101","name":"秦皇岛","pinyin":"qinhuangdao","province":"河北"},{"code":"101091102","name":"青龙","pinyin":"qinglong","province":"河北"},{"code":"101100102","name":"清徐","pinyin":"qingxu","province":"山西"},{"code":"101100409","name":"祁县","pinyin":"qixian","province":"山西"},{"code":"101100508","name":"沁县","pinyin":"qinxian","province":"山西"},{"code":"101100510","name":"沁源","pinyin":"qinyuan","province":"山西"},{"code":"101100602","name":"沁水","pinyin":"qinshui","province":"山西"},{"code":"101100702","name":"曲沃","pinyin":"quwo","province":"山西"},{"code":"101110207","name":"乾县","pinyin":"qianxian","province":"陕西"},{"code":"101110903","name":"千阳","pinyin":"qianyang","province":"陕西"},{"code":"101110905","name":"岐山","pinyin":"qishan","province":"陕西"},{"code":"101120201","name":"青岛","pinyin":"qingdao","province":"山东"},{"code":"101120405","name":"齐河","pinyin":"qihe","province":"山东"},{"code":"101120407","name":"庆云","pinyin":"qingyun","province":"山东"},{"code":"101120507","name":"栖霞","pinyin":"qixia","province":"山东"},{"code":"101120602","name":"青州","pinyin":"qingzhou","province":"山东"},{"code":"101120710","name":"曲阜","pinyin":"qufu","province":"山东"},{"code":"101130406","name":"奇台","pinyin":"qitai","province":"新疆"},{"code":"101130605","name":"且末","pinyin":"qiemo","province":"新疆"},{"code":"101131409","name":"青河","pinyin":"qinghe","province":"新疆"},{"code":"101140106","name":"曲水","pinyin":"qushui","province":"西藏"},{"code":"101140313","name":"琼结","pinyin":"qiongjie","province":"西藏"},{"code":"101140314","name":"曲松","pinyin":"qusong","province":"西藏"},{"code":"101150606","name":"曲麻莱","pinyin":"qumacai","province":"青海"},{"code":"101150803","name":"祁连","pinyin":"qilian","province":"青海"},{"code":"101160401","name":"庆阳","pinyin":"qingyang","province":"甘肃"},{"code":"101160409","name":"庆城","pinyin":"qingcheng","province":"甘肃"},{"code":"101160903","name":"清水","pinyin":"qingshui","province":"甘肃"},{"code":"101160904","name":"秦安","pinyin":"qinan","province":"甘肃"},{"code":"101170306","name":"青铜峡","pinyin":"qingtongxia","province":"宁夏"},{"code":"101180802","name":"杞县","pinyin":"qixian","province":"河南"},{"code":"101181104","name":"沁阳","pinyin":"qinyang","province":"河南"},{"code":"101181203","name":"淇县","pinyin":"qixian","province":"河南"},{"code":"101181304","name":"清丰","pinyin":"qingfeng","province":"河南"},{"code":"101181609","name":"确山","pinyin":"queshan","province":"河南"},{"code":"101190507","name":"启东","pinyin":"qidong","province":"江苏"},{"code":"101200507","name":"蕲春","pinyin":"qichun","province":"湖北"},{"code":"101201701","name":"潜江","pinyin":"qianjiang","province":"湖北"},{"code":"101210805","name":"青田","pinyin":"qingtian","province":"浙江"},{"code":"101210807","name":"庆元","pinyin":"qingyuan","province":"浙江"},{"code":"101211001","name":"衢州","pinyin":"quzhou","province":"浙江"},{"code":"101211006","name":"衢江","pinyin":"qujiang","province":"浙江"},{"code":"101220604","name":"潜山","pinyin":"qianshan","province":"安徽"},{"code":"101221004","name":"祁门","pinyin":"qimen","province":"安徽"},{"code":"101221105","name":"全椒","pinyin":"quanjiao","province":"安徽"},{"code":"101221703","name":"青阳","pinyin":"qingyang","province":"安徽"},{"code":"101230501","name":"泉州","pinyin":"quanzhou","province":"福建"},{"code":"101230803","name":"清流","pinyin":"qingliu","province":"福建"},{"code":"101240713","name":"全南","pinyin":"quannan","province":"江西"},{"code":"101250404","name":"祁东","pinyin":"qidong","province":"湖南"},{"code":"101251402","name":"祁阳","pinyin":"qiyang","province":"湖南"},{"code":"101260108","name":"清镇","pinyin":"qingzhen","province":"贵州"},{"code":"101260708","name":"黔西","pinyin":"qianxi","province":"贵州"},{"code":"101260902","name":"晴隆","pinyin":"qinglong","province":"贵州"},{"code":"101270113","name":"邛崃","pinyin":"qionglai","province":"四川"},{"code":"101270605","name":"渠县","pinyin":"quxian","province":"四川"},{"code":"101271402","name":"犍为","pinyin":"qianwei","province":"四川"},{"code":"101271506","name":"青神","pinyin":"qingshen","province":"四川"},{"code":"101272103","name":"青川","pinyin":"qingchuan","province":"四川"},{"code":"101280209","name":"曲江","pinyin":"qujiang","province":"广东"},{"code":"101281301","name":"清远","pinyin":"qingyuan","province":"广东"},{"code":"101281308","name":"清新","pinyin":"qingxin","province":"广东"},{"code":"101290401","name":"曲靖","pinyin":"qujing","province":"云南"},{"code":"101290606","name":"丘北","pinyin":"qiubei","province":"云南"},{"code":"101291006","name":"巧家","pinyin":"qiaojia","province":"云南"},{"code":"101300508","name":"全州","pinyin":"quanzhou","province":"广西"},{"code":"101301101","name":"钦州","pinyin":"qinzhou","province":"广西"},{"code":"101310208","name":"琼中","pinyin":"qiongzhong","province":"海南"},{"code":"101310211","name":"琼海","pinyin":"qionghai","province":"海南"},{"code":"101042700","name":"荣昌","pinyin":"rongchang","province":"重庆"},{"code":"101051304","name":"饶河","pinyin":"raohe","province":"黑龙江"},{"code":"101090207","name":"容城","pinyin":"rongcheng","province":"河北"},{"code":"101090712","name":"任丘","pinyin":"renqiu","province":"河北"},{"code":"101090805","name":"饶阳","pinyin":"raoyang","province":"河北"},{"code":"101090918","name":"任县","pinyin":"renxian","province":"河北"},{"code":"101100811","name":"芮城","pinyin":"ruicheng","province":"山西"},{"code":"101121303","name":"荣成","pinyin":"rongcheng","province":"山东"},{"code":"101121304","name":"乳山","pinyin":"rushan","province":"山东"},{"code":"101121501","name":"日照","pinyin":"rizhao","province":"山东"},{"code":"101130604","name":"若羌","pinyin":"ruoqiang","province":"新疆"},{"code":"101140201","name":"日喀则","pinyin":"rikaze","province":"西藏"},{"code":"101140220","name":"仁布","pinyin":"renbu","province":"西藏"},{"code":"101140708","name":"日土","pinyin":"ritu","province":"西藏"},{"code":"101180504","name":"汝州","pinyin":"ruzhou","province":"河南"},{"code":"101180910","name":"汝阳","pinyin":"ruyang","province":"河南"},{"code":"101181605","name":"汝南","pinyin":"runan","province":"河南"},{"code":"101190503","name":"如皋","pinyin":"rugao","province":"江苏"},{"code":"101190504","name":"如东","pinyin":"rudong","province":"江苏"},{"code":"101210705","name":"瑞安","pinyin":"ruian","province":"浙江"},{"code":"101240202","name":"瑞昌","pinyin":"ruichang","province":"江西"},{"code":"101240709","name":"瑞金","pinyin":"ruijin","province":"江西"},{"code":"101250508","name":"汝城","pinyin":"rucheng","province":"湖南"},{"code":"101260203","name":"仁怀","pinyin":"renhuai","province":"贵州"},{"code":"101260516","name":"榕江","pinyin":"rongjiang","province":"贵州"},{"code":"101270202","name":"仁和","pinyin":"renhe","province":"四川"},{"code":"101270303","name":"荣县","pinyin":"rongxian","province":"四川"},{"code":"101271502","name":"仁寿","pinyin":"renshou","province":"四川"},{"code":"101271911","name":"壤塘","pinyin":"rangtang","province":"四川"},{"code":"101280202","name":"乳源","pinyin":"ruyuan","province":"广东"},{"code":"101280206","name":"仁化","pinyin":"renhua","province":"广东"},{"code":"101281502","name":"饶平","pinyin":"raoping","province":"广东"},{"code":"101291506","name":"瑞丽","pinyin":"ruili","province":"云南"},{"code":"101300306","name":"融安","pinyin":"rongan","province":"广西"},{"code":"101300307","name":"融水","pinyin":"rongshui","province":"广西"},{"code":"101300904","name":"容县","pinyin":"rongxian","province":"广西"},{"code":"101010400","name":"顺义","pinyin":"shunyi","province":"北京"},{"code":"101011000","name":"石景山","pinyin":"shijingshan","province":"北京"},{"code":"101020100","name":"上海","pinyin":"shanghai","province":"上海"},{"code":"101020900","name":"松江","pinyin":"songjiang","province":"上海"},{"code":"101042500","name":"石柱","pinyin":"shizhu","province":"重庆"},{"code":"101050102","name":"双城","pinyin":"shuangcheng","province":"黑龙江"},{"code":"101050111","name":"尚志","pinyin":"shangzhi","province":"黑龙江"},{"code":"101050305","name":"绥芬河","pinyin":"suifenhe","province":"黑龙江"},{"code":"101050501","name":"绥化","pinyin":"suihua","province":"黑龙江"},{"code":"101050510","name":"绥棱","pinyin":"suiling","province":"黑龙江"},{"code":"101050603","name":"孙吴","pinyin":"sunwu","province":"黑龙江"},{"code":"101051202","name":"绥滨","pinyin":"suibin","province":"黑龙江"},{"code":"101051301","name":"双鸭山","pinyin":"shuangyashan","province":"黑龙江"},{"code":"101060106","name":"双阳","pinyin":"shuangyang","province":"吉林"},{"code":"101060202","name":"舒兰","pinyin":"shulan","province":"吉林"},{"code":"101060401","name":"四平","pinyin":"siping","province":"吉林"},{"code":"101060402","name":"双辽","pinyin":"shuangliao","province":"吉林"},{"code":"101060801","name":"松原","pinyin":"songyuan","province":"吉林"},{"code":"101070101","name":"沈阳","pinyin":"shenyang","province":"辽宁"},{"code":"101071403","name":"绥中","pinyin":"suizhong","province":"辽宁"},{"code":"101080404","name":"商都","pinyin":"shangdu","province":"内蒙古"},{"code":"101080411","name":"四子王旗","pinyin":"siziwangqi","province":"内蒙古"},{"code":"101080502","name":"舍伯吐","pinyin":"shebotu","province":"内蒙古"},{"code":"101080906","name":"苏左旗","pinyin":"suzuoqi","province":"内蒙古"},{"code":"101080907","name":"苏右旗","pinyin":"suyouqi","province":"内蒙古"},{"code":"101081106","name":"索伦","pinyin":"suolun","province":"内蒙古"},{"code":"101090101","name":"石家庄","pinyin":"shijiazhuang","province":"河北"},{"code":"101090108","name":"深泽","pinyin":"shenze","province":"河北"},{"code":"101090216","name":"顺平","pinyin":"shunping","province":"河北"},{"code":"101090306","name":"尚义","pinyin":"shangyi","province":"河北"},{"code":"101090609","name":"三河","pinyin":"sanhe","province":"河北"},{"code":"101090706","name":"肃宁","pinyin":"suning","province":"河北"},{"code":"101090811","name":"深州","pinyin":"shenzhou","province":"河北"},{"code":"101090917","name":"沙河","pinyin":"shahe","province":"河北"},{"code":"101091006","name":"涉县","pinyin":"shexian","province":"河北"},{"code":"101100407","name":"寿阳","pinyin":"shouyang","province":"山西"},{"code":"101100901","name":"朔州","pinyin":"shuozhou","province":"山西"},{"code":"101100903","name":"山阴","pinyin":"shanyin","province":"山西"},{"code":"101101006","name":"神池","pinyin":"shenchi","province":"山西"},{"code":"101101106","name":"石楼","pinyin":"shilou","province":"山西"},{"code":"101110201","name":"三原","pinyin":"sanyuan","province":"陕西"},{"code":"101110403","name":"神木","pinyin":"shenmu","province":"陕西"},{"code":"101110410","name":"绥德","pinyin":"suide","province":"陕西"},{"code":"101110601","name":"商洛","pinyin":"shangluo","province":"陕西"},{"code":"101110604","name":"商州","pinyin":"shangxian","province":"陕西"},{"code":"101110607","name":"商南","pinyin":"shangnan","province":"陕西"},{"code":"101110608","name":"山阳","pinyin":"shanyang","province":"陕西"},{"code":"101110703","name":"石泉","pinyin":"shiquan","province":"陕西"},{"code":"101120103","name":"商河","pinyin":"shanghe","province":"山东"},{"code":"101120603","name":"寿光","pinyin":"shouguang","province":"山东"},{"code":"101120708","name":"泗水","pinyin":"sishui","province":"山东"},{"code":"101121009","name":"单县","pinyin":"shanxian","province":"山东"},{"code":"101121306","name":"石岛","pinyin":"shidao","province":"山东"},{"code":"101121709","name":"莘县","pinyin":"shenxian","province":"山东"},{"code":"101130301","name":"石河子","pinyin":"shihezi","province":"新疆"},{"code":"101130504","name":"鄯善","pinyin":"shanshan","province":"新疆"},{"code":"101130608","name":"和硕","pinyin":"shuo","province":"新疆"},{"code":"101130806","name":"沙雅","pinyin":"shaya","province":"新疆"},{"code":"101130905","name":"莎车","pinyin":"shache","province":"新疆"},{"code":"101130911","name":"疏附","pinyin":"shufu","province":"新疆"},{"code":"101130912","name":"疏勒","pinyin":"shule","province":"新疆"},{"code":"101131107","name":"沙湾","pinyin":"shawan","province":"新疆"},{"code":"101140209","name":"萨嘎","pinyin":"saga","province":"西藏"},{"code":"101140213","name":"萨迦","pinyin":"sajia","province":"西藏"},{"code":"101140301","name":"山南","pinyin":"shannan","province":"西藏"},{"code":"101140310","name":"桑日","pinyin":"sangri","province":"西藏"},{"code":"101140606","name":"索县","pinyin":"suoxian","province":"西藏"},{"code":"101140703","name":"申扎","pinyin":"shenzha","province":"西藏"},{"code":"101140704","name":"狮泉河","pinyin":"shiquanhe","province":"西藏"},{"code":"101160702","name":"肃南","pinyin":"sunan","province":"甘肃"},{"code":"101160706","name":"山丹","pinyin":"shandan","province":"甘肃"},{"code":"101160806","name":"肃北","pinyin":"subei","province":"甘肃"},{"code":"101170201","name":"石嘴山","pinyin":"shizuishan","province":"宁夏"},{"code":"101180108","name":"上街","pinyin":"shangjie","province":"河南"},{"code":"101180508","name":"石龙","pinyin":"shilong","province":"河南"},{"code":"101180609","name":"商城","pinyin":"shangcheng","province":"河南"},{"code":"101180704","name":"社旗","pinyin":"sheqi","province":"河南"},{"code":"101180907","name":"嵩县","pinyin":"songxian","province":"河南"},{"code":"101181001","name":"商丘","pinyin":"shangqiu","province":"河南"},{"code":"101181003","name":"睢县","pinyin":"suixian","province":"河南"},{"code":"101181406","name":"商水","pinyin":"shangshui","province":"河南"},{"code":"101181410","name":"沈丘","pinyin":"shenqiu","province":"河南"},{"code":"101181603","name":"遂平","pinyin":"suiping","province":"河南"},{"code":"101181604","name":"上蔡","pinyin":"shangcai","province":"河南"},{"code":"101181701","name":"三门峡","pinyin":"sanmenxia","province":"河南"},{"code":"101181706","name":"陕县","pinyin":"shanxian","province":"河南"},{"code":"101190401","name":"苏州","pinyin":"suzhou","province":"江苏"},{"code":"101190705","name":"射阳","pinyin":"sheyang","province":"江苏"},{"code":"101190806","name":"睢宁","pinyin":"suining","province":"江苏"},{"code":"101191301","name":"宿迁","pinyin":"suqian","province":"江苏"},{"code":"101191302","name":"沭阳","pinyin":"shuyang","province":"江苏"},{"code":"101191303","name":"泗阳","pinyin":"siyang","province":"江苏"},{"code":"101191304","name":"泗洪","pinyin":"sihong","province":"江苏"},{"code":"101191305","name":"宿豫","pinyin":"suyu","province":"江苏"},{"code":"101200804","name":"石首","pinyin":"shishou","province":"湖北"},{"code":"101200807","name":"松滋","pinyin":"songzi","province":"湖北"},{"code":"101200911","name":"三峡","pinyin":"sanxia","province":"湖北"},{"code":"101201101","name":"十堰","pinyin":"shiyan","province":"湖北"},{"code":"101201201","name":"神农架","pinyin":"shennongjia","province":"湖北"},{"code":"101201301","name":"随州","pinyin":"suizhou","province":"湖北"},{"code":"101201405","name":"沙洋","pinyin":"shayang","province":"湖北"},{"code":"101201406","name":"沙市","pinyin":"shashi","province":"湖北"},{"code":"101210501","name":"绍兴","pinyin":"shaoxing","province":"浙江"},{"code":"101210503","name":"上虞","pinyin":"shangyu","province":"浙江"},{"code":"101210505","name":"嵊州","pinyin":"shengzhou","province":"浙江"},{"code":"101210604","name":"三门","pinyin":"sanmen","province":"浙江"},{"code":"101210802","name":"遂昌","pinyin":"suichang","province":"浙江"},{"code":"101210808","name":"松阳","pinyin":"songyang","province":"浙江"},{"code":"101211102","name":"嵊泗","pinyin":"shengsi","province":"浙江"},{"code":"101220606","name":"宿松","pinyin":"susong","province":"安徽"},{"code":"101220701","name":"宿州","pinyin":"suzhou","province":"安徽"},{"code":"101220704","name":"泗县","pinyin":"sixian","province":"安徽"},{"code":"101221006","name":"歙县","pinyin":"shexian","province":"安徽"},{"code":"101221202","name":"濉溪","pinyin":"suixi","province":"安徽"},{"code":"101221503","name":"寿县","pinyin":"shouxian","province":"安徽"},{"code":"101221507","name":"舒城","pinyin":"shucheng","province":"安徽"},{"code":"101221705","name":"石台","pinyin":"shitai","province":"安徽"},{"code":"101230304","name":"寿宁","pinyin":"shouning","province":"福建"},{"code":"101230510","name":"石狮","pinyin":"shishi","province":"福建"},{"code":"101230705","name":"上杭","pinyin":"shanghang","province":"福建"},{"code":"101230801","name":"三明","pinyin":"sanming","province":"福建"},{"code":"101230808","name":"沙县","pinyin":"shaxian","province":"福建"},{"code":"101230902","name":"顺昌","pinyin":"shunchang","province":"福建"},{"code":"101230904","name":"邵武","pinyin":"shaowu","province":"福建"},{"code":"101230908","name":"松溪","pinyin":"songxi","province":"福建"},{"code":"101240301","name":"上饶","pinyin":"shangrao","province":"江西"},{"code":"101240308","name":"上饶县","pinyin":"shangraoxian","province":"江西"},{"code":"101240505","name":"上高","pinyin":"shanggao","province":"江西"},{"code":"101240610","name":"遂川","pinyin":"suichuan","province":"江西"},{"code":"101240703","name":"上犹","pinyin":"shangyou","province":"江西"},{"code":"101240708","name":"石城","pinyin":"shicheng","province":"江西"},{"code":"101240903","name":"上栗","pinyin":"shangli","province":"江西"},{"code":"101250202","name":"韶山","pinyin":"shaoshan","province":"湖南"},{"code":"101250512","name":"苏仙","pinyin":"suxian","province":"湖南"},{"code":"101250607","name":"石门","pinyin":"shimen","province":"湖南"},{"code":"101250802","name":"双峰","pinyin":"shuangfeng","province":"湖南"},{"code":"101250901","name":"邵阳","pinyin":"shaoyang","province":"湖南"},{"code":"101250905","name":"邵东","pinyin":"shaodong","province":"湖南"},{"code":"101250906","name":"绥宁","pinyin":"suining","province":"湖南"},{"code":"101250910","name":"邵阳县","pinyin":"shaoyangxian","province":"湖南"},{"code":"101251102","name":"桑植","pinyin":"sangzhi","province":"湖南"},{"code":"101251404","name":"双牌","pinyin":"shuangpai","province":"湖南"},{"code":"101260204","name":"绥阳","pinyin":"suiyang","province":"贵州"},{"code":"101260411","name":"三都","pinyin":"sandu","province":"贵州"},{"code":"101260503","name":"施秉","pinyin":"shibing","province":"贵州"},{"code":"101260509","name":"三穗","pinyin":"sansui","province":"贵州"},{"code":"101260605","name":"思南","pinyin":"sinan","province":"贵州"},{"code":"101260608","name":"石阡","pinyin":"shiqian","province":"贵州"},{"code":"101260611","name":"松桃","pinyin":"songtao","province":"贵州"},{"code":"101260801","name":"水城","pinyin":"shuicheng","province":"贵州"},{"code":"101270106","name":"双流","pinyin":"shuangliu","province":"四川"},{"code":"101270402","name":"三台","pinyin":"santai","province":"四川"},{"code":"101270701","name":"遂宁","pinyin":"suining","province":"四川"},{"code":"101270703","name":"射洪","pinyin":"shehong","province":"四川"},{"code":"101271705","name":"石棉","pinyin":"shimian","province":"四川"},{"code":"101271812","name":"石渠","pinyin":"shiqu","province":"四川"},{"code":"101271813","name":"色达","pinyin":"seda","province":"四川"},{"code":"101271905","name":"松潘","pinyin":"songfan","province":"四川"},{"code":"101272004","name":"什邡","pinyin":"shifang","province":"四川"},{"code":"101280201","name":"韶关","pinyin":"shaoguan","province":"广东"},{"code":"101280203","name":"始兴","pinyin":"shixing","province":"广东"},{"code":"101280501","name":"汕头","pinyin":"shantou","province":"广东"},{"code":"101280601","name":"深圳","pinyin":"shenzhen","province":"广东"},{"code":"101280801","name":"顺德","pinyin":"shunde","province":"广东"},{"code":"101280802","name":"三水","pinyin":"sanshui","province":"广东"},{"code":"101280903","name":"四会","pinyin":"sihui","province":"广东"},{"code":"101281007","name":"遂溪","pinyin":"suixi","province":"广东"},{"code":"101282101","name":"汕尾","pinyin":"shanwei","province":"广东"},{"code":"101290107","name":"石林","pinyin":"shilin","province":"云南"},{"code":"101290110","name":"嵩明","pinyin":"songming","province":"云南"},{"code":"101290302","name":"石屏","pinyin":"shiping","province":"云南"},{"code":"101290406","name":"师宗","pinyin":"shizong","province":"云南"},{"code":"101290504","name":"施甸","pinyin":"sidian","province":"云南"},{"code":"101290809","name":"双柏","pinyin":"shuangbai","province":"云南"},{"code":"101291007","name":"绥江","pinyin":"suijiang","province":"云南"},{"code":"101291011","name":"水富","pinyin":"shuifu","province":"云南"},{"code":"101291104","name":"双江","pinyin":"shuangjiang","province":"云南"},{"code":"101300107","name":"上林","pinyin":"shanglin","province":"广西"},{"code":"101300308","name":"三江","pinyin":"sanjiang","province":"广西"},{"code":"101301402","name":"上思","pinyin":"shangsi","province":"广西"},{"code":"101310201","name":"三亚","pinyin":"sanya","province":"海南"},{"code":"101010600","name":"通州","pinyin":"tongzhou","province":"北京"},{"code":"101030100","name":"天津","pinyin":"tianjin","province":"天津"},{"code":"101031100","name":"塘沽","pinyin":"tanggu","province":"天津"},{"code":"101042100","name":"潼南","pinyin":"tongnan","province":"重庆"},{"code":"101042800","name":"铜梁","pinyin":"tongliang","province":"重庆"},{"code":"101050108","name":"通河","pinyin":"tonghe","province":"黑龙江"},{"code":"101050210","name":"泰来","pinyin":"tailai","province":"黑龙江"},{"code":"101050402","name":"汤原","pinyin":"tangyuan","province":"黑龙江"},{"code":"101050406","name":"同江","pinyin":"tongjiang","province":"黑龙江"},{"code":"101050702","name":"塔河","pinyin":"tahe","province":"黑龙江"},{"code":"101050804","name":"铁力","pinyin":"tieli","province":"黑龙江"},{"code":"101060309","name":"图们","pinyin":"tumen","province":"吉林"},{"code":"101060501","name":"通化","pinyin":"tonghua","province":"吉林"},{"code":"101060506","name":"通化县","pinyin":"tonghuaxian","province":"吉林"},{"code":"101060602","name":"洮南","pinyin":"taonan","province":"吉林"},{"code":"101060605","name":"通榆","pinyin":"tongyu","province":"吉林"},{"code":"101070302","name":"台安","pinyin":"taian","province":"辽宁"},{"code":"101071101","name":"铁岭","pinyin":"tieling","province":"辽宁"},{"code":"101071105","name":"调兵山","pinyin":"tiefa","province":"辽宁"},{"code":"101080102","name":"土左旗","pinyin":"tuzuoqi","province":"内蒙古"},{"code":"101080103","name":"托县","pinyin":"tuoxian","province":"内蒙古"},{"code":"101080204","name":"土右旗","pinyin":"tuyouqi","province":"内蒙古"},{"code":"101080501","name":"通辽","pinyin":"tongliao","province":"内蒙古"},{"code":"101080911","name":"太仆寺","pinyin":"taibusiqi","province":"内蒙古"},{"code":"101081016","name":"图里河","pinyin":"tulihe","province":"内蒙古"},{"code":"101081107","name":"突泉","pinyin":"tuquan","province":"内蒙古"},{"code":"101081207","name":"头道湖","pinyin":"toudaohu","province":"内蒙古"},{"code":"101090205","name":"唐县","pinyin":"tangxian","province":"河北"},{"code":"101090501","name":"唐山","pinyin":"tangshan","province":"河北"},{"code":"101090509","name":"唐海","pinyin":"tanghai","province":"河北"},{"code":"101100101","name":"太原","pinyin":"taiyuan","province":"山西"},{"code":"101100204","name":"天镇","pinyin":"tianzhen","province":"山西"},{"code":"101100408","name":"太谷","pinyin":"taigu","province":"山西"},{"code":"101100503","name":"屯留","pinyin":"tunliu","province":"山西"},{"code":"101110503","name":"潼关","pinyin":"tongguan","province":"陕西"},{"code":"101110909","name":"太白","pinyin":"taibai","province":"陕西"},{"code":"101111001","name":"铜川","pinyin":"tongchuan","province":"陕西"},{"code":"101120107","name":"天桥","pinyin":"tianqiao","province":"山东"},{"code":"101120801","name":"泰安","pinyin":"taian","province":"山东"},{"code":"101120906","name":"郯城","pinyin":"tancheng","province":"山东"},{"code":"101121404","name":"台儿庄","pinyin":"taierzhuang","province":"山东"},{"code":"101121405","name":"滕州","pinyin":"tengzhou","province":"山东"},{"code":"101130109","name":"天池","pinyin":"tianchi","province":"新疆"},{"code":"101130501","name":"吐鲁番","pinyin":"tulufan","province":"新疆"},{"code":"101130502","name":"托克逊","pinyin":"tuokexun","province":"新疆"},{"code":"101130611","name":"铁干里克","pinyin":"tieganlike","province":"新疆"},{"code":"101130613","name":"塔中","pinyin":"tazhong","province":"新疆"},{"code":"101130903","name":"塔什库尔干","pinyin":"tashikuergan","province":"新疆"},{"code":"101131008","name":"特克斯","pinyin":"tekesi","province":"新疆"},{"code":"101131101","name":"塔城","pinyin":"tacheng","province":"新疆"},{"code":"101131105","name":"托里","pinyin":"tuoli","province":"新疆"},{"code":"101150305","name":"同仁","pinyin":"tongren","province":"青海"},{"code":"101150408","name":"同德","pinyin":"tongde","province":"青海"},{"code":"101150708","name":"天峻","pinyin":"tianjun","province":"青海"},{"code":"101160202","name":"通渭","pinyin":"tongwei","province":"甘肃"},{"code":"101160505","name":"天祝","pinyin":"tianzhu","province":"甘肃"},{"code":"101160901","name":"天水","pinyin":"tianshui","province":"甘肃"},{"code":"101170204","name":"陶乐","pinyin":"taole","province":"宁夏"},{"code":"101170302","name":"同心","pinyin":"tongxin","province":"宁夏"},{"code":"101180202","name":"汤阴","pinyin":"tangyin","province":"河南"},{"code":"101180710","name":"唐河","pinyin":"tanghe","province":"河南"},{"code":"101180712","name":"桐柏","pinyin":"tongbai","province":"河南"},{"code":"101180804","name":"通许","pinyin":"tongxu","province":"河南"},{"code":"101181302","name":"台前","pinyin":"taiqian","province":"河南"},{"code":"101181403","name":"太康","pinyin":"taikang","province":"河南"},{"code":"101190408","name":"太仓","pinyin":"taicang","province":"江苏"},{"code":"101190509","name":"通州","pinyin":"tongzhou","province":"江苏"},{"code":"101190802","name":"铜山","pinyin":"tongshan","province":"江苏"},{"code":"101191201","name":"泰州","pinyin":"taizhou","province":"江苏"},{"code":"101191203","name":"泰兴","pinyin":"taixing","province":"江苏"},{"code":"101200510","name":"团风","pinyin":"tuanfeng","province":"湖北"},{"code":"101200604","name":"铁山","pinyin":"tieshan","province":"湖北"},{"code":"101200705","name":"通城","pinyin":"tongcheng","province":"湖北"},{"code":"101200706","name":"通山","pinyin":"tongshan","province":"湖北"},{"code":"101201501","name":"天门","pinyin":"tianmen","province":"湖北"},{"code":"101210103","name":"桐庐","pinyin":"tonglu","province":"浙江"},{"code":"101210304","name":"桐乡","pinyin":"tongxiang","province":"浙江"},{"code":"101210601","name":"台州","pinyin":"taizhou","province":"浙江"},{"code":"101210605","name":"天台","pinyin":"tiantai","province":"浙江"},{"code":"101210702","name":"泰顺","pinyin":"taishun","province":"浙江"},{"code":"101220603","name":"太湖","pinyin":"taihu","province":"安徽"},{"code":"101220609","name":"桐城","pinyin":"tongcheng","province":"安徽"},{"code":"101220806","name":"太和","pinyin":"taihe","province":"安徽"},{"code":"101221003","name":"屯溪","pinyin":"tunxi","province":"安徽"},{"code":"101221107","name":"天长","pinyin":"tianchang","province":"安徽"},{"code":"101221301","name":"铜陵","pinyin":"tongling","province":"安徽"},{"code":"101230202","name":"同安","pinyin":"tongan","province":"福建"},{"code":"101230804","name":"泰宁","pinyin":"taining","province":"福建"},{"code":"101240502","name":"铜鼓","pinyin":"tonggu","province":"江西"},{"code":"101240611","name":"泰和","pinyin":"taihe","province":"江西"},{"code":"101250603","name":"桃源","pinyin":"taoyuan","province":"湖南"},{"code":"101250703","name":"桃江","pinyin":"taojiang","province":"湖南"},{"code":"101251207","name":"通道","pinyin":"tongdao","province":"湖南"},{"code":"101260207","name":"桐梓","pinyin":"tongzi","province":"贵州"},{"code":"101260510","name":"台江","pinyin":"taijiang","province":"贵州"},{"code":"101260514","name":"天柱","pinyin":"tianzhu","province":"贵州"},{"code":"101260601","name":"铜仁","pinyin":"tongren","province":"贵州"},{"code":"101270607","name":"通川","pinyin":"tongchuan","province":"四川"},{"code":"101270902","name":"通江","pinyin":"tongjiang","province":"四川"},{"code":"101271706","name":"天全","pinyin":"tianquan","province":"四川"},{"code":"101281106","name":"台山","pinyin":"taishan","province":"广东"},{"code":"101290113","name":"太华山","pinyin":"taihuashan","province":"云南"},{"code":"101290506","name":"腾冲","pinyin":"tengchong","province":"云南"},{"code":"101290704","name":"通海","pinyin":"tonghai","province":"云南"},{"code":"101300202","name":"天等","pinyin":"tiandeng","province":"广西"},{"code":"101300602","name":"藤县","pinyin":"tengxian","province":"广西"},{"code":"101301003","name":"田阳","pinyin":"tianyang","province":"广西"},{"code":"101301006","name":"田东","pinyin":"tiandong","province":"广西"},{"code":"101301012","name":"田林","pinyin":"tianlin","province":"广西"},{"code":"101301202","name":"天峨","pinyin":"tiane","province":"广西"},{"code":"101310210","name":"屯昌","pinyin":"tunchang","province":"海南"},{"code":"101340101","name":"台北","pinyin":"taibeixian","province":"台湾"},{"code":"101340102","name":"桃园","pinyin":"taoyuan","province":"台湾"},{"code":"101340203","name":"台南","pinyin":"tainan","province":"台湾"},{"code":"101340204","name":"台东","pinyin":"taidong","province":"台湾"},{"code":"101340401","name":"台中","pinyin":"taizhong","province":"台湾"},{"code":"101030200","name":"武清","pinyin":"wuqing","province":"天津"},{"code":"101040600","name":"万盛","pinyin":"wansheng","province":"重庆"},{"code":"101041300","name":"万州","pinyin":"wanzhou","province":"重庆"},{"code":"101041800","name":"巫溪","pinyin":"wuxi","province":"重庆"},{"code":"101042000","name":"巫山","pinyin":"wushan","province":"重庆"},{"code":"101043100","name":"武隆","pinyin":"wulong","province":"重庆"},{"code":"101050112","name":"五常","pinyin":"wuchang","province":"黑龙江"},{"code":"101050506","name":"望奎","pinyin":"wangkui","province":"黑龙江"},{"code":"101050605","name":"五大连池","pinyin":"wudalianchi","province":"黑龙江"},{"code":"101050802","name":"乌伊岭","pinyin":"wuyiling","province":"黑龙江"},{"code":"101050803","name":"五营","pinyin":"wuying","province":"黑龙江"},{"code":"101060304","name":"汪清","pinyin":"wangqing","province":"吉林"},{"code":"101070202","name":"瓦房店","pinyin":"wafangdian","province":"辽宁"},{"code":"101080107","name":"武川","pinyin":"wuchuan","province":"内蒙古"},{"code":"101080301","name":"乌海","pinyin":"wuhai","province":"内蒙古"},{"code":"101080609","name":"翁牛特","pinyin":"wengniute","province":"内蒙古"},{"code":"101080710","name":"乌审旗","pinyin":"wushenqi","province":"内蒙古"},{"code":"101080712","name":"乌审召","pinyin":"wushenzhao","province":"内蒙古"},{"code":"101080802","name":"五原","pinyin":"wuyuan","province":"内蒙古"},{"code":"101080804","name":"乌前旗","pinyin":"wuqianqi","province":"内蒙古"},{"code":"101080806","name":"乌中旗","pinyin":"wuzhongqi","province":"内蒙古"},{"code":"101080807","name":"乌后旗","pinyin":"wuhouqi","province":"内蒙古"},{"code":"101080917","name":"乌拉盖","pinyin":"wulagai","province":"内蒙古"},{"code":"101081101","name":"乌兰浩特","pinyin":"wulanhaote","province":"内蒙古"},{"code":"101081211","name":"乌斯泰","pinyin":"wusitai","province":"内蒙古"},{"code":"101090110","name":"无极","pinyin":"wuji","province":"河北"},{"code":"101090210","name":"望都","pinyin":"wangdu","province":"河北"},{"code":"101090310","name":"万全","pinyin":"wanquan","province":"河北"},{"code":"101090410","name":"围场","pinyin":"weichang","province":"河北"},{"code":"101090606","name":"文安","pinyin":"wenan","province":"河北"},{"code":"101090708","name":"吴桥","pinyin":"wuqiao","province":"河北"},{"code":"101090803","name":"武邑","pinyin":"wuyi","province":"河北"},{"code":"101090804","name":"武强","pinyin":"wuqiang","province":"河北"},{"code":"101090913","name":"威县","pinyin":"weixian","province":"河北"},{"code":"101091014","name":"魏县","pinyin":"weixian","province":"河北"},{"code":"101091016","name":"武安","pinyin":"wuan","province":"河北"},{"code":"101100507","name":"武乡","pinyin":"wuxiang","province":"山西"},{"code":"101100804","name":"万荣","pinyin":"wanrong","province":"山西"},{"code":"101100808","name":"闻喜","pinyin":"wenxi","province":"山西"},{"code":"101101003","name":"五台县","pinyin":"wutaixian","province":"山西"},{"code":"101101010","name":"五台山","pinyin":"wutaishan","province":"山西"},{"code":"101101014","name":"五寨","pinyin":"wuzhai","province":"山西"},{"code":"101101112","name":"文水","pinyin":"wenshui","province":"山西"},{"code":"101110206","name":"武功","pinyin":"wugong","province":"陕西"},{"code":"101110312","name":"吴起","pinyin":"wuqi","province":"陕西"},{"code":"101110411","name":"吴堡","pinyin":"wubu","province":"陕西"},{"code":"101110501","name":"渭南","pinyin":"weinan","province":"陕西"},{"code":"101120402","name":"武城","pinyin":"wucheng","province":"山东"},{"code":"101120601","name":"潍坊","pinyin":"weifang","province":"山东"},{"code":"101120703","name":"微山","pinyin":"weishan","province":"山东"},{"code":"101120707","name":"汶上","pinyin":"wenshang","province":"山东"},{"code":"101121103","name":"无棣","pinyin":"wudi","province":"山东"},{"code":"101121301","name":"威海","pinyin":"weihai","province":"山东"},{"code":"101121302","name":"文登","pinyin":"wendeng","province":"山东"},{"code":"101121502","name":"五莲","pinyin":"wulian","province":"山东"},{"code":"101130101","name":"乌鲁木齐","pinyin":"wulumuqi","province":"新疆"},{"code":"101130108","name":"乌鲁木齐牧试站","pinyin":"wulumuqimushizhan","province":"新疆"},{"code":"101130202","name":"乌尔禾","pinyin":"wuerhe","province":"新疆"},{"code":"101130603","name":"尉犁","pinyin":"weili","province":"新疆"},{"code":"101130802","name":"乌什","pinyin":"wushi","province":"新疆"},{"code":"101130803","name":"温宿","pinyin":"wensu","province":"新疆"},{"code":"101131106","name":"乌苏","pinyin":"wusu","province":"新疆"},{"code":"101131502","name":"乌恰","pinyin":"wuqia","province":"新疆"},{"code":"101131602","name":"温泉","pinyin":"wenquan","province":"新疆"},{"code":"101150709","name":"乌兰","pinyin":"wulan","province":"青海"},{"code":"101160204","name":"渭源","pinyin":"weiyuan","province":"甘肃"},{"code":"101160501","name":"武威","pinyin":"wuwei","province":"甘肃"},{"code":"101160906","name":"武山","pinyin":"wushan","province":"甘肃"},{"code":"101161001","name":"武都","pinyin":"wudu","province":"甘肃"},{"code":"101161003","name":"文县","pinyin":"wenxian","province":"甘肃"},{"code":"101170301","name":"吴忠","pinyin":"wuzhong","province":"宁夏"},{"code":"101180305","name":"卫辉","pinyin":"weihui","province":"河南"},{"code":"101180506","name":"舞钢","pinyin":"wugang","province":"河南"},{"code":"101180803","name":"尉氏","pinyin":"weishi","province":"河南"},{"code":"101181103","name":"武陟","pinyin":"wuzhi","province":"河南"},{"code":"101181107","name":"温县","pinyin":"wenxian","province":"河南"},{"code":"101181503","name":"舞阳","pinyin":"wuyang","province":"河南"},{"code":"101190201","name":"无锡","pinyin":"wuxi","province":"江苏"},{"code":"101190405","name":"吴中","pinyin":"wuzhong","province":"江苏"},{"code":"101190407","name":"吴江","pinyin":"wujiang","province":"江苏"},{"code":"101191104","name":"武进","pinyin":"wujin","province":"江苏"},{"code":"101200101","name":"武汉","pinyin":"wuhan","province":"湖北"},{"code":"101200509","name":"武穴","pinyin":"wuxue","province":"湖北"},{"code":"101200906","name":"五峰","pinyin":"wufeng","province":"湖北"},{"code":"101210607","name":"温岭","pinyin":"wenling","province":"浙江"},{"code":"101210701","name":"温州","pinyin":"wenzhou","province":"浙江"},{"code":"101210703","name":"文成","pinyin":"wencheng","province":"浙江"},{"code":"101210906","name":"武义","pinyin":"wuyi","province":"浙江"},{"code":"101220204","name":"五河","pinyin":"wuhe","province":"安徽"},{"code":"101220301","name":"芜湖","pinyin":"wuhu","province":"安徽"},{"code":"101220303","name":"芜湖县","pinyin":"wuhuxian","province":"安徽"},{"code":"101220607","name":"望江","pinyin":"wangjiang","province":"安徽"},{"code":"101221603","name":"无为","pinyin":"wuwei","province":"安徽"},{"code":"101230704","name":"武平","pinyin":"wuping","province":"福建"},{"code":"101230905","name":"武夷山","pinyin":"wuyishan","province":"福建"},{"code":"101240204","name":"武宁","pinyin":"wuning","province":"江西"},{"code":"101240303","name":"婺源","pinyin":"wuyuan","province":"江西"},{"code":"101240306","name":"万年","pinyin":"wannian","province":"江西"},{"code":"101240504","name":"万载","pinyin":"wanzai","province":"江西"},{"code":"101240609","name":"万安","pinyin":"wanan","province":"江西"},{"code":"101250105","name":"望城","pinyin":"wangcheng","province":"湖南"},{"code":"101250908","name":"武冈","pinyin":"wugang","province":"湖南"},{"code":"101251104","name":"武陵源","pinyin":"wulingyuan","province":"湖南"},{"code":"101260104","name":"乌当","pinyin":"wudang","province":"贵州"},{"code":"101260212","name":"务川","pinyin":"wuchuan","province":"贵州"},{"code":"101260403","name":"瓮安","pinyin":"wengan","province":"贵州"},{"code":"101260604","name":"万山","pinyin":"wanshan","province":"贵州"},{"code":"101260704","name":"威宁","pinyin":"weining","province":"贵州"},{"code":"101260905","name":"望谟","pinyin":"wangmo","province":"贵州"},{"code":"101270104","name":"温江","pinyin":"wenjiang","province":"四川"},{"code":"101270606","name":"万源","pinyin":"wanyuan","province":"四川"},{"code":"101270803","name":"武胜","pinyin":"wusheng","province":"四川"},{"code":"101271203","name":"威远","pinyin":"weiyuan","province":"四川"},{"code":"101271902","name":"汶川","pinyin":"wenchuan","province":"四川"},{"code":"101272102","name":"旺苍","pinyin":"wangcang","province":"四川"},{"code":"101280204","name":"翁源","pinyin":"wengyuan","province":"广东"},{"code":"101280211","name":"武江","pinyin":"wujiang","province":"广东"},{"code":"101280408","name":"五华","pinyin":"wuhua","province":"广东"},{"code":"101281002","name":"吴川","pinyin":"wuchuan","province":"广东"},{"code":"101290208","name":"巍山","pinyin":"weishan","province":"云南"},{"code":"101290601","name":"文山","pinyin":"wenshan","province":"云南"},{"code":"101290807","name":"武定","pinyin":"wuding","province":"云南"},{"code":"101291005","name":"威信","pinyin":"weixin","province":"云南"},{"code":"101291303","name":"维西","pinyin":"weixi","province":"云南"},{"code":"101300108","name":"武鸣","pinyin":"wuming","province":"广西"},{"code":"101300405","name":"武宣","pinyin":"wuxuan","province":"广西"},{"code":"101300601","name":"梧州","pinyin":"wuzhou","province":"广西"},{"code":"101301303","name":"涠洲岛","pinyin":"weizhoudao","province":"广西"},{"code":"101310212","name":"文昌","pinyin":"wenchang","province":"海南"},{"code":"101310215","name":"万宁","pinyin":"wanning","province":"海南"},{"code":"101310222","name":"五指山","pinyin":"wuzhishan","province":"海南"},{"code":"101021200","name":"徐家汇","pinyin":"xujiahui","province":"上海"},{"code":"101030500","name":"西青","pinyin":"xiqing","province":"天津"},{"code":"101043600","name":"秀山","pinyin":"xiushan","province":"重庆"},{"code":"101050604","name":"逊克","pinyin":"xunke","province":"黑龙江"},{"code":"101050706","name":"新林","pinyin":"xinlin","province":"黑龙江"},{"code":"101070106","name":"新民","pinyin":"xinming","province":"辽宁"},{"code":"101070303","name":"岫岩","pinyin":"xiuyan","province":"辽宁"},{"code":"101070402","name":"新宾","pinyin":"xinbin","province":"辽宁"},{"code":"101071104","name":"西丰","pinyin":"xifeng","province":"辽宁"},{"code":"101071404","name":"兴城","pinyin":"xingcheng","province":"辽宁"},{"code":"101080207","name":"希拉穆仁","pinyin":"xilamuren","province":"内蒙古"},{"code":"101080406","name":"兴和","pinyin":"xinghe","province":"内蒙古"},{"code":"101080901","name":"锡林浩特","pinyin":"xilinhaote","province":"内蒙古"},{"code":"101080910","name":"西乌旗","pinyin":"xiwuqi","province":"内蒙古"},{"code":"101080912","name":"镶黄旗","pinyin":"xianghuang","province":"内蒙古"},{"code":"101081002","name":"小二沟","pinyin":"xiaoergou","province":"内蒙古"},{"code":"101081008","name":"新左旗","pinyin":"xinzuoqi","province":"内蒙古"},{"code":"101081009","name":"新右旗","pinyin":"xinyouqi","province":"内蒙古"},{"code":"101081206","name":"锡林高勒","pinyin":"xilingaole","province":"内蒙古"},{"code":"101090105","name":"行唐","pinyin":"xingtang","province":"河北"},{"code":"101090114","name":"辛集","pinyin":"xinji","province":"河北"},{"code":"101090117","name":"新乐","pinyin":"xinle","province":"河北"},{"code":"101090204","name":"徐水","pinyin":"xushui","province":"河北"},{"code":"101090217","name":"雄县","pinyin":"xiongxian","province":"河北"},{"code":"101090302","name":"宣化","pinyin":"xuanhua","province":"河北"},{"code":"101090404","name":"兴隆","pinyin":"xinglong","province":"河北"},{"code":"101090604","name":"香河","pinyin":"xianghe","province":"河北"},{"code":"101090709","name":"献县","pinyin":"xianxian","province":"河北"},{"code":"101090901","name":"邢台","pinyin":"xingtai","province":"河北"},{"code":"101090910","name":"新河","pinyin":"xinhe","province":"河北"},{"code":"101100107","name":"小店区","pinyin":"xiaodianqu","province":"山西"},{"code":"101100406","name":"昔阳","pinyin":"xiyang","province":"山西"},{"code":"101100505","name":"襄垣","pinyin":"xiangyuan","province":"山西"},{"code":"101100704","name":"隰县","pinyin":"xixian","province":"山西"},{"code":"101100707","name":"襄汾","pinyin":"xiangfen","province":"山西"},{"code":"101100712","name":"乡宁","pinyin":"xiangning","province":"山西"},{"code":"101100806","name":"新绛","pinyin":"xinjiang","province":"山西"},{"code":"101100812","name":"夏县","pinyin":"xiaxian","province":"山西"},{"code":"101101001","name":"忻州","pinyin":"xinzhou","province":"山西"},{"code":"101101103","name":"兴县","pinyin":"xingxian","province":"山西"},{"code":"101101110","name":"孝义","pinyin":"xiaoyi","province":"山西"},{"code":"101110101","name":"西安","pinyin":"xian","province":"陕西"},{"code":"101110200","name":"咸阳","pinyin":"xianyang","province":"陕西"},{"code":"101110210","name":"旬邑","pinyin":"xunyi","province":"陕西"},{"code":"101110211","name":"兴平","pinyin":"xingping","province":"陕西"},{"code":"101110705","name":"旬阳","pinyin":"xunyang","province":"陕西"},{"code":"101110807","name":"西乡","pinyin":"xixiang","province":"陕西"},{"code":"101120410","name":"夏津","pinyin":"xiajin","province":"山东"},{"code":"101120802","name":"新泰","pinyin":"xintai","province":"山东"},{"code":"101121402","name":"薛城","pinyin":"xuecheng","province":"山东"},{"code":"101130103","name":"小渠子","pinyin":"xiaoquzi","province":"新疆"},{"code":"101130805","name":"新和","pinyin":"xinhe","province":"新疆"},{"code":"101131006","name":"新源","pinyin":"xinyuan","province":"新疆"},{"code":"101140214","name":"谢通门","pinyin":"xietongmen","province":"西藏"},{"code":"101150101","name":"西宁","pinyin":"xining","province":"青海"},{"code":"101150206","name":"循化","pinyin":"xunhua","province":"青海"},{"code":"101150406","name":"兴海","pinyin":"xinghai","province":"青海"},{"code":"101160402","name":"西峰","pinyin":"xifeng","province":"甘肃"},{"code":"101161006","name":"西和","pinyin":"xihe","province":"甘肃"},{"code":"101161208","name":"夏河","pinyin":"xiahe","province":"甘肃"},{"code":"101170402","name":"西吉","pinyin":"xiji","province":"宁夏"},{"code":"101180103","name":"荥阳","pinyin":"xingyang","province":"河南"},{"code":"101180105","name":"新密","pinyin":"xinmi","province":"河南"},{"code":"101180106","name":"新郑","pinyin":"xinzheng","province":"河南"},{"code":"101180301","name":"新乡","pinyin":"xinxiang","province":"河南"},{"code":"101180401","name":"许昌","pinyin":"xuchang","province":"河南"},{"code":"101180403","name":"襄城","pinyin":"xiangcheng","province":"河南"},{"code":"101180601","name":"信阳","pinyin":"xinyang","province":"河南"},{"code":"101180602","name":"息县","pinyin":"xixian","province":"河南"},{"code":"101180605","name":"新县","pinyin":"xinxian","province":"河南"},{"code":"101180705","name":"西峡","pinyin":"xixia","province":"河南"},{"code":"101180708","name":"淅川","pinyin":"xichuan","province":"河南"},{"code":"101180709","name":"新野","pinyin":"xinye","province":"河南"},{"code":"101180902","name":"新安","pinyin":"xinan","province":"河南"},{"code":"101181008","name":"夏邑","pinyin":"xiayi","province":"河南"},{"code":"101181102","name":"修武","pinyin":"xiuwu","province":"河南"},{"code":"101181202","name":"浚县","pinyin":"xunxian","province":"河南"},{"code":"101181405","name":"西华","pinyin":"xihua","province":"河南"},{"code":"101181407","name":"项城","pinyin":"xiangcheng","province":"河南"},{"code":"101181602","name":"西平","pinyin":"xiping","province":"河南"},{"code":"101181608","name":"新蔡","pinyin":"xincai","province":"河南"},{"code":"101190204","name":"锡山","pinyin":"xishan","province":"江苏"},{"code":"101190702","name":"响水","pinyin":"xiangshui","province":"江苏"},{"code":"101190801","name":"徐州","pinyin":"xuzhou","province":"江苏"},{"code":"101190807","name":"新沂","pinyin":"xinyi","province":"江苏"},{"code":"101190903","name":"盱眙","pinyin":"xuyi","province":"江苏"},{"code":"101191202","name":"兴化","pinyin":"xinghua","province":"江苏"},{"code":"101200104","name":"新洲","pinyin":"xinzhou","province":"湖北"},{"code":"101200201","name":"襄阳","pinyin":"xiangyang","province":"湖北"},{"code":"101200202","name":"襄州","pinyin":"xiangzhou","province":"湖北"},{"code":"101200401","name":"孝感","pinyin":"xiaogan","province":"湖北"},{"code":"101200407","name":"孝昌","pinyin":"xiaochang","province":"湖北"},{"code":"101200506","name":"浠水","pinyin":"xishui","province":"湖北"},{"code":"101200605","name":"下陆","pinyin":"xialu","province":"湖北"},{"code":"101200606","name":"西塞山","pinyin":"xisaishan","province":"湖北"},{"code":"101200701","name":"咸宁","pinyin":"xianning","province":"湖北"},{"code":"101200904","name":"兴山","pinyin":"xingshan","province":"湖北"},{"code":"101201004","name":"咸丰","pinyin":"xianfeng","province":"湖北"},{"code":"101201005","name":"宣恩","pinyin":"xuanen","province":"湖北"},{"code":"101201601","name":"仙桃","pinyin":"xiantao","province":"湖北"},{"code":"101210102","name":"萧山","pinyin":"xiaoshan","province":"浙江"},{"code":"101210406","name":"象山","pinyin":"xiangshan","province":"浙江"},{"code":"101210504","name":"新昌","pinyin":"xinchang","province":"浙江"},{"code":"101210606","name":"仙居","pinyin":"xianju","province":"浙江"},{"code":"101220705","name":"萧县","pinyin":"xiaoxian","province":"安徽"},{"code":"101221007","name":"休宁","pinyin":"xiuning","province":"安徽"},{"code":"101221401","name":"宣城","pinyin":"xuancheng","province":"安徽"},{"code":"101230201","name":"厦门","pinyin":"xiamen","province":"福建"},{"code":"101230303","name":"霞浦","pinyin":"xiapu","province":"福建"},{"code":"101230402","name":"仙游","pinyin":"xianyou","province":"福建"},{"code":"101230403","name":"秀屿港","pinyin":"xiuyugang","province":"福建"},{"code":"101230405","name":"秀屿","pinyin":"xiuyu","province":"福建"},{"code":"101240102","name":"新建","pinyin":"xinjian","province":"江西"},{"code":"101240209","name":"星子","pinyin":"xingzi","province":"江西"},{"code":"101240212","name":"修水","pinyin":"xiushui","province":"江西"},{"code":"101240604","name":"新干","pinyin":"xingan","province":"江西"},{"code":"101240605","name":"峡江","pinyin":"xiajiang","province":"江西"},{"code":"101240706","name":"信丰","pinyin":"xinfeng","province":"江西"},{"code":"101240716","name":"寻乌","pinyin":"xunwu","province":"江西"},{"code":"101240717","name":"兴国","pinyin":"xingguo","province":"江西"},{"code":"101240906","name":"湘东","pinyin":"xiangdong","province":"江西"},{"code":"101241001","name":"新余","pinyin":"xinyu","province":"江西"},{"code":"101250201","name":"湘潭","pinyin":"xiangtan","province":"湖南"},{"code":"101250203","name":"湘乡","pinyin":"xiangxiang","province":"湖南"},{"code":"101250805","name":"新化","pinyin":"xinhua","province":"湖南"},{"code":"101250904","name":"新邵","pinyin":"xinshao","province":"湖南"},{"code":"101250907","name":"新宁","pinyin":"xinning","province":"湖南"},{"code":"101251003","name":"湘阴","pinyin":"xiangyin","province":"湖南"},{"code":"101251209","name":"新晃","pinyin":"xinhuang","province":"湖南"},{"code":"101251211","name":"溆浦","pinyin":"xupu","province":"湖南"},{"code":"101251409","name":"新田","pinyin":"xintian","province":"湖南"},{"code":"101260105","name":"息烽","pinyin":"xifeng","province":"贵州"},{"code":"101260107","name":"修文","pinyin":"xiuwen","province":"贵州"},{"code":"101260109","name":"小河","pinyin":"xiaohe","province":"贵州"},{"code":"101260209","name":"习水","pinyin":"xishui","province":"贵州"},{"code":"101260901","name":"兴义","pinyin":"xingyi","province":"贵州"},{"code":"101260903","name":"兴仁","pinyin":"xingren","province":"贵州"},{"code":"101270103","name":"新都","pinyin":"xindu","province":"四川"},{"code":"101270110","name":"新津","pinyin":"xinjin","province":"四川"},{"code":"101270506","name":"西充","pinyin":"xichong","province":"四川"},{"code":"101270602","name":"宣汉","pinyin":"xuanhan","province":"四川"},{"code":"101271005","name":"叙永","pinyin":"xuyong","province":"四川"},{"code":"101271110","name":"兴文","pinyin":"xingwen","province":"四川"},{"code":"101271610","name":"西昌","pinyin":"xichang","province":"四川"},{"code":"101271613","name":"喜德","pinyin":"xide","province":"四川"},{"code":"101271809","name":"新龙","pinyin":"xinlong","province":"四川"},{"code":"101271816","name":"乡城","pinyin":"xiangcheng","province":"四川"},{"code":"101271908","name":"小金","pinyin":"xiaojin","province":"四川"},{"code":"101280208","name":"新丰","pinyin":"xinfeng","province":"广东"},{"code":"101280402","name":"兴宁","pinyin":"xingning","province":"广东"},{"code":"101281004","name":"徐闻","pinyin":"xuwen","province":"广东"},{"code":"101281009","name":"霞山","pinyin":"xiashan","province":"广东"},{"code":"101281104","name":"新会","pinyin":"xinhui","province":"广东"},{"code":"101281403","name":"新兴","pinyin":"xinxing","province":"广东"},{"code":"101282005","name":"信宜","pinyin":"xinyi","province":"广东"},{"code":"101290104","name":"寻甸","pinyin":"xundian","province":"云南"},{"code":"101290207","name":"祥云","pinyin":"xiangyun","province":"云南"},{"code":"101290409","name":"宣威","pinyin":"xuanwei","province":"云南"},{"code":"101290602","name":"西畴","pinyin":"xichou","province":"云南"},{"code":"101290706","name":"新平","pinyin":"xinping","province":"云南"},{"code":"101290909","name":"西盟","pinyin":"ximeng","province":"云南"},{"code":"101291301","name":"香格里拉","pinyin":"xianggelila","province":"云南"},{"code":"101300402","name":"忻城","pinyin":"xicheng","province":"广西"},{"code":"101300404","name":"象州","pinyin":"xiangzhou","province":"广西"},{"code":"101300506","name":"兴安","pinyin":"xingan","province":"广西"},{"code":"101300906","name":"兴业","pinyin":"xingye","province":"广西"},{"code":"101301009","name":"西林","pinyin":"xilin","province":"广西"},{"code":"101310217","name":"西沙","pinyin":"xisha","province":"海南"},{"code":"101320103","name":"新界","pinyin":"xinjie","province":"香港"},{"code":"101340103","name":"新竹","pinyin":"xinzhu","province":"台湾"},{"code":"101010800","name":"延庆","pinyin":"yanqing","province":"北京"},{"code":"101040200","name":"永川","pinyin":"yongchuan","province":"重庆"},{"code":"101040700","name":"渝北","pinyin":"yubei","province":"重庆"},{"code":"101041700","name":"云阳","pinyin":"yunyang","province":"重庆"},{"code":"101043400","name":"酉阳","pinyin":"youyang","province":"重庆"},{"code":"101050106","name":"依兰","pinyin":"yilan","province":"黑龙江"},{"code":"101050110","name":"延寿","pinyin":"yanshou","province":"黑龙江"},{"code":"101050206","name":"依安","pinyin":"yian","province":"黑龙江"},{"code":"101050801","name":"伊春","pinyin":"yichun","province":"黑龙江"},{"code":"101051305","name":"友谊","pinyin":"youyi","province":"黑龙江"},{"code":"101060105","name":"榆树","pinyin":"yushu","province":"吉林"},{"code":"101060203","name":"永吉","pinyin":"yongji","province":"吉林"},{"code":"101060301","name":"延吉","pinyin":"yanji","province":"吉林"},{"code":"101060405","name":"伊通","pinyin":"yitong","province":"吉林"},{"code":"101070704","name":"义县","pinyin":"yixian","province":"辽宁"},{"code":"101070801","name":"营口","pinyin":"yingkou","province":"辽宁"},{"code":"101080707","name":"伊克乌素","pinyin":"yikewusu","province":"内蒙古"},{"code":"101080711","name":"伊金霍洛","pinyin":"yijinhuoluo","province":"内蒙古"},{"code":"101081011","name":"牙克石","pinyin":"yakeshi","province":"内蒙古"},{"code":"101081210","name":"雅布赖","pinyin":"yabulai","province":"内蒙古"},{"code":"101090112","name":"元氏","pinyin":"yuanshi","province":"河北"},{"code":"101090212","name":"易县","pinyin":"yixian","province":"河北"},{"code":"101090307","name":"蔚县","pinyin":"yuxian","province":"河北"},{"code":"101090308","name":"阳原","pinyin":"yangyuan","province":"河北"},{"code":"101090508","name":"玉田","pinyin":"yutian","province":"河北"},{"code":"101090603","name":"永清","pinyin":"yongqing","province":"河北"},{"code":"101090705","name":"盐山","pinyin":"yanshan","province":"河北"},{"code":"101091009","name":"永年","pinyin":"yongnian","province":"河北"},{"code":"101100103","name":"阳曲","pinyin":"yangqu","province":"山西"},{"code":"101100202","name":"阳高","pinyin":"yanggao","province":"山西"},{"code":"101100301","name":"阳泉","pinyin":"yangquan","province":"山西"},{"code":"101100302","name":"盂县","pinyin":"yuxian","province":"山西"},{"code":"101100402","name":"榆次","pinyin":"yuci","province":"山西"},{"code":"101100403","name":"榆社","pinyin":"yushe","province":"山西"},{"code":"101100603","name":"阳城","pinyin":"yangcheng","province":"山西"},{"code":"101100703","name":"永和","pinyin":"yonghe","province":"山西"},{"code":"101100713","name":"翼城","pinyin":"yicheng","province":"山西"},{"code":"101100801","name":"运城","pinyin":"yuncheng","province":"山西"},{"code":"101100809","name":"垣曲","pinyin":"yuanqu","province":"山西"},{"code":"101100810","name":"永济","pinyin":"yongji","province":"山西"},{"code":"101100904","name":"右玉","pinyin":"youyu","province":"山西"},{"code":"101100905","name":"应县","pinyin":"yingxian","province":"山西"},{"code":"101101015","name":"原平","pinyin":"yuanping","province":"山西"},{"code":"101110203","name":"永寿","pinyin":"yongshou","province":"陕西"},{"code":"101110300","name":"延安","pinyin":"yanan","province":"陕西"},{"code":"101110301","name":"延长","pinyin":"yanchang","province":"陕西"},{"code":"101110302","name":"延川","pinyin":"yanchuan","province":"陕西"},{"code":"101110304","name":"宜川","pinyin":"yichuan","province":"陕西"},{"code":"101110401","name":"榆林","pinyin":"yulin","province":"陕西"},{"code":"101110413","name":"榆阳","pinyin":"yuyang","province":"陕西"},{"code":"101110805","name":"洋县","pinyin":"yangxian","province":"陕西"},{"code":"101111002","name":"耀县","pinyin":"yaoxian","province":"陕西"},{"code":"101111003","name":"宜君","pinyin":"yijun","province":"陕西"},{"code":"101111004","name":"耀州","pinyin":"yaozhou","province":"陕西"},{"code":"101111101","name":"杨凌","pinyin":"yangling","province":"陕西"},{"code":"101120306","name":"沂源","pinyin":"yiyuan","province":"山东"},{"code":"101120411","name":"禹城","pinyin":"yucheng","province":"山东"},{"code":"101120501","name":"烟台","pinyin":"yantai","province":"山东"},{"code":"101120704","name":"鱼台","pinyin":"yutai","province":"山东"},{"code":"101120705","name":"兖州","pinyin":"yanzhou","province":"山东"},{"code":"101120903","name":"沂南","pinyin":"yinan","province":"山东"},{"code":"101120910","name":"沂水","pinyin":"yishui","province":"山东"},{"code":"101121003","name":"郓城","pinyin":"yuncheng","province":"山东"},{"code":"101121104","name":"阳信","pinyin":"yangxin","province":"山东"},{"code":"101121403","name":"峄城","pinyin":"yicheng","province":"山东"},{"code":"101121703","name":"阳谷","pinyin":"yanggu","province":"山东"},{"code":"101130607","name":"焉耆","pinyin":"yanqi","province":"新疆"},{"code":"101130902","name":"英吉沙","pinyin":"yingjisha","province":"新疆"},{"code":"101130906","name":"叶城","pinyin":"yecheng","province":"新疆"},{"code":"101130909","name":"岳普湖","pinyin":"yuepuhu","province":"新疆"},{"code":"101131001","name":"伊宁","pinyin":"yining","province":"新疆"},{"code":"101131004","name":"伊宁县","pinyin":"yiningxian","province":"新疆"},{"code":"101131102","name":"裕民","pinyin":"yumin","province":"新疆"},{"code":"101131204","name":"伊吾","pinyin":"yiwu","province":"新疆"},{"code":"101131307","name":"于田","pinyin":"yutian","province":"新疆"},{"code":"101140218","name":"亚东","pinyin":"yadong","province":"西藏"},{"code":"101150601","name":"玉树","pinyin":"yushu","province":"青海"},{"code":"101160103","name":"永登","pinyin":"yongdeng","province":"甘肃"},{"code":"101160104","name":"榆中","pinyin":"yuzhong","province":"甘肃"},{"code":"101160602","name":"永昌","pinyin":"yongchang","province":"甘肃"},{"code":"101160807","name":"玉门","pinyin":"yumen","province":"甘肃"},{"code":"101161103","name":"永靖","pinyin":"yongjing","province":"甘肃"},{"code":"101170101","name":"银川","pinyin":"yinchuan","province":"宁夏"},{"code":"101170102","name":"永宁","pinyin":"yongning","province":"宁夏"},{"code":"101170303","name":"盐池","pinyin":"yanchi","province":"宁夏"},{"code":"101180303","name":"原阳","pinyin":"yuanyang","province":"河南"},{"code":"101180306","name":"延津","pinyin":"yanjin","province":"河南"},{"code":"101180402","name":"鄢陵","pinyin":"yanling","province":"河南"},{"code":"101180405","name":"禹州","pinyin":"yuzhou","province":"河南"},{"code":"101180505","name":"叶县","pinyin":"yexian","province":"河南"},{"code":"101180904","name":"宜阳","pinyin":"yiyang","province":"河南"},{"code":"101180906","name":"伊川","pinyin":"yichuan","province":"河南"},{"code":"101180908","name":"偃师","pinyin":"yanshi","province":"河南"},{"code":"101181005","name":"虞城","pinyin":"yucheng","province":"河南"},{"code":"101181009","name":"永城","pinyin":"yongcheng","province":"河南"},{"code":"101181705","name":"义马","pinyin":"yima","province":"河南"},{"code":"101190203","name":"宜兴","pinyin":"yixing","province":"江苏"},{"code":"101190303","name":"扬中","pinyin":"yangzhong","province":"江苏"},{"code":"101190601","name":"扬州","pinyin":"yangzhou","province":"江苏"},{"code":"101190603","name":"仪征","pinyin":"yizheng","province":"江苏"},{"code":"101190701","name":"盐城","pinyin":"yancheng","province":"江苏"},{"code":"101190709","name":"盐都","pinyin":"yandu","province":"江苏"},{"code":"101200205","name":"宜城","pinyin":"yicheng","province":"湖北"},{"code":"101200403","name":"云梦","pinyin":"yunmeng","province":"湖北"},{"code":"101200405","name":"应城","pinyin":"yingcheng","province":"湖北"},{"code":"101200505","name":"英山","pinyin":"yingshan","province":"湖北"},{"code":"101200603","name":"阳新","pinyin":"yangxin","province":"湖北"},{"code":"101200901","name":"宜昌","pinyin":"yichang","province":"湖北"},{"code":"101200902","name":"远安","pinyin":"yuanan","province":"湖北"},{"code":"101200909","name":"宜都","pinyin":"yidu","province":"湖北"},{"code":"101200912","name":"夷陵","pinyin":"yiling","province":"湖北"},{"code":"101201103","name":"郧西","pinyin":"yunxi","province":"湖北"},{"code":"101201104","name":"郧县","pinyin":"yunxian","province":"湖北"},{"code":"101210106","name":"余杭","pinyin":"yuhang","province":"浙江"},{"code":"101210404","name":"余姚","pinyin":"yuyao","province":"浙江"},{"code":"101210411","name":"鄞州","pinyin":"yinzhou","province":"浙江"},{"code":"101210603","name":"玉环","pinyin":"yuhuan","province":"浙江"},{"code":"101210707","name":"乐清","pinyin":"yueqing","province":"浙江"},{"code":"101210708","name":"永嘉","pinyin":"yongjia","province":"浙江"},{"code":"101210806","name":"云和","pinyin":"yunhe","province":"浙江"},{"code":"101210904","name":"义乌","pinyin":"yiwu","province":"浙江"},{"code":"101210907","name":"永康","pinyin":"yongkang","province":"浙江"},{"code":"101220608","name":"岳西","pinyin":"yuexi","province":"安徽"},{"code":"101220803","name":"颍上","pinyin":"yingshang","province":"安徽"},{"code":"101221005","name":"黟县","pinyin":"yixian","province":"安徽"},{"code":"101230107","name":"永泰","pinyin":"yongtai","province":"福建"},{"code":"101230504","name":"永春","pinyin":"yongchun","province":"福建"},{"code":"101230609","name":"云霄","pinyin":"yunxiao","province":"福建"},{"code":"101230706","name":"永定","pinyin":"yongding","province":"福建"},{"code":"101230809","name":"尤溪","pinyin":"youxi","province":"福建"},{"code":"101230810","name":"永安","pinyin":"yongan","province":"福建"},{"code":"101240206","name":"永修","pinyin":"yongxiu","province":"江西"},{"code":"101240305","name":"余干","pinyin":"yugan","province":"江西"},{"code":"101240309","name":"弋阳","pinyin":"yiyang","province":"江西"},{"code":"101240311","name":"铅山","pinyin":"yanshan","province":"江西"},{"code":"101240312","name":"玉山","pinyin":"yushan","province":"江西"},{"code":"101240407","name":"宜黄","pinyin":"yihuang","province":"江西"},{"code":"101240501","name":"宜春","pinyin":"yichun","province":"江西"},{"code":"101240503","name":"宜丰","pinyin":"yifeng","province":"江西"},{"code":"101240606","name":"永丰","pinyin":"yongfeng","province":"江西"},{"code":"101240607","name":"永新","pinyin":"yongxin","province":"江西"},{"code":"101240710","name":"于都","pinyin":"yudu","province":"江西"},{"code":"101241101","name":"鹰潭","pinyin":"yingtan","province":"江西"},{"code":"101241102","name":"余江","pinyin":"yujiang","province":"江西"},{"code":"101250302","name":"攸县","pinyin":"youxian","province":"湖南"},{"code":"101250306","name":"炎陵","pinyin":"yanling","province":"湖南"},{"code":"101250504","name":"宜章","pinyin":"yizhang","province":"湖南"},{"code":"101250510","name":"永兴","pinyin":"yongxing","province":"湖南"},{"code":"101250700","name":"益阳","pinyin":"yiyang","province":"湖南"},{"code":"101250705","name":"沅江","pinyin":"yuanjiang","province":"湖南"},{"code":"101251001","name":"岳阳","pinyin":"yueyang","province":"湖南"},{"code":"101251203","name":"沅陵","pinyin":"yuanling","province":"湖南"},{"code":"101251401","name":"永州","pinyin":"yongzhou","province":"湖南"},{"code":"101251503","name":"永顺","pinyin":"yongshun","province":"湖南"},{"code":"101260110","name":"云岩","pinyin":"yunyan","province":"贵州"},{"code":"101260213","name":"余庆","pinyin":"yuqing","province":"贵州"},{"code":"101260603","name":"玉屏","pinyin":"yuping","province":"贵州"},{"code":"101260607","name":"印江","pinyin":"yinjiang","province":"贵州"},{"code":"101260609","name":"沿河","pinyin":"yanhe","province":"贵州"},{"code":"101270204","name":"盐边","pinyin":"yanbian","province":"四川"},{"code":"101270403","name":"盐亭","pinyin":"yanting","province":"四川"},{"code":"101270503","name":"营山","pinyin":"yingshan","province":"四川"},{"code":"101270505","name":"仪陇","pinyin":"yilong","province":"四川"},{"code":"101270802","name":"岳池","pinyin":"yuechi","province":"四川"},{"code":"101271101","name":"宜宾","pinyin":"yibin","province":"四川"},{"code":"101271103","name":"宜宾县","pinyin":"yibinxian","province":"四川"},{"code":"101271604","name":"盐源","pinyin":"yanyuan","province":"四川"},{"code":"101271615","name":"越西","pinyin":"yuexi","province":"四川"},{"code":"101271701","name":"雅安","pinyin":"yaan","province":"四川"},{"code":"101271703","name":"荥经","pinyin":"yingjing","province":"四川"},{"code":"101271806","name":"雅江","pinyin":"yajiang","province":"四川"},{"code":"101281305","name":"阳山","pinyin":"yangshan","province":"广东"},{"code":"101281307","name":"英德","pinyin":"yingde","province":"广东"},{"code":"101281401","name":"云浮","pinyin":"yunfu","province":"广东"},{"code":"101281404","name":"郁南","pinyin":"yunan","province":"广东"},{"code":"101281406","name":"云安","pinyin":"yunan","province":"广东"},{"code":"101281801","name":"阳江","pinyin":"yangjiang","province":"广东"},{"code":"101281802","name":"阳春","pinyin":"yangchun","province":"广东"},{"code":"101281803","name":"阳东","pinyin":"yangdong","province":"广东"},{"code":"101281804","name":"阳西","pinyin":"yangxi","province":"广东"},{"code":"101290106","name":"宜良","pinyin":"yiliang","province":"云南"},{"code":"101290202","name":"云龙","pinyin":"yunlong","province":"云南"},{"code":"101290203","name":"漾濞","pinyin":"yangbi","province":"云南"},{"code":"101290204","name":"永平","pinyin":"yongping","province":"云南"},{"code":"101290305","name":"元阳","pinyin":"yuanyang","province":"云南"},{"code":"101290605","name":"砚山","pinyin":"yanshan","province":"云南"},{"code":"101290701","name":"玉溪","pinyin":"yuxi","province":"云南"},{"code":"101290707","name":"易门","pinyin":"yimen","province":"云南"},{"code":"101290709","name":"元江","pinyin":"yuanjiang","province":"云南"},{"code":"101290803","name":"元谋","pinyin":"yuanmou","province":"云南"},{"code":"101290804","name":"姚安","pinyin":"yaoan","province":"云南"},{"code":"101290810","name":"永仁","pinyin":"yongren","province":"云南"},{"code":"101291003","name":"彝良","pinyin":"yiliang","province":"云南"},{"code":"101291008","name":"永善","pinyin":"yongshan","province":"云南"},{"code":"101291009","name":"盐津","pinyin":"yanjin","province":"云南"},{"code":"101291106","name":"永德","pinyin":"yongde","province":"云南"},{"code":"101291107","name":"云县","pinyin":"yunxian","province":"云南"},{"code":"101291402","name":"永胜","pinyin":"yongsheng","province":"云南"},{"code":"101291504","name":"盈江","pinyin":"yingjiang","province":"云南"},{"code":"101300103","name":"邕宁","pinyin":"yongning","province":"广西"},{"code":"101300504","name":"永福","pinyin":"yongfu","province":"广西"},{"code":"101300510","name":"阳朔","pinyin":"yangshuo","province":"广西"},{"code":"101300901","name":"玉林","pinyin":"yulin","province":"广西"},{"code":"101301207","name":"宜州","pinyin":"yizhou","province":"广西"},{"code":"101340104","name":"宜兰","pinyin":"yilan","province":"台湾"},{"code":"101340406","name":"云林","pinyin":"yunlin","province":"台湾"},{"code":"101042400","name":"忠县","pinyin":"zhongxian","province":"重庆"},{"code":"101050502","name":"肇东","pinyin":"zhaodong","province":"黑龙江"},{"code":"101050903","name":"肇州","pinyin":"zhaozhou","province":"黑龙江"},{"code":"101050904","name":"肇源","pinyin":"zhaoyuan","province":"黑龙江"},{"code":"101060604","name":"镇赉","pinyin":"zhenlai","province":"吉林"},{"code":"101070207","name":"庄河","pinyin":"zhuanghe","province":"辽宁"},{"code":"101070404","name":"章党","pinyin":"zhangdang","province":"辽宁"},{"code":"101070902","name":"彰武","pinyin":"zhangwu","province":"辽宁"},{"code":"101080402","name":"卓资","pinyin":"zhuozi","province":"内蒙古"},{"code":"101080509","name":"扎鲁特","pinyin":"zhalute","province":"内蒙古"},{"code":"101080704","name":"准格尔","pinyin":"zhungeer","province":"内蒙古"},{"code":"101080908","name":"朱日和","pinyin":"zhurihe","province":"内蒙古"},{"code":"101080913","name":"正镶白旗","pinyin":"zhengxiangbaiqi","province":"内蒙古"},{"code":"101080914","name":"正兰旗","pinyin":"zhenglanqi","province":"内蒙古"},{"code":"101081012","name":"扎兰屯","pinyin":"zhalantun","province":"内蒙古"},{"code":"101081105","name":"扎赉特","pinyin":"zhanlaite","province":"内蒙古"},{"code":"101081208","name":"中泉子","pinyin":"zhongquanzi","province":"内蒙古"},{"code":"101090103","name":"正定","pinyin":"zhengding","province":"河北"},{"code":"101090109","name":"赞皇","pinyin":"zanhuang","province":"河北"},{"code":"101090113","name":"赵县","pinyin":"zhaoxian","province":"河北"},{"code":"101090218","name":"涿州","pinyin":"zhuozhou","province":"河北"},{"code":"101090301","name":"张家口","pinyin":"zhangjiakou","province":"河北"},{"code":"101090303","name":"张北","pinyin":"zhangbei","province":"河北"},{"code":"101090312","name":"涿鹿","pinyin":"zhuolu","province":"河北"},{"code":"101090510","name":"遵化","pinyin":"zunhua","province":"河北"},{"code":"101090802","name":"枣强","pinyin":"zaoqiang","province":"河北"},{"code":"101100208","name":"左云","pinyin":"zuoyun","province":"山西"},{"code":"101100404","name":"左权","pinyin":"zuoquan","province":"山西"},{"code":"101100509","name":"长子","pinyin":"zhangzi","province":"山西"},{"code":"101100606","name":"泽州","pinyin":"zezhou","province":"山西"},{"code":"101101109","name":"中阳","pinyin":"zhongyang","province":"山西"},{"code":"101110105","name":"周至","pinyin":"zhouzhi","province":"陕西"},{"code":"101110303","name":"子长","pinyin":"zichang","province":"陕西"},{"code":"101110306","name":"志丹","pinyin":"zhidan","province":"陕西"},{"code":"101110409","name":"子洲","pinyin":"zizhou","province":"陕西"},{"code":"101110603","name":"柞水","pinyin":"zhashui","province":"陕西"},{"code":"101110605","name":"镇安","pinyin":"zhenan","province":"陕西"},{"code":"101110702","name":"紫阳","pinyin":"ziyang","province":"陕西"},{"code":"101110709","name":"镇坪","pinyin":"zhenping","province":"陕西"},{"code":"101110811","name":"镇巴","pinyin":"zhenba","province":"陕西"},{"code":"101120104","name":"章丘","pinyin":"zhangqiu","province":"山东"},{"code":"101120301","name":"淄博","pinyin":"zibo","province":"山东"},{"code":"101120302","name":"淄川","pinyin":"zichuan","province":"山东"},{"code":"101120305","name":"周村","pinyin":"zhoucun","province":"山东"},{"code":"101120506","name":"招远","pinyin":"zhaoyuan","province":"山东"},{"code":"101120609","name":"诸城","pinyin":"zhucheng","province":"山东"},{"code":"101120711","name":"邹城","pinyin":"zoucheng","province":"山东"},{"code":"101121106","name":"沾化","pinyin":"zhanhua","province":"山东"},{"code":"101121107","name":"邹平","pinyin":"zouping","province":"山东"},{"code":"101121401","name":"枣庄","pinyin":"zaozhuang","province":"山东"},{"code":"101130907","name":"泽普","pinyin":"zepu","province":"新疆"},{"code":"101131007","name":"昭苏","pinyin":"zhaosu","province":"新疆"},{"code":"101140208","name":"仲巴","pinyin":"zhongba","province":"西藏"},{"code":"101140303","name":"札囊","pinyin":"zhanan","province":"西藏"},{"code":"101140308","name":"泽当","pinyin":"zedang","province":"西藏"},{"code":"101140505","name":"左贡","pinyin":"zuogong","province":"西藏"},{"code":"101140706","name":"札达","pinyin":"zhada","province":"西藏"},{"code":"101150303","name":"泽库","pinyin":"zeku","province":"青海"},{"code":"101150603","name":"治多","pinyin":"zhiduo","province":"青海"},{"code":"101150604","name":"杂多","pinyin":"zaduo","province":"青海"},{"code":"101160206","name":"漳县","pinyin":"zhangxian","province":"甘肃"},{"code":"101160306","name":"庄浪","pinyin":"zhuanglang","province":"甘肃"},{"code":"101160406","name":"正宁","pinyin":"zhengning","province":"甘肃"},{"code":"101160408","name":"镇原","pinyin":"zhenyuan","province":"甘肃"},{"code":"101160701","name":"张掖","pinyin":"zhangye","province":"甘肃"},{"code":"101160907","name":"张家川","pinyin":"zhangjiachuan","province":"甘肃"},{"code":"101161203","name":"卓尼","pinyin":"zhuoni","province":"甘肃"},{"code":"101161204","name":"舟曲","pinyin":"zhouqu","province":"甘肃"},{"code":"101170501","name":"中卫","pinyin":"zhongwei","province":"宁夏"},{"code":"101170502","name":"中宁","pinyin":"zhongning","province":"宁夏"},{"code":"101180101","name":"郑州","pinyin":"zhengzhou","province":"河南"},{"code":"101180107","name":"中牟","pinyin":"zhongmou","province":"河南"},{"code":"101180707","name":"镇平","pinyin":"zhenping","province":"河南"},{"code":"101181006","name":"柘城","pinyin":"zhecheng","province":"河南"},{"code":"101181401","name":"周口","pinyin":"zhoukou","province":"河南"},{"code":"101181601","name":"驻马店","pinyin":"zhumadian","province":"河南"},{"code":"101181610","name":"正阳","pinyin":"zhengyang","province":"河南"},{"code":"101190301","name":"镇江","pinyin":"zhenjiang","province":"江苏"},{"code":"101190403","name":"张家港","pinyin":"zhangjiagang","province":"江苏"},{"code":"101200208","name":"枣阳","pinyin":"zaoyang","province":"湖北"},{"code":"101200903","name":"秭归","pinyin":"zigui","province":"湖北"},{"code":"101200910","name":"枝江","pinyin":"zhijiang","province":"湖北"},{"code":"101201102","name":"竹溪","pinyin":"zhuxi","province":"湖北"},{"code":"101201105","name":"竹山","pinyin":"zhushan","province":"湖北"},{"code":"101201109","name":"张湾","pinyin":"zhangwan","province":"湖北"},{"code":"101201402","name":"钟祥","pinyin":"zhongxiang","province":"湖北"},{"code":"101210412","name":"镇海","pinyin":"zhenhai","province":"浙江"},{"code":"101210502","name":"诸暨","pinyin":"zhuji","province":"浙江"},{"code":"101211101","name":"舟山","pinyin":"zhoushan","province":"浙江"},{"code":"101220602","name":"枞阳","pinyin":"zongyang","province":"安徽"},{"code":"101230305","name":"周宁","pinyin":"zhouning","province":"福建"},{"code":"101230307","name":"柘荣","pinyin":"zherong","province":"福建"},{"code":"101230601","name":"漳州","pinyin":"zhangzhou","province":"福建"},{"code":"101230606","name":"漳浦","pinyin":"zhangpu","province":"福建"},{"code":"101230607","name":"诏安","pinyin":"zhaoan","province":"福建"},{"code":"101230707","name":"漳平","pinyin":"zhangping","province":"福建"},{"code":"101230909","name":"政和","pinyin":"zhenghe","province":"福建"},{"code":"101240406","name":"资溪","pinyin":"zixi","province":"江西"},{"code":"101240509","name":"樟树","pinyin":"zhangshu","province":"江西"},{"code":"101250301","name":"株洲","pinyin":"zhuzhou","province":"湖南"},{"code":"101250507","name":"资兴","pinyin":"zixing","province":"湖南"},{"code":"101251101","name":"张家界","pinyin":"zhangjiajie","province":"湖南"},{"code":"101251210","name":"芷江","pinyin":"zhijiang","province":"湖南"},{"code":"101251212","name":"中方","pinyin":"zhongfang","province":"湖南"},{"code":"101260201","name":"遵义","pinyin":"zunyi","province":"贵州"},{"code":"101260202","name":"遵义县","pinyin":"zunyixian","province":"贵州"},{"code":"101260211","name":"正安","pinyin":"zhengan","province":"贵州"},{"code":"101260303","name":"镇宁","pinyin":"zhenning","province":"贵州"},{"code":"101260305","name":"紫云","pinyin":"ziyun","province":"贵州"},{"code":"101260504","name":"镇远","pinyin":"zhenyuan","province":"贵州"},{"code":"101260707","name":"织金","pinyin":"zhijin","province":"贵州"},{"code":"101260904","name":"贞丰","pinyin":"zhenfeng","province":"贵州"},{"code":"101270301","name":"自贡","pinyin":"zigong","province":"四川"},{"code":"101270405","name":"梓潼","pinyin":"zitong","province":"四川"},{"code":"101271204","name":"资中","pinyin":"zizhong","province":"四川"},{"code":"101271301","name":"资阳","pinyin":"ziyang","province":"四川"},{"code":"101271612","name":"昭觉","pinyin":"zhaojue","province":"四川"},{"code":"101272002","name":"中江","pinyin":"zhongjiang","province":"四川"},{"code":"101280104","name":"增城","pinyin":"zengcheng","province":"广东"},{"code":"101280701","name":"珠海","pinyin":"zhuhai","province":"广东"},{"code":"101280901","name":"肇庆","pinyin":"zhaoqing","province":"广东"},{"code":"101281001","name":"湛江","pinyin":"zhanjiang","province":"广东"},{"code":"101281202","name":"紫金","pinyin":"zijin","province":"广东"},{"code":"101281701","name":"中山","pinyin":"zhongshan","province":"广东"},{"code":"101290402","name":"沾益","pinyin":"zhanyi","province":"云南"},{"code":"101290911","name":"镇沅","pinyin":"zhenyuan","province":"云南"},{"code":"101291001","name":"昭通","pinyin":"zhaotong","province":"云南"},{"code":"101291004","name":"镇雄","pinyin":"zhenxiong","province":"云南"},{"code":"101291108","name":"镇康","pinyin":"zhenkang","province":"云南"},{"code":"101291304","name":"中甸","pinyin":"zhongdian","province":"云南"},{"code":"101300514","name":"资源","pinyin":"ziyuan","province":"广西"},{"code":"101300702","name":"昭平","pinyin":"zhaoping","province":"广西"},{"code":"101300704","name":"钟山","pinyin":"zhongshan","province":"广西"},{"code":"101340403","name":"彰化","pinyin":"zhanghua","province":"台湾"}]